WKT,ID,NAME,TAGS,WEBSITE,ADDRESS,PHONE,HOURS,CREATED_AT,UPDATED_AT,GEOMETRY_X,GEOMETRY_Y
"POINT (173.392571 -35.260487)",1056380,Baines Four Square,"supermarket, groceries",http://www.foursquare.co.nz,"Main Road, Broadwood",(09) 409 5808,,2006-10-29 13:28:28,2007-10-09 00:41:38,173.392571,-35.260487
"POINT (174.956685000004825 -37.828996999996633)",1056040,Te Uku Four Square,"supermarket, groceries",http://www.foursquare.co.nz,"Main Road, Te Uku",(07) 825 5860,,2006-10-29 13:28:11,2007-05-15 21:01:11,174.956685,-37.828997
"POINT (174.844417000003574 -36.916242999997792)",1098400,T-Market Supermarket,Office & Wholesale,,"8 Arthur Brown Place, Mt Wellington, Auckland",(09) 573 0808,,2007-04-17 17:04:56,2007-04-17 17:04:56,174.844417,-36.916243
"POINT (172.021066999999874 -43.75512)",1054590,Rakaia Foodstore,"supermarket, groceries",,"Elizabeth Avenue, Rakaia",(03) 302 7307,,2006-10-29 13:27:00,2007-12-04 17:25:48,172.021067,-43.75512
"POINT (175.539200000019775 -37.138829999984708)",1028880,PAK 'n SAVE Thames,supermarket,http://www.paknsave.co.nz,"100 Mary Street, Thames",(07) 868 9565,7 days 8am-8pm,2006-08-31 11:40:20,2008-04-13 19:41:56,175.5392,-37.13883
"POINT (174.893117000003684 -41.117398999996652)",1030770,New World Whitby,"Supermarket, Lotto",http://www.newworld.co.nz,"Whitby Village Centre, Whitby",(04) 234 8961,"7am-9pm, 7 days a week",2006-08-31 14:05:16,2007-03-17 18:54:20,174.893117,-41.117399
"POINT (172.605182 -43.529213)",1098400,T-Market Supermarket Riccarton,Asian supermarket,,"62 Riccarton Rd, Riccarton, Christchurch",(03) 982 9080,,2007-04-17 17:04:58,2007-04-17 17:04:58,172.605182,-43.529213
"POINT (174.832128000003109 -41.129110999997252)",1055160,Elsdon Supermarket and Dairy Ltd,"supermarket, groceries",,"27 Awarua Street, Elsdon, Porirua",(04) 237 7299,,2006-10-29 13:27:28,2006-10-29 13:27:28,174.832128,-41.129111
"POINT (174.450531000001035 -36.67633599999948)",1123090,Helensville Superette,Supermarket,,"68 Commercial Road, Helensville",,,2008-06-12 17:23:23,2008-06-12 17:23:23,174.450531,-36.676336
"POINT (174.557072000001483 -36.776308999999202)",1123090,Kumeu Pricecutter,Supermarket,,"80 Main Road, Kumeu",,,2008-06-12 17:23:23,2008-06-12 17:23:23,174.557072,-36.776309
"POINT (174.494626000001205 -36.766771999999378)",1123090,Waimauku SuperValue,Supermarket,http://www.progressive.co.nz/,"5-19 Factory Road, Waimauku",(09) 411 7890,"Mon - Sun, 7am - 9pm",2008-06-12 17:23:23,2008-06-12 17:23:23,174.494626,-36.766772
"POINT (175.324996000010799 -41.116986999988562)",1055450,Featherston Community Supermarket,"supermarket, groceries",,"Fitzherbet & Johnston Street, Featherston",(06) 308 9104,,2006-10-29 13:27:42,2008-06-08 11:43:27,175.324996,-41.116987
"POINT (176.587326000110068 -39.943826999855474)",1031370,New World Waipawa,supermarket,http://www.newworld.co.nz,"36 High Street, Waipawa",(06) 857 8038,"7am - 8pm, 7 days week",2006-08-31 14:05:32,2008-06-08 12:22:25,176.587326,-39.9438269999
"POINT (171.864750999999757 -42.119758999999839)",1029390,Reefton SuperValue,supermarket food,http://www.reeftonsupervalue.com,"65 Broadway, Reefton",(03) 732 8313,"Mon - Sun,8am - 7pm",2006-08-31 13:52:48,2008-06-13 13:31:53,171.864751,-42.119759
"POINT (176.837772000157344 -39.636783999787241)",1028830,PAK 'n SAVE Hastings,supermarket,http://www.paknsave.co.nz,"600 Heretaunga Streets, Hastings",(06) 876 6053,"6am - midnight, 7 days a week",2006-08-31 11:40:19,2007-09-17 19:48:12,176.837772,-39.6367839998
"POINT (173.800846 -35.408911)",1098970,New World Kaikohe,"supermarket, Lotto",http://www.newworld.co.nz,"Marino Place, Kaikohe",(09) 401 5088,"8am-9pm, 7 days",2007-05-14 22:48:14,2007-08-02 14:05:16,173.800846,-35.408911
"POINT (172.829018 -42.521269)",1054660,Hanmer Springs Four Square Supermarket,"supermarket, groceries, Lotto",http://www.foursquare.co.nz,"Conical Hill Road, Hanmer Springs",(03) 315 7190,,2006-10-29 13:27:04,2008-04-04 09:46:01,172.829018,-42.521269
"POINT (177.284528000302487 -38.006660999627393)",1055870,Opotiki Four Square,"supermarket, groceries",http://www.foursquare.co.nz,"98 Church Street, Opotiki",(07) 315 6245,,2006-10-29 13:28:03,2007-09-10 20:06:21,177.284528,-38.0066609996
"POINT (175.278041000010404 -39.426749999990768)",1055660,Raetihi Pricecutters,"supermarket, groceries",,"72 Seddon Street, Raetihi",(06) 385 4107,,2006-10-29 13:27:52,2007-01-23 13:10:14,175.278041,-39.42675
"POINT (175.278090000010877 -37.749369999991679)",1096910,New Save Asian Supermarket Chartwell,"Supermarket, Asian food supplies",,"Hukanui Rd, Chartwell Sq, Hamilton",,,2007-03-29 11:55:19,2007-03-29 11:55:19,175.27809,-37.74937
"POINT (175.283733000011068 -37.789806999991534)",1098400,T-Market Supermarket Hamilton,Asian supermarket,,"48 Alexandra St, Hamilton",(07) 839 6789,,2007-04-17 17:04:59,2007-04-17 17:04:59,175.283733,-37.789807
"POINT (173.78046 -35.10048)",1056320,Kaeo Four Square,"supermarket, groceries, Lotto",http://www.foursquare.co.nz,"Leigh Street, Kaeo",(09) 405 0658,,2006-10-29 13:28:25,2007-05-07 16:49:16,173.78046,-35.10048
"POINT (174.281852000000498 -39.587666)",1029500,Hawera Countdown,supermarket,http://www.progressive.co.nz,"Cnr Union and Nelson Sts, Hawera",(06) 278 0026,"Mon - Sun, 7am - 11pm",2006-08-31 13:52:51,2007-09-09 17:47:42,174.281852,-39.587666
"POINT (175.668136000025726 -37.378188999979059)",1029880,Paeroa Woolworths,supermarket,http://www.progressive.co.nz,"Belmont Rd, Paeroa",(07) 862 8719,7 days 7am-10pm,2006-08-31 13:53:00,2007-03-04 22:47:17,175.668136,-37.378189
"POINT (168.23889299997677 -45.66984099899436)",1039580,Mossburn General Store,"Mobil petrol station. Four Square supermarket, groceries",http://www.mobil.co.nz,"37 Devon St, Mossburn",(03) 248 6011,,2006-10-04 15:51:17,2008-04-09 20:00:01,168.238893,-45.669840999
"POINT (175.868894000033947 -40.337828999961289)",1055650,Woodville Four Square Discounter,"supermarket, groceries",http://www.foursquare.co.nz,"90 Vogel Street, Woodville",(06) 376 5977,,2006-10-29 13:27:52,2006-10-29 13:27:52,175.868894,-40.337829
"POINT (172.021147 -43.755558)",1054590,Rakaia Four Square,"supermarket, groceries",http://www.foursquare.co.nz,"Railway Terrace, Rakaia",(03) 302 7652,,2006-10-29 13:27:01,2007-09-11 11:56:01,172.021147,-43.755558
"POINT (174.325221000000653 -35.707904999999712)",1056520,Youngs Four Square,"supermarket, groceries",http://www.foursquare.co.nz,"61 Mill Road, Whangarei",(09) 437 2404,,2006-10-29 13:28:34,2006-10-29 13:28:34,174.325221,-35.707905
"POINT (175.27666000001085 -37.786719999991689)",1029850,Hamilton Foodtown,"supermarket, Lotto",http://www.progressive.co.nz,"Cnr Bryce & Tristram Streets, Hamilton",(07) 838 2738,Mon-Sun 7am-9pm,2006-08-31 13:52:59,2008-05-22 22:21:21,175.27666,-37.78672
"POINT (173.11757 -34.814931)",1056390,Houhora Wharf Four Square,"supermarket, groceries, Lotto",http://www.foursquare.co.nz,"Far North Road, Pukenui",(09) 409 8819,,2006-10-29 13:28:28,2008-04-04 09:45:09,173.11757,-34.814931
"POINT (177.996043000549918 -38.656943999029167)",1055840,Buyrite Four Square Gisbore,"supermarket, groceries",http://www.foursquare.co.nz,"701 Childers Road, Gisborne",(06) 867 7368,,2006-10-29 13:28:01,2006-10-29 13:28:01,177.996043001,-38.656943999
"POINT (176.191727000066834 -37.725396999937274)",1056610,Welcome Bay Four Square,"supermarket, groceries",http://www.foursquare.co.nz,"248 Welcome Bay Rd, Tauranga",(07) 544 2512,,2006-10-29 13:28:39,2006-10-29 13:28:39,176.191727,-37.7253969999
"POINT (175.378081000012742 -40.068106999987613)",1029520,Marton Woolworths,supermarket,http://www.progressive.co.nz,"280-284 Broadway, Marton",(06) 327 8457,"Mon - Sun, 7am - 10pm",2006-08-31 13:52:51,2006-09-01 11:55:23,175.378081,-40.068107
"POINT (172.3827 -43.59661)",1030560,New World Rolleston,supermarket,http://www.newworld.co.nz,"Cnr Tennyson Street & Rolleston Drive, Rolleston",(03) 347 4404,"8am-8pm, 7 days a week",2006-08-31 14:05:11,2007-09-24 20:35:00,172.3827,-43.59661
"POINT (174.614189000001772 -36.821188999999002)",1030370,Westgate Countdown,supermarket,http://www.progressive.co.nz,"The Westgate City Centre, Fernhill Drive, Massey",(09) 832 2033,"Mon - Sun, 24 hours",2006-08-31 13:53:12,2006-11-05 08:01:57,174.614189,-36.821189
"POINT (174.722915000002502 -36.92529699999853)",1030300,Lynfield Countdown,"supermarket, Lotto",http://www.progressive.co.nz,"570 Hillsborough Road, Lynfield",(09) 626 0371,"Mon - Sun, 24 hours",2006-08-31 13:53:10,2007-03-18 18:46:21,174.722915,-36.925297
"POINT (176.070548000052412 -38.683754999947148)",1029740,Taupo Woolworths,"supermarket, Lotto",http://www.progressive.co.nz,"Cnr Spa Rd & Tongariro St, Taupo",(07) 378 7040,Mon - Sun. 6am-Midnight,2006-08-31 13:52:56,2007-09-19 17:56:45,176.070548,-38.6837549999
"POINT (171.276727999998059 -44.24163799999782)",1030710,New World Temuka,supermarket,http://www.newworld.co.nz,"185 King Street, Temuka",(03) 615 7770,"8am-8pm, 7 days a week",2006-08-31 14:05:14,2006-09-01 11:55:30,171.276728,-44.241638
"POINT (175.809156000032232 -38.990986999968413)",1031090,New World Turangi,supermarket,http://www.newworld.co.nz,"Town Centre, Turangi",(07) 386 8780,Monday - Sunday 8.30am-7pm,2006-08-31 14:05:24,2008-03-10 14:39:31,175.809156,-38.990987
"POINT (172.806551 -40.861359)",1029290,Takaka Fresh Choice,"supermarket, grocery store",http://www.progressive.co.nz,"13 Willow  Street, Takaka",(03) 525 9383,"Mon - Sun, 8am - 8pm",2006-08-31 13:52:46,2008-04-21 09:37:51,172.806551,-40.861359
"POINT (170.619729999991023 -45.816735999984068)",1030650,New World Port Chalmers,supermarket,http://www.newworld.co.nz,"George Street, Port Chalmers",(03) 472 8746,"8am-8pm, 7 days a week",2006-08-31 14:05:13,2007-04-15 15:19:04,170.61973,-45.816736
"POINT (173.234073 -41.311792)",1029320,Stoke Countdown,"supermarket, Lotto",http://www.progressive.co.nz,"12-24 Putaitai Street, Nelson",(03) 547 9298,"Mon - Sun, 7am - 9pm",2006-08-31 13:52:46,2007-03-18 18:49:31,173.234073,-41.311792
"POINT (169.964333999971871 -46.11642099993098)",1054740,Clark's Four Square Supermarket,"supermarket, groceries",http://www.foursquare.co.nz,"207 Union Street, Milton",(03) 417 8736,,2006-10-29 13:27:08,2006-10-29 13:27:08,169.964334,-46.1164209999
"POINT (174.122449000000273 -35.26267699999989)",1056290,Bay Four Square,"supermarket, groceries",http://www.foursquare.co.nz,"York Street, Russell",(09) 403 7602,,2006-10-29 13:28:24,2007-09-10 20:36:15,174.122449,-35.262677
"POINT (169.411925999940252 -45.662991999814629)",1054840,Millers Flat Four Square Supermarket,"supermarket, groceries",http://www.foursquare.co.nz,"Teviot Road, Millers Flat",(03) 446 6801,,2006-10-29 13:27:13,2007-05-26 18:10:34,169.411926,-45.6629919998
"POINT (174.734513000002607 -36.883490999998472)",1030440,St Lukes Foodtown,supermarket,http://www.progressive.co.nz,Westfield St Lukes,(09) 846 1010,"Sat-Wed, 8am-8pm Thur-Fri 8am-9:30pm",2006-08-31 13:53:13,2008-02-20 10:14:52,174.734513,-36.883491
"POINT (173.961339000000123 -41.461607)",1055010,Spring Creek Four Square Supermarket,"supermarket, groceries",http://www.foursquare.co.nz,"Spring Creek, Blenhein",(03) 570 5891,,2006-10-29 13:27:20,2007-01-04 19:54:46,173.961339,-41.461607
"POINT (176.142888000061589 -37.71329499994286)",1031100,New World Gate Pa,"supermarket, Lotto",http://www.newworld.co.nz,"948 Cameron Road, Gate Pa, Tauranga",(07) 571 4740,"7am - 9pm, 7 Days",2006-08-31 14:05:24,2007-05-14 22:44:40,176.142888,-37.7132949999
"POINT (174.207521000000412 -39.158382999999795)",1055740,Shoprite Food Store Inglewood,"supermarket, groceries",http://www.foursquare.co.nz,"50 Matai Street, Inglewood",(06) 756 7404,,2006-10-29 13:27:57,2007-10-15 10:17:00,174.207521,-39.158383
"POINT (172.587488 -43.488565)",1029150,Bishopdale Woolworths,supermarket,http://www.progressive.co.nz,"41 Bishopdale Court, Christchurch",(03) 359 7007,"Mon - Sun, 8am - 9pm",2006-08-31 13:52:42,2006-09-01 11:55:21,172.587488,-43.488565
"POINT (174.841502000003175 -41.131932999997154)",1028740,PAK 'n SAVE Porirua,supermarket,http://www.paknsave.co.nz,"12 Parumoana Street, Porirua",(04) 238 0601,"5am- 12 midnight, 7 days a week",2006-08-31 11:40:17,2006-09-01 11:55:19,174.841502,-41.131933
"POINT (175.012478000005046 -41.148467999995184)",1030850,New World Silverstream,supermarket,http://www.newworld.co.nz,"28 Whitemans Road, Silverstream",(04) 528 2529,"8am-9pm, 7 days a week",2006-08-31 14:05:18,2006-09-01 11:55:31,175.012478,-41.148468
"POINT (176.842160000158174 -39.638900999785754)",1029680,Hastings Countdown,"supermarket, Lotto",http://www.progressive.co.nz,"Cnr Queen Street West & King Street North, Hastings",(06) 878 5099,"Mon - Sun, 7am - 10pm",2006-08-31 13:52:55,2007-03-18 18:50:53,176.84216,-39.6389009998
"POINT (167.992796000122638 -46.13654899862324)",1056600,North End Minimarket,"supermarket, groceries",,"244 Main Street, Otautau",(09) 225 8436,,2006-10-29 13:28:38,2006-11-16 17:16:13,167.992796,-46.1365489986
"POINT (175.236719000009856 -37.780907999992522)",1029860,Nawton Countdown,supermarket,http://www.progressive.co.nz,"Cnr Grandview Drive & Hyde Ave, Hamilton",(07) 847 6848,"Mon - Sun, 7am - 9pm",2006-08-31 13:52:59,2007-04-15 15:08:49,175.236719,-37.780908
"POINT (174.121440000000291 -35.261871)",1056300,Russell Four Square,"supermarket, groceries",http://www.foursquare.co.nz,"The Strand, Russell",(09) 403 7819,,2006-10-29 13:28:24,2007-09-10 20:38:38,174.12144,-35.261871
"POINT (176.099367000055054 -38.69020599994407)",1055960,Tauhara Four Square,"supermarket, groceries",http://www.foursquare.co.nz,"163 Taharepa Rd, Taupo",(07) 378 5125,,2006-10-29 13:28:07,2006-10-31 13:44:15,176.099367,-38.6902059999
"POINT (175.395044000014281 -37.804282999988729)",1056060,Matangi Four Square,"supermarket, groceries",http://www.foursquare.co.nz,"453 Tauwhare Road, Matangi, Hamilton",(07) 829 5876,,2006-10-29 13:28:12,2007-12-22 18:00:22,175.395044,-37.804283
"POINT (174.666545000002145 -36.398754999998836)",1031290,New World Warkworth,"supermarket, Lotto",http://www.newworld.co.nz,"6 Percy Street, Warkworth",(09) 425 1040,"8am-8pm, 7 days a week",2006-08-31 14:05:29,2007-05-14 22:51:59,174.666545,-36.398755
"POINT (172.574417 -43.529914)",1029110,Bush Inn Woolworths,supermarket,http://www.progressive.co.nz,"Waimairi Rd, Upper Riccarton, Christchurch",(03) 343 0912,"Mon - Sun, 8am - 10pm",2006-08-31 13:52:41,2007-04-30 17:21:31,172.574417,-43.529914
"POINT (174.776884000002951 -36.870725999998236)",1030250,277 Newmarket Foodtown,"supermarket, Lotto",http://www.progressive.co.nz,"277 Broadway, Newmarket",(09) 520 3231,"Mon - Sun, 7am - 10pm",2006-08-31 13:53:09,2007-03-18 19:06:37,174.776884,-36.870726
"POINT (174.789605000003064 -36.99806299999814)",1029970,Airport Foodtown,"supermarket, Lotto",http://www.progressive.co.nz,"Cnr George Bolt Memorial & John Goulter Drives, Mangere",(09) 256 2128,"Mon - Sun, 24 hours",2006-08-31 13:53:02,2007-03-18 19:03:00,174.789605,-36.998063
"POINT (177.276715000299703 -38.012086999631322)",1031080,New World Opotiki,supermarket,http://www.newworld.co.nz,"19 Bridge St, Opotiki",(07) 315 6723,"Mon-Fri 8am-8pm, Sat 8am-7pm, Sun 9am-7pm",2006-08-31 14:05:24,2006-09-01 11:55:32,177.276715,-38.0120869996
"POINT (172.251323 -43.81115)",1054690,Southbridge Four Square Supermarket,"supermarket, groceries",http://www.foursquare.co.nz,"106 High Street, Southbridge",(03) 324 2630,,2006-10-29 13:27:05,2007-05-21 15:45:57,172.251323,-43.81115
"POINT (174.745956000002394 -41.282488999997923)",1055260,Karori Four Square,"supermarket, groceries, Lotto",http://www.foursquare.co.nz,"147 Karori Road, Karori, Wellington",(04) 476 6729,,2006-10-29 13:27:33,2007-05-07 16:53:12,174.745956,-41.282489
"POINT (174.959429000004405 -41.17964299999587)",1055310,Taita Four Square Discount,"supermarket, groceries",http://www.foursquare.co.nz,"18 Taine Street, Taita, Lower Hutt",(04) 567 1304,,2006-10-29 13:27:35,2006-10-29 13:27:35,174.959429,-41.179643
"POINT (176.777253000145606 -39.620609999806732)",1055850,Scott Drive Four Square,"supermarket, groceries",http://www.foursquare.co.nz,"29 Scott Drive, Flaxmere, Hastings",(06) 879 6378,,2006-10-29 13:28:02,2006-10-29 13:28:02,176.777253,-39.6206099998
"POINT (174.731894000002569 -36.783479999998491)",1056550,Chartwell Four Square,"supermarket, groceries",http://www.foursquare.co.nz,"23 Chartwell Avenue, Glenfield",(09) 443 6018,,2006-10-29 13:28:36,2006-10-29 13:28:36,174.731894,-36.78348
"POINT (172.594539 -43.302485)",1030520,New World Rangiora,"supermarket, Lotto",http://www.newworld.co.nz,"Good Street, Rangiora",(03) 311 8130,"8am-10pm, 7 days a week",2006-08-31 14:05:10,2007-04-30 09:19:17,172.594539,-43.302485
"POINT (174.080923000000212 -39.057304999999893)",1028800,PAK 'n SAVE New Plymouth,supermarket,http://www.paknsave.co.nz,"53 Leach Street, New Plymouth",(06) 758 1594,"8am - midnight, 7 days a week",2006-08-31 11:40:18,2008-01-02 16:38:54,174.080923,-39.057305
"POINT (170.489143999988329 -45.867510999978023)",1029260,Roslyn FreshChoice,"supermarket, Lotto",http://www.progressive.co.nz,"279 Highgate, Dunedin",(03) 474 0983,"Mon - Sun, 7am - 9pm",2006-08-31 13:52:45,2007-03-29 13:09:00,170.489144,-45.867511
"POINT (175.283330000010039 -40.623178999989996)",1030940,New World Levin,supermarket,http://www.newworld.co.nz,"21 Bath Street, Levin",(06) 368 6538,"7 days a week, from 7am to 10pm",2006-08-31 14:05:20,2006-09-01 11:55:31,175.28333,-40.623179
"POINT (174.73986600000265 -36.758879999998456)",1030110,Sunnynook Foodtown,supermarket,http://www.progressive.co.nz,"Cnr Sycamore Drive & Sunnynook Road, Sunnynook",(09) 410 8171,"Mon - Sun, 7am - 10pm",2006-08-31 13:53:05,2007-01-04 19:56:05,174.739866,-36.75888
"POINT (172.634279 -43.538473)",1030750,New World South City,supermarket,http://www.newworld.co.nz,"Shop 2, 555 Colombo Street, Christchurch",(03) 377 6778,"Mon-Wed 8-8, Thu-Fri 8-9,Sat-Sun 8-7",2006-08-31 14:05:15,2007-03-22 23:31:52,172.634279,-43.538473
"POINT (174.276060000000513 -39.587691999999699)",1030890,New World Hawera,"supermarket, Lotto",http://www.newworld.co.nz,"307 High Street, Hawera",(06) 278 8528,"7am-10pm, 7 days a week",2006-08-31 14:05:19,2007-03-29 13:22:56,174.27606,-39.587692
"POINT (175.67153800002589 -37.380846999978914)",1056100,Paeroa Four Square,"supermarket, groceries",http://www.foursquare.co.nz,"104 Normanby Road, Paeroa",(07) 862 8266,,2006-10-29 13:28:14,2006-10-29 13:28:14,175.671538,-37.380847
"POINT (174.591990000001658 -36.756961999999085)",1056400,Highway Four Square,"supermarket, groceries",http://www.foursquare.co.nz,"1053 Coatesville Riverhead Highway, Riverhead",(09) 412 8302,,2006-10-29 13:28:29,2007-01-23 13:11:12,174.59199,-36.756962
"POINT (174.390484000000782 -38.997546999999528)",1055690,Urenui Four Square,"supermarket, groceries",http://www.foursquare.co.nz,"16 Ngakoti Street, Urenui, Taranaki",(06) 752 3895,,2006-10-29 13:27:54,2006-10-29 13:27:54,174.390484,-38.997547
"POINT (174.733043000002596 -37.249221999998433)",1031230,New World Waiuku,supermarket,http://www.newworld.co.nz,"Kitchener Road, Waiuku",(09) 236 5050,"7am-9pm, 7 days a week",2006-08-31 14:05:28,2007-03-31 17:28:56,174.733043,-37.249222
"POINT (174.29952000000057 -39.429892999999673)",1055780,Eltham Four Square,"supermarket, groceries",http://www.foursquare.co.nz,"156 High Street, Eltham",(06) 764 5310,,2006-10-29 13:27:58,2006-10-29 13:27:58,174.29952,-39.429893
"POINT (174.6648970000021 -36.398742999998838)",1056450,Warkworth Four Square,"supermarket, groceries",http://www.foursquare.co.nz,"14 Neville Street, Warkworth",(09) 425 8947,,2006-10-29 13:28:31,2007-01-23 13:11:15,174.664897,-36.398743
"POINT (174.868789000003432 -41.094070999996916)",1030760,New World Paremata,supermarket,http://www.newworld.co.nz,"93-97 Mana Esplanade, Paremata",(04) 233 1666,"8am-9pm, 7 days a week",2006-08-31 14:05:16,2007-01-23 12:26:26,174.868789,-41.094071
"POINT (174.738197000002344 -41.284367999997983)",1030830,New World Karori,supermarket,http://www.newworld.co.nz,"236 Karori Road, Wellington Central",(04) 476 0710,"7 days a week, from 7.30am to 9pm",2006-08-31 14:05:17,2006-09-01 11:55:31,174.738197,-41.284368
"POINT (174.814196000002937 -41.316175999997384)",1030810,New World Miramar,"supermarket, Lotto",http://www.newworld.co.nz,"48 Miramar Avenue, Miramar",(04) 388 2934,"7 days a week, from 7.30am to 9pm",2006-08-31 14:05:17,2007-05-14 22:26:00,174.814196,-41.316176
"POINT (174.77874100000264 -41.274027999997692)",1030840,New World Thorndon,supermarket,http://www.newworld.co.nz,"41 Murphy Street, Thorndon",(04) 499 9041,"7 days a week, from 7am to 11pm",2006-08-31 14:05:18,2006-09-01 11:55:31,174.778741,-41.274028
"POINT (175.158741000008206 -37.564420999994049)",1029830,Huntly Countdown,supermarket,http://www.progressive.co.nz,"16-18 Tumate Mahuta Drive, Huntly",(07) 828 7496,7 days 8am-8pm,2006-08-31 13:52:59,2008-03-25 17:37:52,175.158741,-37.564421
"POINT (172.636638 -43.553316)",1029090,Colombo Street Countdown,"supermarket, Lotto",http://www.progressive.co.nz,"219 Colombo Street, Beckenham, Christchurch",(03) 337 5781,7 days 8am-10pm,2006-08-31 13:52:41,2007-03-18 18:39:48,172.636638,-43.553316
"POINT (174.747827000002701 -36.717059999998419)",1030210,Browns Bay Foodtown,"supermarket, Lotto",http://www.progressive.co.nz,"Cnr Anzac & Clyde Roads, Browns Bay",(09) 478 9006,"Mon - Sun, 7am - 10pm",2006-08-31 13:53:08,2007-03-18 19:03:21,174.747827,-36.71706
"POINT (170.489594999988356 -45.867047999978048)",1030670,New World Roslyn,supermarket,http://www.newworld.co.nz,"291D Highgate, Dunedin",(03) 477 9796,"8am-8pm, 7 days a week",2006-08-31 14:05:14,2006-08-31 14:08:46,170.489595,-45.867048
"POINT (175.873829000038597 -37.204380999967697)",1056130,Slipper Superette,"supermarket, groceries",,"710 Port Road, Whangamata",(07) 865 8832,,2006-10-29 13:28:15,2008-04-13 20:06:41,175.873829,-37.204381
"POINT (168.36906999998908 -46.432197999128697)",1054530,Pomona Four Square Supermarket,"supermarket, groceries",http://www.foursquare.co.nz,"120 Tramway Road, Invercargill",(03) 216 9885,,2006-10-29 13:14:21,2006-10-29 13:14:21,168.36907,-46.4321979991
"POINT (174.88972200000407 -36.915285999997437)",1056580,Pakuranga Heights Four Square,"supermarket, groceries",http://www.foursquare.co.nz,"114 reeves Road, Pakuranga",(09) 576 9850,,2006-10-29 13:28:37,2006-10-29 13:28:37,174.889722,-36.915286
"POINT (170.481468999988181 -45.896256999977609)",1054890,Caversham Four Square Supermarket,"supermarket, groceries",http://www.foursquare.co.nz,"263 South Road, Dunedin",(03) 455 7427,,2006-10-29 13:27:15,2006-10-29 13:27:15,170.481469,-45.896257
"POINT (176.080913000053357 -38.691307999946034)",1055960,Praters Four Square,"supermarket, groceries",http://www.foursquare.co.nz,"65 Rifle Range Road, Taupo",(07) 378 4551,,2006-10-29 13:28:07,2006-10-29 13:28:07,176.080913,-38.6913079999
"POINT (174.695165000002305 -36.588423999998696)",1030140,Orewa Countdown,supermarket,http://www.progressive.co.nz,"5 Moenui Avenue, Orewa,",(09) 426 6244,"Mon - Sun, 8am - 8pm",2006-08-31 13:53:06,2007-09-09 17:53:36,174.695165,-36.588424
"POINT (170.477209999986087 -44.004489999978766)",1055040,Tekapo Four Square Supermarket,"supermarket, groceries",http://www.foursquare.co.nz,"Main Road, Tekapo",(03) 680 6809,,2006-10-29 13:27:22,2007-09-07 15:24:55,170.47721,-44.00449
"POINT (175.161032000008248 -37.536409999994021)",1056060,Freds Four Square,"supermarket, groceries, Lotto",http://www.foursquare.co.nz,"101 Bailey Street, Huntly",(07) 828 7438,,2006-10-29 13:28:12,2007-03-18 22:12:49,175.161032,-37.53641
"POINT (172.664228 -43.505472)",1029200,The Palms Woolworths,supermarket,http://www.progressive.co.nz,"Marshland Rd, Shirley, Christchurch",(03) 385 6454,"Mon - Sun, 7am - 10pm",2006-08-31 13:52:44,2007-08-11 22:53:19,172.664228,-43.505472
"POINT (172.6249 -43.45934)",1029050,Northwood Woolworths,supermarket,http://www.progressive.co.nz,"1 Radcliffe Rd, Northwood Supa Centre, Belfast, Christchurch",(03) 323 9710,"Mon - Sun, 7am - 10pm",2006-08-31 13:52:40,2006-12-19 00:07:03,172.6249,-43.45934
"POINT (172.523739 -43.542444)",1028700,PAK 'n SAVE Hornby,supermarket,http://www.paknsave.co.nz,"Hornby Mall, Main South Road, Christchurch",(03) 349 8145,"6am-midnight, 7 days a week",2006-08-31 11:40:16,2006-12-07 18:56:49,172.523739,-43.542444
"POINT (174.84114600000359 -36.917989999997801)",1095590,Foodtown Sylvia Park,"supermarket, Lotto",http://www.progressive.co.nz,"300 Mt Wellington Hwy, Mt Wellington, Auckland",09 255 2397,,2007-03-18 19:13:25,2007-03-18 21:24:55,174.841146,-36.91799
"POINT (174.472850000001046 -39.755079999999303)",1055390,Empire Four Square Discount,"supermarket, groceries",http://www.foursquare.co.nz,"101 Egmont Street, Patea",(06) 273 8184,,2006-10-29 13:27:39,2006-10-29 13:27:39,174.47285,-39.75508
"POINT (174.79184700000306 -36.96643699999813)",1056270,Idlewild Four Square,"supermarket, groceries",http://www.foursquare.co.nz,"61D Idlewild Avenue, Mangere",(09) 275 1061,,2006-10-29 13:28:22,2006-10-31 13:46:33,174.791847,-36.966437
"POINT (176.073053000052653 -38.686916999946874)",1028850,PAK 'n SAVE Taupo,supermarket,http://www.paknsave.co.nz,"Ruapehu Street, Taupo",(07) 376 0999,"8am-9pm, 7 days a week",2006-08-31 11:40:19,2007-01-16 16:51:12,176.073053,-38.6869169999
"POINT (175.867960000037016 -38.236275999965848)",1056210,Balmoral Four Square,"supermarket, groceries",http://www.foursquare.co.nz,"Balmoral Drive, Tokoroa",(07) 886 9521,,2006-10-29 13:28:19,2008-02-29 10:48:36,175.86796,-38.236276
"POINT (175.649318000021651 -40.957247999975174)",1121460,PAK 'n SAVE Masterton,supermarket,http://www.paknsave.co.nz,"Queen Street, Kuripuni, Masterton",06 377 0850,7 days 7am-10pm,2008-03-03 15:52:47,2008-05-10 09:50:44,175.649318,-40.957248
"POINT (174.006543000000136 -41.290364)",1055010,Picton Four Square Supermarket,"supermarket, groceries",http://www.foursquare.co.nz,"49 High Street, Picton",(03) 573 6443,,2006-10-29 13:27:21,2006-10-29 13:27:21,174.006543,-41.290364
"POINT (173.681362 -42.400426)",1054680,Kaikoura Four Square Supermarket,"supermarket, groceries",http://www.foursquare.co.nz,"31 West End, Kaikoura",(03) 319 5332,,2006-10-29 13:27:05,2006-10-29 13:27:05,173.681362,-42.400426
"POINT (168.032157000084027 -45.970236998692748)",1054550,Nightcaps Four Square Supermarket,"supermarket, groceries",http://www.foursquare.co.nz,"11 Johnston Road, Nightcaps",(03) 225 7885,,2006-10-29 13:14:22,2006-10-29 13:14:22,168.032157,-45.9702369987
"POINT (174.80609500000287 -41.222361999997453)",1029450,Johnsonville Countdown,supermarket,http://www.progressive.co.nz,"Moorefield Road, Johnsonville",(04) 477 2133,"Mon - Sun, 7am - 10pm",2006-08-31 13:52:49,2007-11-04 16:33:20,174.806095,-41.222362
"POINT (174.851860000003654 -36.898443999997738)",1031360,New World Panmure,supermarket,http://www.newworld.co.nz,"22 Jellicoe Rd, Panmure, Auckland",(09) 570 4978,7 days 8am-8pm,2006-08-31 14:05:31,2007-02-05 19:10:32,174.85186,-36.898444
"POINT (176.91615600017434 -39.582923999760609)",1056170,Clive Four Square,"supermarket, groceries, Lotto",http://www.foursquare.co.nz,"198 Main Road, Clive",(07) 870 0850,,2006-10-29 13:28:17,2007-03-29 12:47:40,176.916156,-39.5829239998
"POINT (170.119449999976439 -45.507579999950494)",1054900,Middlemarch Four Square Supermarket,"supermarket, groceries",http://www.foursquare.co.nz,"Swansea Street, Middlemarch",(03) 464 3762,,2006-10-29 13:27:15,2006-12-16 21:44:43,170.11945,-45.50758
"POINT (168.661558999894169 -45.025139999434423)",1029230,Queenstown FreshChoice,"supermarket, Lotto",http://www.progressive.co.nz,"64 Gorge Road, Queenstown",(03) 441 1252,"7am - Midnight, 7 days",2006-08-31 13:52:44,2007-03-29 13:09:47,168.661559,-45.0251399994
"POINT (170.956607999995612 -45.102773999993744)",1054750,Junction Four Square Supermarket,"supermarket, groceries",http://www.foursquare.co.nz,"75 Wansbeck Street, Oamaru",(03) 434 8583,,2006-10-29 13:27:08,2006-10-29 13:27:08,170.956608,-45.102774
"POINT (172.823717 -41.389002)",1054950,Tapawera Four Square Supermarket,"supermarket, groceries",http://www.foursquare.co.nz,"92 Main Road, Tapawera",(03) 522 4010,,2006-10-29 13:27:18,2007-09-10 19:47:26,172.823717,-41.389002
"POINT (174.770339000002593 -41.296492999997739)",1055210,Shalimar Supermarket,"supermarket, groceries",,"308 Willis Street, Wellington",(04) 384 5053,,2006-10-29 13:27:30,2006-10-29 13:27:30,174.770339,-41.296493
"POINT (173.010903 -41.109724)",1029300,Motueka FreshChoice,"supermarket, Lotto",http://www.progressive.co.nz,"108 High Street, Motueka",(03) 528 0500,"Mon - Sun, 7am - 9pm",2006-08-31 13:52:46,2007-03-29 13:08:30,173.010903,-41.109724
"POINT (175.780928000031565 -38.046816999971966)",1029910,Putararu Woolworths,supermarket,http://www.progressive.co.nz,"74 Tirau St, Putaruru",(07) 883 8072,"Mon - Sun, 7am - 10pm",2006-08-31 13:53:01,2007-11-16 11:30:04,175.780928,-38.046817
"POINT (168.013653000130461 -46.352205998648927)",1029000,Riverton SuperValue,supermarket,http://www.progressive.co.nz,"163 Palmerston Street, Riverton",(03) 234 8541,"Mon - Sun, 7.30am - 7pm",2006-08-31 13:52:39,2006-09-01 11:55:20,168.013653,-46.3522059986
"POINT (174.905373000003806 -41.207847999996517)",1029490,Lower Hutt Countdown,"supermarket, Lotto",http://www.progressive.co.nz,"261 High Street, Lower Hutt",(04) 566 1281,"Mon - Sun, 24 hours",2006-08-31 13:52:50,2007-03-18 18:45:25,174.905373,-41.207848
"POINT (175.6751790000244 -39.471702999975747)",1055660,Waiouru Four Square,"supermarket, groceries",http://www.foursquare.co.nz,"Querre Drive, Waiouru",(06) 387 6667,,2006-10-29 13:27:53,2007-10-13 08:52:21,175.675179,-39.471703
"POINT (174.826033000003065 -41.169955999997299)",1029410,Tawa Woolworths,supermarket,http://www.progressive.co.nz,"35 Oxford St, Tawa, Wellington",(04) 232 7057,"Mon - Sun, 7am - 10pm",2006-08-31 13:52:48,2007-10-21 14:52:08,174.826033,-41.169956
"POINT (176.95756000018298 -39.615967999744569)",1056180,Cape View Four Square,"supermarket, groceries",http://www.foursquare.co.nz,"12 Clifton Road, Haumoana, Hawkes Bay",(07) 875 0598,,2006-10-29 13:28:18,2007-08-25 17:44:50,176.95756,-39.6159679997
"POINT (172.738831 -43.562353)",1030580,New World Redcliffs,"Supermarket, BNZ ATM",http://www.newworld.co.nz,"188 Main Road, Redcliffs, Christchurch",(03) 384 1199,"8am-9pm, 7 days a week",2006-08-31 14:05:11,2008-05-23 15:16:50,172.738831,-43.562353
"POINT (178.045120000567323 -38.674977998969823)",1029660,Kaiti SuperValue,supermarket,http://www.progressive.co.nz,"Kaiti Mall, Wainui Road, Gisborne",(06) 868 8027,"Mon - Sun, 8am - 7pm",2006-08-31 13:52:54,2007-10-16 19:49:11,178.045120001,-38.674977999
"POINT (175.378773000012757 -40.075219999987588)",1030900,New World Marton,supermarket,http://www.newworld.co.nz,"418 Wellington Road, Marton",(06) 327 7929,"7am-9pm, 7 days a week",2006-08-31 14:05:19,2006-09-01 11:55:31,175.378773,-40.07522
"POINT (174.869403000003814 -37.799757999997446)",1053700,Raglan Four Square,supermarket,http://www.foursquare.co.nz,"16-18 Bow Street, Raglan",(07) 825 8300,,2006-10-28 17:45:53,2006-10-28 17:45:54,174.869403,-37.799758
"POINT (174.324253000000624 -35.725175999999713)",1028920,PAK 'n SAVE Whangarei,"supermarket, bakery, Lotto",http://www.paknsave.co.nz,"Walton Street, Whangarei",(09) 438 1488,"Mon-Fri 8am-9pm, Sat & Sun 8am-8pm",2006-08-31 11:40:21,2007-10-29 09:27:45,174.324253,-35.725176
"POINT (174.764578000002842 -36.772459999998311)",1030230,Milford Woolworths,supermarket,http://www.progressive.co.nz,"143 Kitchener Road,Milford",(09) 489 2240,"Mon - Sun, 7am - 10pm",2006-08-31 13:53:08,2007-12-08 16:20:25,174.764578,-36.77246
"POINT (172.654577 -43.557809)",1030550,New World St Martins,supermarket,http://www.newworld.co.nz,"96 Wilsons Road, Christchurch",(03) 337 0811,"8am-9pm, 7 days a week",2006-08-31 14:05:10,2006-11-28 16:02:16,172.654577,-43.557809
"POINT (173.277614 -41.272508)",1029320,Nelson Countdown,"supermarket, Lotto",http://www.progressive.co.nz,"35 St Vincent Street, Nelson",(03) 546 7443,"Mon - Sun, 7am - 11pm",2006-08-31 13:52:46,2007-03-18 18:45:05,173.277614,-41.272508
"POINT (172.600689 -43.550348)",1029100,Lincoln Road SuperValue,"supermarket, Lotto",http://www.progressive.co.nz,"108 Lincoln Road, Addington",(03) 338 5395,"6.30am - 10pm, 7 days",2006-08-31 13:52:41,2007-05-14 21:52:52,172.600689,-43.550348
"POINT (175.052676000005903 -39.937036999994909)",1029530,Wanganui Countdown,supermarket,http://www.progressive.co.nz,"Cnr Taupo Quay & Wilson St, Wanganui",(06) 345 8720,"Mon - Sun, 7am - 9pm",2006-08-31 13:52:51,2007-04-21 12:38:32,175.052676,-39.937037
"POINT (175.637768000021822 -40.327390999976622)",1055580,Kaimanawa Four Square,"supermarket, groceries, Lotto",http://www.foursquare.co.nz,"1 Kaimanawa Street, Palmerston North",(06) 357 2316,,2006-10-29 13:27:49,2007-05-07 16:51:54,175.637768,-40.327391
"POINT (174.326600000000639 -35.686581999999717)",1056510,Tikipunga Four Square,"supermarket, groceries",http://www.foursquare.co.nz,"175 Kiripaka Road, Tikipunga, Whangarei",(09) 437 0757,,2006-10-29 13:28:34,2006-10-29 13:28:34,174.3266,-35.686582
"POINT (174.622461000001834 -36.832327999998967)",1030380,Massey Woolworths,supermarket,http://www.progressive.co.nz,"Cnr Royal Rd & Moire Rd, Massey",(09) 833 9596,"Mon - Sun, 8am - 9pm",2006-08-31 13:53:12,2008-02-23 23:53:48,174.622461,-36.832328
"POINT (174.779992000002636 -41.279305999997668)",1121460,New World Railway Metro,supermarket,http://www.newworld.co.nz,"Wellington Railway Station, Bunny Street, Wellington",(04) 499 1299,"Mon-Sat 6am-10pm, Sun 7am-8pm",2008-03-03 15:49:18,2008-03-03 15:49:18,174.779992,-41.279306
"POINT (175.002594000004962 -40.917565999995368)",1028750,PAK 'n SAVE Kapiti,"supermarket, Lotto",http:http://www.kapitipaknsave.co.nz/,"Coastlands Shopping Centre, Rimu Road, Paraparaumu",(04) 296 6222,"7am-11pm, 7 days a week",2006-08-31 11:40:17,2008-03-29 01:20:53,175.002594,-40.917566
"POINT (173.957423000000148 -39.115453)",1055710,Oakura Four Square,"supermarket, groceries, beer, wine, lotto",http://www.foursquare.co.nz,"599 Main Rd, Oakura, New Plymouth",(06) 752 7862,,2006-10-29 13:27:55,2008-04-03 17:49:21,173.957423,-39.115453
"POINT (175.474882000016976 -37.907231999986188)",1056050,Shakespeare Street Four Square,"supermarket, groceries, Lotto",http://www.foursquare.co.nz,"173 Shakespeare Street, Cambridge",(07) 827 5315,,2006-10-29 13:28:12,2008-04-04 09:03:08,175.474882,-37.907232
"POINT (174.286871000000531 -39.337010999999698)",1031010,New World Stratford,"supermarket, Lotto",http://www.newworld.co.nz,"124 Regan Street, Stratford",(06) 765 6422,"8am-8pm, 7 days a week",2006-08-31 14:05:22,2008-04-04 09:03:38,174.286871,-39.337011
"POINT (173.26313 -35.11344)",1028900,PAK 'n SAVE Kaitaia,"supermarket, Lotto",http://www.paknsave.co.nz,"Puckey Ave, Kaitaia",(09) 408 6222,"8am - 8pm, 7 days a week",2006-08-31 11:40:21,2008-04-04 09:07:06,173.26313,-35.11344
"POINT (168.128189000111831 -46.897584998806664)",1054540,Ship to Shore Four Square Supermarket,"supermarket, groceries, Lotto",http://www.foursquare.co.nz,"Elgin Terrace, Halfmoon Bay, Stewart Island",(03) 219 1069,,2006-10-29 13:14:22,2008-04-04 09:44:45,168.128189,-46.8975849988
"POINT (174.879191000003544 -41.129562999996807)",1055120,Waitangirua Four Square,"supermarket, groceries, Lotto",http://www.foursquare.co.nz,"Waitangirua Mall, Cnr Warspite Ave & Niagara St, Waitangirua, Porirua",(04) 235 8160,,2006-10-29 13:27:26,2008-04-04 10:49:49,174.879191,-41.129563
"POINT (168.352609999992183 -46.413272999110518)",1028690,PAK 'n SAVE Invercargill,"supermarket, Lotto",http://www.paknsave.co.nz,"95 Tay Street, Invercargill",(03) 214 4864,"8am - 9pm, 7 days a week",2006-08-31 11:40:15,2008-04-04 11:01:25,168.35261,-46.4132729991
"POINT (169.134909999909212 -44.696569999719706)",1030630,New World Wanaka,"supermarket, Lotto",http://www.newworld.co.nz,"20 Dunmore Street, Wanaka",(03) 443 0048,"8am-8pm, 7 days a week",2006-08-31 14:05:12,2008-04-04 11:03:02,169.13491,-44.6965699997
"POINT (168.74163199989485 -45.025751999493991)",1030620,New World Wakatipu,"supermarket, Lotto",http://www.newworld.co.nz,"Hawthorne Drive, Remarkables Park, Queenstown",(03) 442 3045,"8am-8pm, 7 days a week",2006-08-31 14:05:12,2008-04-04 11:15:23,168.741632,-45.0257519995
"POINT (174.628501000001847 -36.857578999998957)",1028960,PAK 'n SAVE Lincoln North,"supermarket, petrol station, Lotto",http://www.paknsave.co.nz,"Lincoln North Shopping Centre, Lincoln Road, Henderson, Auckland",(09) 837 1830,"8am-10pm, 7 days a week",2006-08-31 11:40:22,2008-04-04 09:48:21,174.628501,-36.857579
"POINT (174.433760000000973 -36.661563999999522)",1056420,Parakai Four Square,"supermarket, groceries, Lotto",http://www.foursquare.co.nz,"137 Parkhurst Road, Helensville",(09) 420 8186,,2006-10-29 13:28:30,2008-04-04 09:51:56,174.43376,-36.661564
"POINT (174.090546000000217 -35.28246)",1056410,Paihia Four Square,"supermarket, groceries, Lotto",http://www.foursquare.co.nz,"41 Williams Road, Paihia",(09) 420 8002,,2006-10-29 13:28:29,2008-04-04 09:54:03,174.090546,-35.28246
"POINT (175.152540000007917 -38.323359999993848)",1031190,New World Te Kuiti,"supermarket, Lotto",http://www.newworld.co.nz,"Te Kumi Road, Te Kuiti",(07) 878 8072,7 days 8am-8pm,2006-08-31 14:05:27,2008-04-04 11:00:08,175.15254,-38.32336
"POINT (171.047189999996448 -44.733716999995295)",1030720,New World Waimate,"supermarket, Lotto",http://www.newworld.co.nz,"95 Queen St, Waimate",(03) 689 8107,"Mon-Tues 8am-8pm, Wed-Fri 8am-9pm, Sat & Sun 8am-7pm",2006-08-31 14:05:15,2008-04-04 11:02:52,171.04719,-44.733717
"POINT (176.211989000068229 -38.081081999933339)",1055930,Ngongotaha Four Square,"supermarket, groceries, Lotto",http://www.foursquare.co.nz,"1 Hall Road, Ngongotaha",(07) 357 4475,,2006-10-29 13:28:06,2008-04-04 11:13:32,176.211989,-38.0810819999
"POINT (176.238379000071092 -38.147550999929685)",1031090,New World Westend,"supermarket, Lotto",http://www.newworld.co.nz,"247 Old Taupo Road, Rotorua",(07) 349 7720,"Mon-Fri 7.30am-9pm, Sat & Sun 8am-8pm",2006-08-31 14:05:24,2008-04-04 11:15:34,176.238379,-38.1475509999
"POINT (174.84237400000319 -41.145108999997156)",1122130,Moore Wilson & Co Ltd - Porirua,"Supermarket. Food service, wine, beer, spirits, fresh food, fish. Trade & public",http://www.moorewilson.co.nz/,"Kenepuru Drive, Porirua",04 237 8320,"Mon-Sat 8am-6pm, Sun 9am-4pm",2008-04-07 17:23:26,2008-04-07 17:23:26,174.842374,-41.145109
"POINT (174.77996800000264 -41.29582499999767)",1109790,Moore Wilson & Co Ltd - Wellington,"Supermarket. Food service, wine, beer, spirits, fresh food, fish. Trade & public",http://www.moorewilson.co.nz,"Corner College & Tory Streets, Wellington",04 384 9906,,2007-07-06 14:19:32,2008-04-07 17:24:10,174.779968,-41.295825
"POINT (176.199138000067876 -37.653977999936686)",1031110,New World Mt Maunganui,"supermarket, Lotto",http://www.newworld.co.nz,"Cnr Tweed St & Maunganui Rd, Mt Maunganui",(07) 572 7080,"8am-9pm, 7 days a week",2006-08-31 14:05:25,2007-05-14 22:33:17,176.199138,-37.6539779999
"POINT (174.730403000002553 -36.858702999998485)",1122370,Harvest Wholefoods,"Wholefoods supermarket. Organic certified produce, natural and organic bulk goods, packaged grains and flours, eco-friendly cleaning products, organic grocery items and pet food",http://www.huckleberryfarms.co.nz/,"405 Richmond Road, Grey Lynn, Auckland",(09) 376 3107,,2008-04-19 18:28:15,2008-04-19 18:28:15,174.730403,-36.858703
"POINT (172.656648 -43.520376)",1030600,New World Richmond,supermarket richmond stanmore avonside,http://www.newworld.co.nz,"288 Stanmore Road, Christchurch",(03) 389 7617,"8am-8pm, 7 days a week",2006-08-31 14:05:12,2008-04-24 11:32:10,172.656648,-43.520376
"POINT (176.2836380000779 -37.699526999925759)",1029760,Papamoa Woolworths,supermarket,http://www.progressive.co.nz,"Royal Palm Beach, Papamoa Shopping Centre, Domain Rd, Papamoa",(07) 572 0170,"Mon - Sun, 7am - 10pm",2006-08-31 13:52:57,2008-04-24 23:48:52,176.283638,-37.6995269999
"POINT (175.657275000021997 -40.953982999974727)",1122130,Moore Wilson & Co Ltd - Masterton,"Supermarket. Food service, wine, beer, spirits, fresh food, fish",http://www.moorewilson.co.nz/,"120 Dixon Street, Masterton",06 377 5194,"Mon-Sat 8am-6pm, Sun 9am-5pm",2008-04-07 17:22:29,2008-05-10 09:51:44,175.657275,-40.953983
"POINT (175.62359000002121 -40.350239999977333)",1029580,Broadway Woolworths,supermarket,http://www.progressive.co.nz,"Cnr Albert St and Main St,  Palmerston North",(06) 357 2047,"Mon - Sun, 6am - midnight",2006-08-31 13:52:52,2008-05-15 20:40:18,175.62359,-40.35024
"POINT (174.326978000000651 -35.730157999999712)",1030150,Whangarei Countdown,"supermarket, Lotto",http://www.progressive.co.nz,"Whangarei Retail Centre,4 Okara Drive, Whangarei",(09) 430 3141,"Mon - Sun, 7am - 10pm",2006-08-31 13:53:06,2008-05-16 06:02:23,174.326978,-35.730158
"POINT (167.716387000253945 -45.415041998145313)",1029010,Te Anau SuperValue,supermarket,http://www.progressive.co.nz,"Cnr Town Centre & The Lane, Te Anau",(03) 249 9600,"Mon - Sun, 8am - 8pm",2006-08-31 13:52:39,2007-12-02 19:56:21,167.716387,-45.4150419981
"POINT (176.223568000070628 -37.674020999933653)",1029780,Bayfair Woolworths,supermarket,http://www.progressive.co.nz,"1-19 Girven Rd, Mt Maunganui",(07) 575 5047,7 days 7am-10pm,2006-08-31 13:52:58,2007-02-22 11:18:54,176.223568,-37.6740209999
"POINT (174.523813000001326 -36.293695999999322)",1091500,Wellsford Four Square,"supermarket, groceries, beer, wine",http://www.foursquare.co.nz,"201 Rodney St, Wellsford",(09) 423 8222,,2007-01-05 14:47:05,2007-05-27 21:47:37,174.523813,-36.293696
"POINT (169.205765999919663 -45.048365999746053)",1054830,Old Cromwell Four Square Supermarket,"supermarket, groceries",http://www.foursquare.co.nz,"58 Achil Street, Cromwell",(03) 445 0377,,2006-10-29 13:27:12,2008-02-11 20:04:23,169.205766,-45.0483659997
"POINT (176.913720000175005 -39.49430999976272)",1028800,PAK 'n SAVE Napier,"supermarket, Lotto",http://www.paknsave.co.nz,"25 Munroe Street, Napier",(06) 834 3450,"6am to Midnight, 7 Days",2006-08-31 11:40:18,2008-05-04 11:16:25,176.91372,-39.4943099998
"POINT (168.860738999928031 -46.196994999557234)",1054490,Clutterbucks Four Square Supermarket,"supermarket, groceries, Lotto",http://www.foursquare.co.nz,"64 Main Street, Mataura",(03) 203 8490,,2006-10-29 13:14:19,2007-03-29 12:48:01,168.860739,-46.1969949996
"POINT (174.825673000003036 -41.30696199999727)",1055230,Darlington Four Square,"supermarket, groceries",http://www.foursquare.co.nz,"127 Darlington Road, Miramar",(04) 388 6694,,2006-10-29 13:27:31,2006-10-29 13:27:31,174.825673,-41.306962
"POINT (170.098436999974638 -45.12875099994892)",1054820,Ranfurly Four Square Supermarket,"supermarket, groceries",http://www.foursquare.co.nz,"24 Charlemont Street, Ranfurly",(03) 444 9183,,2006-10-29 13:27:12,2006-10-29 13:27:12,170.098437,-45.1287509999
"POINT (170.48751899998831 -45.906874999977902)",1054890,St Clair Four Square Supermarket,"supermarket, groceries",http://www.foursquare.co.nz,"145 Forbury Road, Dunedin",(03) 455 7658,,2006-10-29 13:27:15,2007-01-23 13:09:15,170.487519,-45.906875
"POINT (174.697845000002303 -36.605537999998688)",1056460,Red Beach Four Square,"supermarket, groceries",http://www.foursquare.co.nz,"Shop 1, 42 Red Beach Road, Hibiscus Coast",(09) 426 6987,,2006-10-29 13:28:31,2007-01-23 13:11:16,174.697845,-36.605538
"POINT (169.256411999917731 -44.610790999769158)",1054810,Sailz Lake Hawea Store,"General store. Cafe, bar, restaurant. Supermarket, groceries, takeaways, fishing licenses",,"33 Capell Avenue, Lake Hawea",(03) 443 1696,,2006-10-29 13:27:11,2008-01-01 21:35:36,169.256412,-44.6107909998
"POINT (173.5368 -34.98932)",1056360,Mangonui Four Square,"supermarket, groceries",http://www.foursquare.co.nz,"Beach Road, Mangonui",(09) 406 0007,,2006-10-29 13:28:27,2007-01-11 17:57:03,173.5368,-34.98932
"POINT (174.828315000003414 -36.876393999997909)",1030250,Meadowbank Foodtown,supermarket,http://www.progressive.co.nz,"Meadowbank Shopping Centre, 35 - 47 St Johns Road, Meadowbank, Auckland",(09) 528 7065,Mon-Sun 8am-9pm,2006-08-31 13:53:09,2007-07-23 16:36:58,174.828315,-36.876394
"POINT (174.283430000000521 -39.590743999999702)",1096950,PAK 'n SAVE Hawera,"supermarket, Lotto",http://www.paknsave.co.nz,"54 Princes Street, Hawera",06 278 5551,7am-10pm 7 days,2007-03-29 13:25:27,2007-09-09 17:17:44,174.28343,-39.590744
"POINT (174.738197000002344 -41.284367999997983)",1029440,Karori Woolworths,supermarket,http://www.progressive.co.nz,"236 Karori Road, Karori, Wellington",(04) 476 6780,"Mon - Sun, 7am - 10pm",2006-08-31 13:52:49,2007-11-04 15:39:54,174.738197,-41.284368
"POINT (174.76576000000253 -41.257899999997782)",1029460,Churchill Drive Woolworths,supermarket,http://www.progressive.co.nz,"120 Churchill Drive, Crofton Downs, Wellington",(04) 479 2133,"Mon - Sun, 7am - 10pm",2006-08-31 13:52:50,2007-11-04 15:58:26,174.76576,-41.2579
"POINT (173.386241 -35.536609)",1056350,Omapere Four Square,"supermarket, groceries",http://www.foursquare.co.nz,"State Highway, Omapere",(09) 405 8892,,2006-10-29 13:28:26,2007-03-31 14:02:47,173.386241,-35.536609
"POINT (175.615221000020824 -40.358063999977752)",1029570,Palmerston North Countdown,supermarket,http://www.progressive.co.nz,"Cnr Ferguson & Ashley Street, Palmerston North",(06) 356 6066,"Mon - Sun, 7am - midnight",2006-08-31 13:52:52,2007-08-19 11:27:51,175.615221,-40.358064
"POINT (175.611745000020704 -40.359723999977916)",1028790,PAK 'n SAVE Palmerston North,supermarket,http://www.paknsave.co.nz,"Ferguson Street, Palmerston North",(06) 356 4043,"8am - 12am, 7 Days a week",2006-08-31 11:40:18,2007-08-19 11:31:01,175.611745,-40.359724
"POINT (174.085805000000221 -39.056176999999877)",1029620,New Plymouth Countdown,supermarket,http://www.progressive.co.nz,"120 Leach Street, New Plymouth",(06) 757 8233,"Mon - Sun, 7am - midnight",2006-08-31 13:52:53,2007-09-09 17:45:06,174.085805,-39.056177
"POINT (178.020594000558816 -38.664183998999953)",1028820,PAK 'n SAVE Gisborne City,supermarket,http://www.paknsave.co.nz,"Childers Road, Gisborne",(06) 868 9029,"8am-8pm, 7 days a week",2006-08-31 11:40:19,2007-09-09 18:05:41,178.020594001,-38.664183999
"POINT (174.871198000003858 -36.912619999997588)",1030290,Pakuranga Foodtown,supermarket,http://www.progressive.co.nz,"Pakuranga Town Centre, Pakuranga",(09) 576 6041,"Mon - Sun, 7am-10pm",2006-08-31 13:53:09,2007-09-09 18:09:29,174.871198,-36.91262
"POINT (174.980884000004664 -41.174308999995603)",1030880,New World Stokes Valley,supermarket,http://www.newworld.co.nz,"16 Oates Street, Stokes Valley",(04) 939 6400,"8am-9pm, 7 days a week",2006-08-31 14:05:19,2007-09-09 18:19:57,174.980884,-41.174309
"POINT (175.472483000016865 -37.893583999986269)",1031140,New World Cambridge,supermarket,http://www.newworld.co.nz,"14 Anzac Street, Cambridge",(07) 827 7533,"8am-8.30pm, 7 days a week",2006-08-31 14:05:25,2007-09-09 18:25:40,175.472483,-37.893584
"POINT (174.368134000000737 -35.755854999999649)",1031300,New World Onerahi,supermarket,http://www.newworld.co.nz,"128 Onerahi Road, Sherwood Rise, Onerahi, Whangarei",(09) 436 0938,"8am-8pm, 7 days a week",2006-08-31 14:05:30,2007-10-14 18:03:32,174.368134,-35.755855
"POINT (176.849231000160842 -39.534453999784681)",1031030,New World McDonald's,"supermarket, Lotto",http://www.newworld.co.nz,"230 Gloucester Street, Taradale, Napier",(06) 844 6240,"6am-Midnight, 7 days a week",2006-08-31 14:05:23,2007-09-09 17:06:11,176.849231,-39.5344539998
"POINT (174.077652000000228 -39.05767199999989)",1031000,New World New Plymouth,"supermarket, Lotto",http://www.newworld.co.nz,"78 Courtenay Street, New Plymouth",(06) 759 9052,"7am-Midnight, 7 days a week",2006-08-31 14:05:22,2007-09-09 18:12:50,174.077652,-39.057672
"POINT (174.746784000002691 -36.714587999998422)",1031320,New World Browns Bay,supermarket,http://www.newworld.co.nz,"8 Bute Road, Browns Bay, Auckland",(09) 478 8058,"8am - 8pm, 7 days a week",2006-08-31 14:05:30,2007-09-09 18:16:12,174.746784,-36.714588
"POINT (170.962716999994996 -42.716535999994406)",1030730,New World Hokitika,"supermarket, Lotto",http://www.newworld.co.nz,"116 Revell Street, Hokitika",(03) 755 8390,"Mon-Sat 8am-7pm, Sun 9am-6pm",2006-08-31 14:05:15,2007-05-07 16:45:45,170.962717,-42.716536
"POINT (174.746555000002701 -36.715762999998425)",1030200,Browns Bay Woolworths,supermarket,http://www.progressive.co.nz,"10 Inverness Rd, Browns Bay, Auckland",(09) 478 0502,"Mon - Sun, 8am - 8pm",2006-08-31 13:53:08,2007-12-23 15:21:16,174.746555,-36.715763
"POINT (174.981598000004709 -40.919025999995654)",1055200,Raumati Village Four Square,"supermarket, groceries",http://www.foursquare.co.nz,"5 Margaret Road, Raumati",(04) 299 5979,,2006-10-29 13:27:29,2008-03-29 01:28:51,174.981598,-40.919026
"POINT (174.872657000003471 -41.223818999996844)",1028780,PAK 'n SAVE Petone,supermarket,http://www.pnspetone.co.nz/,"114-124 Jackson Street, Wellington",(04) 939 3663,"6am- 12 midnight, 7 days a week",2006-08-31 11:40:18,2008-05-04 11:47:15,174.872657,-41.223819
"POINT (170.829299999993594 -44.09820999999134)",1055050,Fairlie Four Square Supermarket,"supermarket, groceries",http://www.foursquare.co.nz,"Main Street, Fairlie",(03) 685 8081,,2006-10-29 13:27:22,2007-11-07 23:27:16,170.8293,-44.09821
"POINT (171.75222899999963 -43.902066999999683)",1029020,Ashburton Countdown,supermarket,http://www.progressive.co.nz,"Cnr East & Peter Streets, Ashburton",(03) 308 3541,"Mon - Sun, 8am - 9pm",2006-08-31 13:52:39,2006-12-04 23:31:55,171.752229,-43.902067
"POINT (172.557321 -43.511055)",1029140,Avonhead FreshChoice,"supermarket, Lotto",http://www.progressive.co.nz,"Cnr Withells Road & Merrin Street, Ilam",(03) 358 4765,"Mon - Sun, 7am - 9pm",2006-08-31 13:52:42,2007-05-08 23:31:08,172.557321,-43.511055
"POINT (174.772659000002591 -41.334634999997725)",1030880,New World Island Bay,supermarket,http://www.newworld.co.nz,"Medway Street, Island Bay",(04) 939 8253,"8am-10pm, 7 days a week",2006-08-31 14:05:19,2006-10-18 18:09:25,174.772659,-41.334635
"POINT (172.2988 -43.61598)",1054700,Burnham Four Square Supermarket,"supermarket, groceries",http://www.foursquare.co.nz,"Military Camp, Burnham",(03) 363 0115,,2006-10-29 13:27:06,2007-08-07 00:00:04,172.2988,-43.61598
"POINT (175.458860000014454 -41.218799999983922)",1055430,Martinborough Four Square Discount,"supermarket, groceries",http://www.foursquare.co.nz,"The Square, Martinborough",(06) 306 9116,,2006-10-29 13:27:41,2007-02-28 16:40:58,175.45886,-41.2188
"POINT (176.828728000172617 -37.977085999810278)",1055860,Clarkes Four Square,"supermarket, groceries",http://www.foursquare.co.nz,"Central Square, Edgecumbe",(07) 304 9267,,2006-10-29 13:28:02,2006-10-29 13:28:02,176.828728,-37.9770859998
"POINT (176.555210000104864 -39.99445999986267)",1031040,New World Waipukurau,supermarket,http://www.newworld.co.nz,"Northumberland Street, Waipukurau",(06) 858 8785,"7 days a week, from 7am to 8.30pm",2006-08-31 14:05:23,2008-01-05 19:43:00,176.55521,-39.9944599999
"POINT (175.065391000005889 -40.875080999994445)",1030790,New World Waikanae,supermarket,http://www.newworld.co.nz,"5 Parata Street, Waikanae",(04) 293 3400,"7am-10pm, 7 days a week",2006-08-31 14:05:16,2006-09-01 11:55:31,175.065391,-40.875081
"POINT (171.598868999999269 -41.75729399999944)",1030740,New World Westport,"supermarket, lotto, groceries",http://www.newworld.co.nz,"244 Palmerston Street, Westport",(03) 789 7669,"8am-8.30pm, 7 days a week",2006-08-31 14:05:15,2008-02-03 09:34:28,171.598869,-41.757294
"POINT (172.636909 -43.513291)",1029160,Edgeware SuperValue,"supermarket, Lotto",http://www.progressive.co.nz,"61 Edgeware Road, Christchurch",(03) 366 1918,"Mon - Sun, 8am - 7pm",2006-08-31 13:52:43,2007-03-29 13:02:15,172.636909,-43.513291
"POINT (174.9510280000043 -41.20686999999598)",1055340,Seddon Street Four Square,"supermarket, groceries",http://www.foursquare.co.nz,"70 Seddon Street, Naenae, Lower Hutt",(04) 567 7493,,2006-10-29 13:27:37,2007-01-23 13:23:01,174.951028,-41.20687
"POINT (176.887554000169132 -39.508497999771869)",1031020,New World Onekawa,supermarket,http://www.newworld.co.nz,"38 Maadi Road, Onekawa, Napier",(06) 843 6146,8am-9pm 7 days a week,2006-08-31 14:05:22,2007-09-17 18:58:46,176.887554,-39.5084979998
"POINT (175.774051000031363 -37.808863999972807)",1029930,Matamata Countdown,supermarket,http://www.progressive.co.nz,"Cnr Arawa & Gouk Streets, Matamata",(07) 888 7719,"Mon - Sun, 8am - 8pm",2006-08-31 13:53:01,2007-04-15 15:11:48,175.774051,-37.808864
"POINT (174.860941000003749 -36.97029999999765)",1030040,Papatoetoe Foodtown,supermarket,http://www.progressive.co.nz,"Hunters Plaza, 217 Great South Road, Papatoetoe",(09) 277 6409,7 days 8am-9pm,2006-08-31 13:53:04,2008-04-08 17:01:30,174.860941,-36.9703
"POINT (174.694757000002284 -36.789553999998674)",1056570,Lancaster Four Square,"supermarket, groceries",http://www.foursquare.co.nz,"209 BEach Haven Road, Beach Haven",(09) 473 6197,,2006-10-29 13:28:37,2006-10-29 13:28:37,174.694757,-36.789554
"POINT (176.556988000105093 -39.995649999862245)",1029650,Waipukurau Woolworths,supermarket,http://www.progressive.co.nz,"20 Ruataniwha St, Waipukurau",(06) 858 7999,"Mon - Sun, 7am - 11pm",2006-08-31 13:52:54,2008-06-08 12:56:33,176.556988,-39.9956499999
"POINT (174.807694000002897 -41.224439999997458)",1029460,Johnsonville Woolworths,supermarket,http://www.progressive.co.nz,"31 Johnsonville Rd, Wellington",(04) 478 3950,"Mon - Sun, 24 hours",2006-08-31 13:52:50,2007-09-02 08:49:29,174.807694,-41.22444
"POINT (176.701648000144132 -38.087944999843913)",1055900,Kawerau Four Square,"supermarket, groceries, Lotto",http://www.foursquare.co.nz,"95 Onslow Street, Kawerau",(07) 323 8228,,2006-10-29 13:28:04,2007-05-07 16:54:10,176.701648,-38.0879449998
"POINT (174.825236000003372 -36.965948999997913)",1030020,Mangere Countdown,supermarket,http://www.progressive.co.nz,"Cnr Massey & Yates Roads, Mangere",(09) 275 6820,"Fri-Wed, 7am - 8pm Thurs, 7am - 9pm",2006-08-31 13:53:03,2007-04-01 16:49:12,174.825236,-36.965949
"POINT (170.349218999984771 -45.872396999969574)",1030680,New World Mosgiel,"supermarket, Lotto",http://www.newworld.co.nz,"10 Hartstonge Avenue, Mosgiel",(03) 489 3836,"8am-9pm, 7 days a week",2006-08-31 14:05:14,2007-05-14 22:31:29,170.349219,-45.872397
"POINT (173.011365 -41.11457)",1030760,New World Motueka,"supermarket, Lotto",http://www.newworld.co.nz,"271 High Street, Motueka",(03) 528 6245,"8am-8.30pm, 7 days a week",2006-08-31 14:05:16,2007-05-14 22:32:14,173.011365,-41.11457
"POINT (175.326197000012115 -38.011988999990407)",1029900,Te Awamutu Woolworths,supermarket,http://www.progressive.co.nz,"Sloane St, Te Awamutu",(07) 871 5139,"Mon - Sun, 7am - 11pm",2006-08-31 13:53:00,2007-07-28 04:16:13,175.326197,-38.011989
"POINT (173.800003 -39.330001)",1055770,Vercoes's Stores (Rahotu) Ltd,"supermarket, groceries",http://www.foursquare.co.nz,"Main Road, Rahotu",(06) 763 8862,,2006-10-29 13:27:58,2006-11-20 15:30:11,173.800003,-39.330001
"POINT (174.556473000001489 -36.775836999999214)",1056410,Kumeu Four Square,"supermarket, groceries, Lotto",http://www.foursquare.co.nz,"Village Shopping Centre, Kumeu",(09) 412 9709,,2006-10-29 13:28:29,2007-05-14 21:48:10,174.556473,-36.775837
"POINT (176.254349000073006 -38.140209999927613)",1028840,PAK 'n SAVE Rotorua,supermarket,http://www.paknsave.co.nz,"Cnr Fenton & Amohau Streets, Rotorua",(07) 347 8440,"8am-10pm, 7 days a week",2006-08-31 11:40:19,2006-11-05 20:09:01,176.254349,-38.1402099999
"POINT (171.23745899999787 -44.382903999997488)",1028740,PAK 'n SAVE Timaru,supermarket,http://www.paknsave.co.nz,"Evans Street, Timaru",(03) 688 6011,"8am - 9pm weekdays, 8am - 7pm weekends",2006-08-31 11:40:17,2006-12-07 20:46:16,171.237459,-44.382904
"POINT (170.42844099998689 -45.902077999974615)",1029270,Moyles SuperValue,supermarket,http://www.progressive.co.nz,"211 Main South Road, Green Island, Dunedin",(03) 488 2317,"Mon - Sun, 8am - 8pm",2006-08-31 13:52:45,2007-08-25 15:31:31,170.428441,-45.902078
"POINT (176.108610000058093 -37.694919999946556)",1029810,Bethlehem Countdown,supermarket,http://www.progressive.co.nz,"19 Bethlehem Rd, Tauranga",(07) 579 2862,"Mon - Sun, 7am - 10pm",2006-08-31 13:52:58,2007-03-04 22:55:03,176.10861,-37.6949199999
"POINT (173.273792 -42.812419)",1054680,Cheviot Four Square Supermarket,"supermarket, groceries",http://www.foursquare.co.nz,"Hall Street, Cheviot",(03) 319 8849,,2006-10-29 13:27:05,2007-04-01 20:00:01,173.273792,-42.812419
"POINT (169.958559999971641 -46.121871999930192)",1054730,Milton Four Square Supermarket,"supermarket, groceries",http://www.foursquare.co.nz,"Shakespeare Street, Milton",(03) 417 8008,,2006-10-29 13:27:07,2007-04-30 21:57:57,169.95856,-46.1218719999
"POINT (169.375726999943652 -46.202723999800014)",1054720,Clinton Four Square Supermarket,"supermarket, groceries",http://www.foursquare.co.nz,"Main Road, Clinton",(03) 415 7208,,2006-10-29 13:27:07,2007-05-11 20:04:26,169.375727,-46.2027239998
"POINT (176.140151000061365 -37.667770999943322)",1056020,Cherrywood Four Square,"supermarket, groceries",http://www.foursquare.co.nz,"Cherrywood Drive, Otumoetai",(07) 576 7444,,2006-10-29 13:28:10,2007-04-15 15:41:35,176.140151,-37.6677709999
"POINT (175.425398000014013 -40.292610999985875)",1055480,Rongotea Four Square,"supermarket, groceries",http://www.foursquare.co.nz,"Douglas Square, Rongotea",(06) 324 8829,,2006-10-29 13:27:43,2007-01-17 15:43:33,175.425398,-40.292611
"POINT (178.369182000803875 -37.634074998602223)",1055820,Eastern Four Square,"supermarket, groceries",http://www.foursquare.co.nz,"Rata Street, Te Araroa",(06) 864 4874,,2006-10-29 13:28:00,2007-01-17 15:43:39,178.369182001,-37.6340749986
"POINT (175.252930000010281 -37.738094999992221)",1056090,Flagstaff Four Square,"supermarket, groceries",http://www.foursquare.co.nz,"Flagstaff Centre, River Road, North Hamilton",(07) 854 0588,,2006-10-29 13:28:14,2008-02-07 16:58:31,175.25293,-37.738095
"POINT (175.470092000016763 -37.891771999986375)",1029820,Cambridge Countdown,"supermarket, Lotto",http://www.progressive.co.nz,"Cnr Queen and Empire Streets, Cambridge",(07) 823 5971,7 days 7am-10pm,2006-08-31 13:52:58,2007-03-18 18:38:44,175.470092,-37.891772
"POINT (171.866262999999748 -42.119819999999827)",1055070,Reefton Four Square Supermarket,"supermarket, groceries",http://www.foursquare.co.nz,"47 Broadway, Reefton",(03) 732 8888,,2006-10-29 13:27:23,2006-10-29 13:27:23,171.866263,-42.11982
"POINT (171.12904299999704 -44.260125999996418)",1055030,Pleasant Point Four Square Supermarket,"supermarket, groceries",http://www.foursquare.co.nz,"93 Main Road, Pleasant Point",(03) 614 7426,,2006-10-29 13:27:22,2006-11-16 17:15:59,171.129043,-44.260126
"POINT (171.238746999997858 -44.395645999997498)",1029370,Timaru Woolworths,supermarket,http://www.progressive.co.nz,"Church Street, Timaru",(03) 688 3136,"Mon - Sun, 8am - 9pm",2006-08-31 13:52:48,2007-08-30 19:56:58,171.238747,-44.395646
"POINT (172.702267 -43.556635)",1029200,Ferrymead Woolworths,supermarket,http://www.progressive.co.nz,"999 Ferry Road, Christchurch",(03) 384 8420,"Mon - Sun, 7am - 10pm",2006-08-31 13:52:43,2006-11-05 16:42:05,172.702267,-43.556635
"POINT (175.281386000010059 -40.471154999990127)",1055620,Vertongen's Four Square Discount,"supermarket, groceries",http://www.foursquare.co.nz,"7 Main Street, Foxton",(06) 363 8104,,2006-10-29 13:27:51,2007-09-10 20:47:01,175.281386,-40.471155
"POINT (176.222748000069402 -38.117437999931823)",1055910,Selwyn Heights Four Square,"supermarket, groceries",http://www.foursquare.co.nz,2 Kokako Place Rotorua,(07) 347 6668,,2006-10-29 13:28:05,2007-09-10 20:09:35,176.222748,-38.1174379999
"POINT (175.263098000010245 -38.883285999991408)",1056240,Taumarunui Four Square,"supermarket, groceries",http://www.foursquare.co.nz,"97 hakiaha Street, Taumarunui",(07) 895 7982,,2006-10-29 13:28:21,2006-10-29 13:28:21,175.263098,-38.883286
"POINT (174.322363000000649 -35.716235999999718)",1031320,New World Regent,"supermarket, Lotto",http://www.newworld.co.nz,"The Regent Centre, 167 Bank Street, Regent",(09) 470 1090,"8am-10pm, 7 days a week",2006-08-31 14:05:30,2007-05-14 22:50:18,174.322363,-35.716236
"POINT (175.273402000010805 -37.729035999991794)",1031150,New World Rototuna,"supermarket, Lotto",http://www.newworld.co.nz,"44 Horsham Downs Road, Rototuna, Hamilton",(07) 853 0260,"7am - 10pm, 7 days a week",2006-08-31 14:05:26,2007-05-14 22:50:33,175.273402,-37.729036
"POINT (175.866890000038097 -37.20206599996817)",1031180,New World New World Whangamata,"supermarket, Lotto",http://www.newworld.co.nz,"308 Aickin Rd, Whangamata",(07) 865 0400,"8am-8pm, 7 days a week",2006-08-31 14:05:26,2007-05-14 22:52:34,175.86689,-37.202066
"POINT (170.182009999974497 -43.388179999959796)",1055080,Fern Grove Four Square Supermarket,"supermarket, groceries, Lotto",http://www.foursquare.co.nz,"Main Road, Franz Josef",(03) 752 0731,,2006-10-29 13:27:24,2007-04-15 23:11:11,170.18201,-43.38818
"POINT (173.475984 -35.555792)",1056330,Waimamaku Four Square,"supermarket, groceries",http://www.foursquare.co.nz,"7233 Sh 12, Waimamaku, Northland",(09) 405 4849,,2006-10-29 13:28:25,2007-10-09 01:19:19,173.475984,-35.555792
"POINT (176.23826200007116 -38.120072999929825)",1055920,Koutu Four Square,"supermarket, groceries, Lotto",http://www.foursquare.co.nz,"Koutu Shopping Centre, 48 Koutu Road, Koutu",(07) 348 6892,,2006-10-29 13:28:05,2007-05-14 21:47:01,176.238262,-38.1200729999
"POINT (175.70032500002776 -36.834731999978317)",1031180,New World Whitianga,"supermarket, Lotto",http://www.newworld.co.nz,"1 Joan Gaskell Drive, Whitianga",(07) 867 1900,"8am-8pm, 7 days a week",2006-08-31 14:05:27,2007-05-14 22:52:53,175.700325,-36.834732
"POINT (169.31398599993301 -45.540030999783006)",1029240,Roxburgh SuperValue,supermarket,http://www.progressive.co.nz,"93 Scotland Street, Roxburgh",(03) 446 8118,"Mon - Sun, 8am - 7pm",2006-08-31 13:52:44,2006-09-01 11:55:22,169.313986,-45.5400309998
"POINT (173.185172 -41.33825)",1029300,Richmond FreshChoice,supermarket,http://www.progressive.co.nz,"Queen Street, Richmond",(03) 544 8299,Mon - Sun: 8am - 9pm,2006-08-31 13:52:46,2006-12-09 13:05:01,173.185172,-41.33825
"POINT (174.900359000004187 -37.204892999997291)",1028880,PAK 'n SAVE Pukekohe,supermarket,http://www.paknsave.co.nz,"Cnr Queen & Harris Street, Pukekohe",(09) 238 0400,"8am-9pm, 7 days a week",2006-08-31 11:40:20,2007-04-06 10:46:52,174.900359,-37.204893
"POINT (174.738343000002601 -36.865098999998452)",1030080,Grey Lynn Foodtown,"supermarket, bakery, deli",http://www.progressive.co.nz,"Cnr Coleridge & Williamson Ave, Grey Lynn",(09) 376 2074,"7 days, 6am - Midnight",2006-08-31 13:53:04,2006-12-10 13:15:02,174.738343,-36.865099
"POINT (173.509542 -34.992562)",1056360,Coopers Beach Four Square,"supermarket, groceries, Lotto",http://www.foursquare.co.nz,"SH 10, Coopers Beach",(09) 406 0577,,2006-10-29 13:28:27,2007-09-10 21:22:26,173.509542,-34.992562
"POINT (175.23966900000994 -37.744860999992483)",1056080,Pukete Four Square,"supermarket, groceries",http://www.foursquare.co.nz,"Sherwood Drive, Hamilton",(07) 849 3588,,2006-10-29 13:28:13,2007-11-11 21:36:33,175.239669,-37.744861
"POINT (175.623879000021191 -40.348759999977311)",1030930,New World Broadway,supermarket,http://www.newworld.co.nz,"Broadway Ave, Palmerston North",(06) 358 3029,"7am-10pm, 7 days a week",2006-08-31 14:05:20,2007-09-17 11:47:49,175.623879,-40.34876
"POINT (174.773892000002917 -36.848075999998251)",1004700,Tai Ping Trading Company Ltd,Asian & Chinese supermarket,,"105 Beach Road, Auckland",(09) 377 4903,,2006-07-26 15:17:56,2007-08-08 11:23:42,174.773892,-36.848076
"POINT (178.01937300055863 -38.660931999001598)",1029670,Gisborne Woolworths,supermarket,http://www.progressive.co.nz,"73 Carnarvon St, Gisborne",(06) 868 9073,"Mon - Sun, 7am - 10pm",2006-08-31 13:52:55,2007-10-16 19:38:13,178.019373001,-38.660931999
"POINT (175.917707000041503 -37.552538999963815)",1055990,Katikati Four Square Discount,"supermarket, groceries",http://www.foursquare.co.nz,"20A Main Road, Katikati",(07) 549 0172,,2006-10-29 13:28:08,2007-10-28 09:59:45,175.917707,-37.552539
"POINT (174.864467000003771 -37.021141999997617)",1056260,Burbank Four Square,"supermarket, groceries",http://www.foursquare.co.nz,"57 Burbank Avenue, Manurewa",(09) 267 2084,,2006-10-29 13:28:22,2006-10-29 13:28:22,174.864467,-37.021142
"POINT (175.564036000018888 -40.227691999980372)",1030900,New World Feilding,supermarket,http://www.newworld.co.nz,"23-33 Fergusson Street, Feilding,",(06) 323 8909,"7 days a week, from 7am to 8pm",2006-08-31 14:05:19,2007-09-18 21:22:54,175.564036,-40.227692
"POINT (175.615035000020839 -40.331697999977798)",1055590,Super Seven Supermarket,"supermarket, groceries",,"67 Milson Line, Palmerston North",(06) 357 8389,,2006-10-29 13:27:49,2007-12-16 16:55:13,175.615035,-40.331698
"POINT (175.258915000010404 -37.791488999992062)",1056080,Ezi Park Four Square,"supermarket, groceries, Lotto",http://www.foursquare.co.nz,"77-81 Greenwood Street, Hamilton",(07) 847 4966,,2006-10-29 13:28:13,2007-03-29 13:02:55,175.258915,-37.791489
"POINT (175.839468000035993 -37.393169999969558)",1031170,New World Waihi,supermarket,http://www.newworld.co.nz,"35 Kenny Street, Waihi",(07) 863 7880,"7am-9pm, 7 days a week",2006-08-31 14:05:26,2006-09-01 11:55:33,175.839468,-37.39317
"POINT (176.826335000172065 -37.975233999811017)",1029690,Riverslea Mall SuperValue,supermarket,http://www.progressive.co.nz,"Riverslea Mall, Bridge Street, Edgecumbe",(07) 304 8252,"Mon - Sun, 7am - 7pm",2006-08-31 13:52:55,2007-05-13 13:39:51,176.826335,-37.9752339998
"POINT (174.946056000004262 -41.19948399999604)",1030870,New World Naenae,supermarket,http://www.newworld.co.nz,"2-10 Vogel Street, Naenae",(04) 939 4433,"7 days a week, from 8am to 8pm",2006-08-31 14:05:18,2006-09-01 11:55:31,174.946056,-41.199484
"POINT (176.855812000160768 -39.652536999780985)",1056180,Eastend Four Square,"supermarket, groceries",http://www.foursquare.co.nz,"1112 Heretaunga Street East, Hastings",(07) 878 7906,,2006-10-29 13:28:18,2006-10-29 13:28:18,176.855812,-39.6525369998
"POINT (171.645379999999392 -43.632941999999488)",1054600,Topnotch Four Square Supermarket,"supermarket, groceries",http://www.foursquare.co.nz,"McMillan Street, Methven",(03) 302 8114,,2006-10-29 13:27:01,2008-04-12 16:08:55,171.64538,-43.632942
"POINT (168.441581999938592 -45.738838999222615)",1054570,Lumsden Four Square Supermarket,"supermarket, groceries",http://www.foursquare.co.nz,"14 Diana Street, Lumsden",(03) 248 7143,,2006-10-29 13:14:23,2006-10-29 13:14:23,168.441582,-45.7388389992
"POINT (172.848276 -42.774178)",1054660,Culverden Four Square Supermarket,"supermarket, groceries",http://www.foursquare.co.nz,"28 Mountainview Road, Culverden",(03) 315 8020,,2006-10-29 13:27:04,2006-10-29 13:27:04,172.848276,-42.774178
"POINT (170.954749999995585 -45.10216999999372)",1030610,New World Oamaru,supermarket,http://www.newworld.co.nz,"Main South Road, Oamaru",(03) 433 1166,"8am-8pm, 7 days a week",2006-08-31 14:05:12,2006-11-30 17:27:49,170.95475,-45.10217
"POINT (171.242222999997836 -44.091160999997555)",1029390,Geraldine SuperValue,supermarket,http://www.progressive.co.nz,"Peel Street, Geraldine",(03) 693 8529,"Mon - Sun, 7am - 7pm",2006-08-31 13:52:48,2006-12-07 21:11:40,171.242223,-44.091161
"POINT (175.714067000028109 -37.544920999976554)",1029920,Te Aroha Woolworths,supermarket,http://www.progressive.co.nz,"85 Whitaker St, Te Aroha",(07) 884 9413,"Mon - Sun, 7am - 9pm",2006-08-31 13:53:01,2007-10-12 21:51:15,175.714067,-37.544921
"POINT (175.496076000017979 -37.276312999986054)",1056150,Ngatea Four Square,"supermarket, groceries",http://www.foursquare.co.nz,"25 Orchard West Road, Ngatea",(07) 867 7037,,2006-10-29 13:28:17,2006-10-29 13:28:17,175.496076,-37.276313
"POINT (176.704064000141841 -38.456222999839632)",1055940,Murupara Four Square,"supermarket, groceries, Lotto",http://www.foursquare.co.nz,"Pine Drive, Murupara",(07) 366 5835,,2006-10-29 13:28:06,2008-06-02 17:32:32,176.704064,-38.4562229998
"POINT (172.611136 -43.491755)",1029130,Northlands Countdown,"supermarket, Lotto",http://www.progressive.co.nz,"Cnr Main Road & Sawyers Arms Rd, Christchurch",(03) 352 3664,"Mon - Sun, 24 hours",2006-08-31 13:52:42,2007-03-18 18:47:07,172.611136,-43.491755
"POINT (172.659378 -43.382604)",1030540,New World Kaiapoi,"supermarket, Lotto",http://www.newworld.co.nz,"56-58 Charles Street, Kaiapoi",(03) 327 6026,"Mon-Fri 8am-9pm, Sat & Sun 8am-8pm",2006-08-31 14:05:10,2007-05-07 16:49:35,172.659378,-43.382604
"POINT (169.411839999932369 -44.837292999819496)",1054840,Tarras Four Square Supermarket,"supermarket, groceries",http://www.foursquare.co.nz,"State Highway 8, Tarras",(03) 445 2822,,2006-10-29 13:27:12,2006-12-16 20:20:39,169.41184,-44.8372929998
"POINT (172.657979 -43.385994)",1029070,Kaiapoi Countdown,"supermarket, Lotto",http://www.progressive.co.nz,"87-97 Hilton Street, Kaiapoi",(03) 327 5224,"Mon - Sun, 8am - 10pm",2006-08-31 13:52:41,2007-03-18 18:42:47,172.657979,-43.385994
"POINT (174.304773000000608 -35.734546999999743)",1056520,Fosters Four Square,"supermarket, groceries",http://www.foursquare.co.nz,"121  Maunu Road, Whangarei",(09) 438 3234,,2006-10-29 13:28:35,2006-10-29 13:28:35,174.304773,-35.734547
"POINT (169.261659999934892 -45.943228999761033)",1054500,Tapanui Four Square Supermarket,"supermarket, groceries",http://www.foursquare.co.nz,"44 Northumberland Street, Tapanui",(03) 204 8630,,2006-10-29 13:14:20,2006-10-29 13:14:20,169.26166,-45.9432289998
"POINT (174.778215000002632 -41.307479999997682)",1055240,Newtown Four Square,"supermarket, groceries",http://www.foursquare.co.nz,"7 Riddiford Street, Newtown",(04) 389 9826,,2006-10-29 13:27:32,2006-10-29 13:27:32,174.778215,-41.30748
"POINT (174.794297000002786 -41.304228999997548)",1055220,Dayal's Supermarket,"supermarket, groceries, Lotto",,"1 Moxham Avenue, Hataitai",(04) 386 2459,,2006-10-29 13:27:31,2007-03-29 13:21:53,174.794297,-41.304229
"POINT (173.79775 -35.409729)",1030100,Kaikohe Woolworths,supermarket,http://www.progressive.co.nz,"17 Station Road, Kaikohe",(09) 405 2690,"Mon - Sun, 7am - 9pm",2006-08-31 13:53:05,2007-12-07 12:08:00,173.79775,-35.409729
"POINT (173.232852 -41.312354)",1030700,New World Stoke,supermarket,http://www.newworld.co.nz,"107 Neale Avenue, Stoke, Nelson",(03) 547 7788,"8am-9pm, 7 Days",2006-08-31 14:05:14,2006-12-21 14:17:11,173.232852,-41.312354
"POINT (167.713353000257229 -45.416739998138873)",1054580,Te Anau Four Square Supermarket,"supermarket, groceries",http://www.foursquare.co.nz,"30 Town Centre, Te Anau",(03) 249 7547,,2006-10-29 13:14:24,2008-01-06 21:48:48,167.713353,-45.4167399981
"POINT (174.081388000000231 -35.279407)",1030090,Paihia Woolworths,supermarket,http://www.progressive.co.nz,"9 Puketona Rd, Paihia",(09) 402 5524,"Mon - Sun, 7am - 10pm",2006-08-31 13:53:05,2007-10-09 11:11:39,174.081388,-35.279407
"POINT (168.391023999983048 -46.418200999153392)",1054520,Newfield Four Square Supermarket,"supermarket, groceries, Lotto",http://www.foursquare.co.nz,"Cnr Tweed and Ethel Streets, Invercargill",(03) 216 8266,,2006-10-29 13:14:21,2007-05-14 22:53:27,168.391024,-46.4182009992
"POINT (168.865806999927941 -46.194306999560503)",1054480,Baldwins Four Square Supermarket,"supermarket, groceries",http://www.foursquare.co.nz,"Bridge Street, Mataura",(03) 203 8140,,2006-10-29 13:14:19,2006-12-14 19:12:34,168.865807,-46.1943069996
"POINT (176.223364000070603 -37.674377999933675)",1029790,Bayfair Countdown,supermarket,http://www.progressive.co.nz,"Bayfair Shopping Centre, Girvan Road, Mt Maunganui",(07) 575 5947,"Mon - Sun, 7am - 10pm",2006-08-31 13:52:58,2007-03-05 10:37:22,176.223364,-37.6743779999
"POINT (175.399054000013706 -39.417717999987417)",1006880,New World Ohakune,supermarket,http://www.newworld.co.nz,"12 Goldfinch St, Ohakune",(06) 385 8587,Weekdays 7am-7pm and Weekends 7am-8pm,2006-08-06 17:48:42,2006-09-01 11:52:52,175.399054,-39.417718
"POINT (174.125796000000264 -39.550870999999873)",1055400,Manaia Four Square Discount,"supermarket, groceries",http://www.foursquare.co.nz,"53 Main South Road, Manaia, South Taranaki",(06) 274 8406,,2006-10-29 13:27:40,2007-10-15 11:17:48,174.125796,-39.550871
"POINT (169.319217999929322 -45.188804999787251)",1054870,Clyde Four Square Supermarket,"supermarket, groceries",http://www.foursquare.co.nz,"5 Fraser Street, Clyde",(03) 449 2718,,2006-10-29 13:27:14,2006-12-21 23:34:28,169.319218,-45.1888049998
"POINT (169.602507999947761 -45.093731999868709)",1054860,Omakau Four Square Supermarket,"supermarket, groceries",http://www.foursquare.co.nz,"Main Road, Omakau",(03) 447 3854,,2006-10-29 13:27:13,2006-12-21 23:38:20,169.602508,-45.0937319999
"POINT (169.658889999959598 -46.449808999876275)",1054730,Niles Four Square Supermarket,"supermarket, groceries",http://www.foursquare.co.nz,"12 Saunders Street, Owaka",(03) 415 8201,,2006-10-29 13:27:07,2007-01-23 13:19:45,169.65889,-46.4498089999
"POINT (173.264668 -35.114767)",1056370,Kaitaia Four Square,"supermarket, groceries",http://www.foursquare.co.nz,"65 Commerce Street, Kaitaia",(09) 408 1133,,2006-10-29 13:28:27,2007-01-23 13:20:04,173.264668,-35.114767
"POINT (172.80686 -40.8613)",1119400,Takaka FreshChoice,Supermarket. Fresh Choice.,http://www.progressive.co.nz,"13 Willow Street, Takaka",(03) 525 9383,,2008-01-15 21:32:07,2008-01-15 21:32:07,172.80686,-40.8613
"POINT (176.785871000147182 -39.627919999803993)",1031060,New World Flaxmere,supermarket,http://www.newworld.co.nz,"Swansea Road, Hastings",(06) 879 9957,"Weekdays 7am-8pm, Saturday 8am-8pm and Sunday 8am-6pm",2006-08-31 14:05:23,2007-09-17 20:03:53,176.785871,-39.6279199998
"POINT (175.140610000007143 -40.753352999993147)",1029580,Otaki Woolworths,supermarket,http://www.progressive.co.nz,"Cnr Mill Rd and Aotaki St, Otaki",(06) 364 8960,"Mon - Sun, 8am - 10pm",2006-08-31 13:52:53,2007-04-21 12:39:54,175.14061,-40.753353
"POINT (172.598065 -43.530024)",1028690,PAK 'n SAVE Riccarton,supermarket,http://www.paknsave.co.nz,"Riccarton Mall, 129 Riccarton Road, Christchurch",(03) 348 9727,"7am - Midnight, 7 days a week",2006-08-31 11:40:16,2006-09-01 11:55:19,172.598065,-43.530024
"POINT (172.638079 -43.539733)",1028710,PAK 'n SAVE Moorhouse,supermarket,http://www.paknsave.co.nz,"297 Moorhouse Ave, Christchurch",(03) 377 1000,"8am - 10pm, 7 days a week",2006-08-31 11:40:16,2006-09-01 11:55:19,172.638079,-43.539733
"POINT (170.49986199998861 -45.892443999978553)",1028720,PAK 'n SAVE Dunedin,supermarket,http://www.paknsave.co.nz,"86 Hillside Road, Dunedin",(03) 455 5129,"8am - 10pm, 7 days a week",2006-08-31 11:40:16,2006-09-01 11:55:19,170.499862,-45.892444
"POINT (174.050624000000198 -39.082922)",1029600,Westown Woolworths,supermarket,http://www.progressive.co.nz,"Cnr Wallath & Tukapa Sts, Westown, New Plymouth",(06) 753 9448,"Mon - Sun, 7am - 10pm",2006-08-31 13:52:53,2006-12-29 19:45:13,174.050624,-39.082922
"POINT (168.94460199992605 -46.098688999609323)",1028970,Gore Woolworths,supermarket,http://www.progressive.co.nz,"24 Medway Street, Gore",(03) 203 9043,"Mon - Fri, 7am - 10pm, Sat-Sun 8am-9pm",2006-08-31 13:52:38,2006-09-01 11:55:20,168.944602,-46.0986889996
"POINT (168.346960999991495 -46.375432999104973)",1028970,Waikiwi Woolworths,supermarket,http://www.progressive.co.nz,"Cnr North Rd & Durham St, Waikiwi, Invercargill",(03) 215 8178,"Mon-Sun, 8am-10pm",2006-08-31 13:52:38,2006-09-21 13:12:37,168.346961,-46.3754329991
"POINT (172.298027 -43.762655)",1029060,Leeston SuperValue,supermarket,http://www.progressive.co.nz,"78 High Street, Leeston",(03) 324 3788,"Mon - Fri: 8am - 7pm, Sat - Sun: 8am - 4pm",2006-08-31 13:52:40,2006-09-01 11:55:21,172.298027,-43.762655
"POINT (167.997386000120486 -46.143496998630461)",1028990,Otautau SuperValue,supermarket,http://www.progressive.co.nz,"157 Main Street, Otautau",(03) 225 8029,"Mon - Sat, 8am - 7.00pm , 9am - 5pm Sun",2006-08-31 13:52:39,2006-11-16 17:13:41,167.997386,-46.1434969986
"POINT (174.8542510000037 -36.875407999997712)",1028930,PAK 'n SAVE Glen Innes,"supermarket, Lotto",http://www.paknsave.co.nz,"182 Apirana Ave, Glen Innes",(09) 528 4885,"8am-10pm, 7 days a week",2006-08-31 11:40:21,2007-03-29 13:14:56,174.854251,-36.875408
"POINT (174.631934000001905 -36.877337999998943)",1028950,PAK 'n SAVE Henderson,"supermarket, Lotto",http://www.paknsave.co.nz,"Alderman Drive, Henderson, Auckland",(09) 837 0221,"8am-10pm, 7 days a week",2006-08-31 11:40:22,2007-03-29 13:27:48,174.631934,-36.877338
"POINT (173.281174 -41.270574)",1029310,Nelson Woolworths,supermarket,http://www.progressive.co.nz,"Cnr Hali & Paru Paru Rd, Nelson",(03) 546 6466,"Mon-Sun, 7am-10pm",2006-08-31 13:52:46,2007-04-01 20:36:58,173.281174,-41.270574
"POINT (174.007215000000144 -41.290238)",1029340,Picton SuperValue,supermarket,http://www.progressive.co.nz,"Mariners Mall, Picton",(03) 573 6463,"Mon - Sun, 7.30am - 9pm",2006-08-31 13:52:47,2007-04-15 15:07:10,174.007215,-41.290238
"POINT (172.705999 -43.48164)",1029180,Parklands FreshChoice,supermarket,http://www.progressive.co.nz,"60 Queenspark Drive, Parklands",(03) 383 1004,Mon - Sun: 7am - 9pm,2006-08-31 13:52:43,2006-09-01 11:55:21,172.705999,-43.48164
"POINT (172.684608 -43.549466)",1029190,Woolston SuperValue,supermarket,http://www.progressive.co.nz,"7-11 St Johns Street, Woolston",(03) 384 1140,"8am - 8pm, 7 days",2006-08-31 13:52:43,2006-09-01 11:55:21,172.684608,-43.549466
"POINT (172.721488 -43.602817)",1029080,Lyttelton SuperValue,"supermarket, Lotto",http://www.progressive.co.nz,"19 London Street, Lyttelton",(03) 328 7038,Mon - Sun: 8am - 9pm,2006-08-31 13:52:41,2008-04-04 10:27:32,172.721488,-43.602817
"POINT (172.657252 -43.530463)",1029220,Stanmore SuperValue,supermarket,http://www.progressive.co.nz,"96 Stanmore Road, Christchurch",(03) 389 2933,Mon - Sun 8am - 9pm,2006-08-31 13:52:44,2006-09-01 11:55:21,172.657252,-43.530463
"POINT (173.287216 -41.272006)",1029330,Nelson City FreshChoice,"supermarket, Lotto",http://www.progressive.co.nz,"69 Collingwood Street, Nelson",(03) 548 0191,"Mon - Fri: 8am - 9pm, Sat & Sun: 8am - 8pm",2006-08-31 13:52:47,2007-03-29 13:08:47,173.287216,-41.272006
"POINT (173.935086 -41.509343)",1029350,Springlands FreshChoice,"supermarket, Lotto",http://www.progressive.co.nz,"133 Middle Renwick Road, Blenheim",(03) 578 6289,"Mon - Sun, 7am - 9pm",2006-08-31 13:52:47,2007-03-29 13:09:21,173.935086,-41.509343
"POINT (173.825692 -41.507995)",1029340,Renwick SuperValue,supermarket,http://www.progressive.co.nz,"78 High Street, Renwick",(03) 572 8259,"Mon -Fri 7.30am - 7pm, Sat 7.30am - 6pm, Sun 7.30am - 5.30pm",2006-08-31 13:52:47,2006-09-01 11:55:22,173.825692,-41.507995
"POINT (173.954993000000115 -41.529787)",1029360,Redwood SuperValue,supermarket,http://www.progressive.co.nz,"93 Weld Street, Redwood, Blenheim",(03) 578 6675,"Mon - Sun, 7.30am - 8pm",2006-08-31 13:52:47,2006-09-01 11:55:22,173.954993,-41.529787
"POINT (172.621819 -43.512529)",1029130,Merivale FreshChoice,"supermarket, Lotto",http://www.progressive.co.nz,"189 Papanui Road, Merivale Mall, Merivale",(03) 355 4432,"Mon - Sun, 8am - 9pm",2006-08-31 13:52:42,2007-03-29 13:09:35,172.621819,-43.512529
"POINT (176.15565500006295 -37.70155599994149)",1029810,Tauranga Foodtown,supermarket,http://www.progressive.co.nz,"683 Cameron Road, Tauranga",(07) 578 0718,Mon - Sun 7am - 9pm,2006-08-31 13:52:58,2006-09-01 11:55:25,176.155655,-37.7015559999
"POINT (175.286329000010141 -40.620662999989918)",1029590,Levin Countdown,"supermarket, Lotto",http://www.progressive.co.nz,"Cnr Bristol Street and Stanley Street, Levin",(06) 368 4195,7 days 7am-10pm,2006-08-31 13:52:53,2007-09-09 17:33:09,175.286329,-40.620663
"POINT (174.906218000004259 -36.94844299999729)",1030000,Te Irirangi Drive Woolworths Micro @ Gull,"supermarket, petrol station",http://www.progressive.co.nz,"457 East Tamaki Road, Manukau",(09) 271 2692,"Mon - Sun, 24 hours",2006-08-31 13:53:03,2006-09-30 18:34:56,174.906218,-36.948443
"POINT (174.886293000004059 -36.961318999997452)",1030010,East Tamaki Woolworths Quickstop @ Gull,"supermarket, petrol station",http://www.woolworths.co.nz,"263 East Tamaki Road, Otara",(09) 271 3194,"Mon - Sun, 24 hours",2006-08-31 13:53:03,2006-09-30 18:09:27,174.886293,-36.961319
"POINT (174.896768000004158 -36.977349999997365)",1030020,Flatbush SuperValue,supermarket,http://www.progressive.co.nz,"8/130 Dawson Road, Flat Bush",(09) 274 4060,"Mon-Sun, 7am-8pm",2006-08-31 13:53:03,2006-09-01 11:55:26,174.896768,-36.97735
"POINT (174.450774000001019 -36.676773999999476)",1030130,Helensville Woolworths,supermarket,http://www.progressive.co.nz,"43 Commercial Road, Helensville",(09) 420 9627,"Mon - Sun, 7am - 10pm",2006-08-31 13:53:06,2007-01-23 12:25:58,174.450774,-36.676774
"POINT (174.702338000002356 -36.756185999998642)",1030120,Albany Highway Woolworths Quickstop @ Gull,"supermarket, petrol station",http://www.woolworths.co.nz,"183 Albany Highway, Albany",(09) 414 7960,"Mon - Sun, 24 hours",2006-08-31 13:53:05,2006-09-30 18:03:27,174.702338,-36.756186
"POINT (170.474382999987967 -45.870105999977234)",1054880,Foodlands Lucky Lotto Four Square,"supermarket, groceries",http://www.foursquare.co.nz,"185 Kaikorai Valley Road, Dunedin",(03) 453 5742,,2006-10-29 13:27:14,2006-10-29 13:27:14,170.474383,-45.870106
"POINT (168.354806999991354 -46.408743999113121)",1028980,Invercargill Plaza SuperValue,supermarket,http://www.progressive.co.nz,"103 Yarrow St, Invercargill",(03) 218 2205,"Mon - Sun, 7am - 7pm",2006-08-31 13:52:38,2006-09-01 11:55:20,168.354807,-46.4087439991
"POINT (175.526408000016829 -41.025832999981255)",1030980,New World Carterton,supermarket,http://www.newworld.co.nz,"60-72 High Street, Carterton",(06) 379 8016,"7 days a week, from 7am to 8pm",2006-08-31 14:05:21,2006-09-01 11:55:32,175.526408,-41.025833
"POINT (170.983130999995893 -45.080074999994224)",1054780,Frasers Four Square Supermarket,"supermarket, groceries",http://www.foursquare.co.nz,"421 Thames Highway, Oamaru",(03) 437 0653,,2006-10-29 13:27:10,2006-10-29 13:27:10,170.983131,-45.080075
"POINT (176.790000000163246 -38.039999999820779)",1055880,Ross's Four Square,"supermarket, groceries",http://www.foursquare.co.nz,"Main Highway, Te Teko, Whakatane",(07) 322 8127,,2006-10-29 13:28:03,2006-10-29 13:28:03,176.79,-38.0399999998
"POINT (173.505449 -35.392706)",1056340,Rawene Four Square,"supermarket, groceries",http://www.foursquare.co.nz,"Clendon Esplanade, Rawene",(09) 405 7848,,2006-10-29 13:28:26,2007-04-03 19:59:46,173.505449,-35.392706
"POINT (168.8489409999315 -46.327466999547987)",1054500,Wyndham Four Square Supermarket,"supermarket, groceries",http://www.foursquare.co.nz,"15 Balaclava Street, Wyndham",(03) 206 4645,,2006-10-29 13:14:20,2007-10-03 11:27:20,168.848941,-46.3274669995
"POINT (174.853689000003698 -36.980152999997721)",1031260,New World Papatoetoe,supermarket,http://www.newworld.co.nz,"65 St George Street, Papatoetoe, Auckland",(09) 278 4897,"8am-9pm, 7 days a week",2006-08-31 14:05:28,2006-09-01 11:55:33,174.853689,-36.980153
"POINT (169.966080999966636 -44.488346999934727)",1054790,Omarama Four Square Supermarket,"supermarket, groceries",http://www.foursquare.co.nz,"Chain Hills Hwy, Omarama",(03) 438 9895,,2006-10-29 13:27:10,2006-11-23 23:22:47,169.966081,-44.4883469999
"POINT (175.607242000020534 -40.329594999978191)",1055540,Milson Four Square,"supermarket, groceries",http://www.foursquare.co.nz,"10 Langley Avenue, Palmerston North",(06) 354 1892,,2006-10-29 13:27:47,2006-10-29 13:27:47,175.607242,-40.329595
"POINT (174.663692000002072 -36.909102999998815)",1030340,Kelston Foodtown,supermarket,http://www.progressive.co.nz,"Cnr Great North & West Coast Roads, Glen Eden",(09) 813 0356,"Mon - Sun, 8am - 10pm",2006-08-31 13:53:11,2007-01-04 20:01:14,174.663692,-36.909103
"POINT (174.89779500000418 -37.022634999997344)",1029990,Manurewa Woolworths,supermarket,http://www.progressive.co.nz,"Southmall Shopping Centre, Great South Road, Manurewa",(09) 267 0526,"Mon - Sun, 7am - 10pm",2006-08-31 13:53:02,2007-01-17 15:38:11,174.897795,-37.022635
"POINT (172.67522 -43.532582)",1029180,Eastgate Countdown,"supermarket, Lotto",http://www.progressive.co.nz,"Eastgate Mall, Cnr Linwood Avenue & Buckleys Road, Linwood",(03) 381 1396,"Mon-Sun, 24 hours",2006-08-31 13:52:43,2007-03-18 18:40:32,172.67522,-43.532582
"POINT (174.751840000002716 -36.876805999998375)",1030320,Mt Eden Foodtown,"supermarket, Lotto",http://www.progressive.co.nz,"Cnr Valley & Dominion Roads, Mt Eden",(09) 631 7052,"Mon-Sun, 24 hours",2006-08-31 13:53:10,2007-03-18 19:05:58,174.75184,-36.876806
"POINT (176.238540000071168 -38.128136999929751)",1029710,Lake Rd Woolworths Quickstop @ Gull,"supermarket, petrol station",http://www.woolworths.co.nz,"112 Lake Rd, Rotorua",(07) 343 6051,"Mon - Sun, 24 hours",2006-08-31 13:52:56,2006-09-30 18:27:17,176.23854,-38.1281369999
"POINT (175.798618000030729 -39.677047999967854)",1030980,New World Taihape,supermarket,http://www.newworld.co.nz,"112-114 Hautapu Street, Taihape",(06) 388 0118,"7am-9pm, 7 days a week",2006-08-31 14:05:21,2006-09-01 11:55:32,175.798618,-39.677048
"POINT (171.195487999997312 -42.462156999997319)",1030740,New World Greymouth,"supermarket, Lotto",http://www.newworld.co.nz,"Cnr High & Marlborough Streets, Greymouth",(03) 768 4441,"8am-9pm, 7 days a week",2006-08-31 14:05:15,2007-03-29 13:18:40,171.195488,-42.462157
"POINT (173.949022000000127 -35.226393)",1030110,Kerikeri Woolworths,supermarket,http://www.progressive.co.nz,"Cnr Kerikeri & Fairway Drive, Kerikeri",(09) 407 6163,"Mon - Sun, 7am - 9pm",2006-08-31 13:53:05,2006-12-29 19:49:33,173.949022,-35.226393
"POINT (173.317512 -41.236819)",1054990,Atawhai Four Square Supermarket,"supermarket, groceries",http://www.foursquare.co.nz,"664 Atawhai Crescent, Nelson",(03) 545 0912,,2006-10-29 13:27:20,2006-10-29 13:27:20,173.317512,-41.236819
"POINT (175.072267000005922 -41.124939999994268)",1029470,Upper Hutt Woolworths,supermarket,http://www.progressive.co.nz,"14 Russell Street, Upper Hutt, Wellington",(04) 528 9069,"Mon - Sun, 7am - 11pm",2006-08-31 13:52:50,2007-11-05 20:45:59,175.072267,-41.12494
"POINT (175.497547000018216 -36.760077999986493)",1056150,Coromandel Four Square,"supermarket, groceries, Lotto",http://www.foursquare.co.nz,"18 Kapanga Road, Coromandel",(07) 866 8808,,2006-10-29 13:28:16,2007-03-29 12:49:38,175.497547,-36.760078
"POINT (175.866850000036976 -38.219187999965975)",1031200,New World Tokoroa,supermarket,http://www.newworld.co.nz,"Bridge Street, Tokoroa",(07) 886 5058,"8am-8pm, 7 days a week",2006-08-31 14:05:27,2008-02-28 23:00:16,175.86685,-38.219188
"POINT (175.005282000005025 -40.917180999995324)",1029430,Paraparaumu Woolworths,supermarket,http://www.progressive.co.nz,"Coastlands Shoppingtown, Paraparaumu",(04) 296 1383,"Mon - Sun, 6am - 11pm",2006-08-31 13:52:49,2007-11-05 21:29:01,175.005282,-40.917181
"POINT (175.150004000008039 -37.666705999994157)",1031130,New World New World Ngaruawahia,"supermarket, Lotto",http://www.newworld.co.nz,"7 Galileo Street, Ngaruawahia",(07) 824 8275,"8.30am-7pm, 7 days a week",2006-08-31 14:05:25,2007-05-14 22:49:27,175.150004,-37.666706
"POINT (174.308653000000561 -35.751213999999742)",1030160,South Whangarei Woolworths Quickstop @ Gull,"supermarket, petrol station",http://www.progressive.co.nz,"Cnr State Highway 1 & Tauroa Street, South Whangarei",(09) 430 3760,"Mon - Sun, 24hrs",2006-08-31 13:53:06,2006-09-30 18:02:29,174.308653,-35.751214
"POINT (174.723494000002518 -36.81155699999853)",1118260,Pak N Fresh,"asian supermarket , fruit and vegetables",,"75 mokoia rd, birkenhead",,,2007-08-31 23:56:35,2007-08-31 23:56:35,174.723494,-36.811557
"POINT (169.686623999957789 -45.91285599988408)",1054940,Chapman Four Square Supermarket,"supermarket, groceries",http://www.foursquare.co.nz,"19 Ross Place, Lawrence",(03) 485 9105,,2006-10-29 13:27:17,2007-09-10 20:23:08,169.686624,-45.9128559999
"POINT (174.775389000002917 -36.909681999998234)",1028940,PAK 'n SAVE Royal Oak,supermarket,http://www.paknsave.co.nz,"Royal Oak Mall, 691 Manukau Rd, Royal Oak, Auckland",(09) 625 8561,"8am-10pm, 7 days",2006-08-31 11:40:21,2007-12-18 21:03:33,174.775389,-36.909682
"POINT (170.656672999991599 -45.639854999985566)",1054920,Karitane Four Square Supermarket,"supermarket, groceries",http://www.foursquare.co.nz,"130 Stornoway Street, Karitane",(03) 465 7331,,2006-10-29 13:27:16,2006-10-29 13:27:16,170.656673,-45.639855
"POINT (171.229229999997813 -44.378763999997417)",1055060,Grants Four Square Supermarket,"supermarket, groceries",http://www.foursquare.co.nz,"261 Selwyn Street, Timaru",(03) 688 8741,,2006-10-29 13:27:23,2006-10-29 13:27:23,171.22923,-44.378764
"POINT (175.326091000012184 -37.789901999990541)",1056100,Silverdale Four Square,"supermarket, groceries",http://www.foursquare.co.nz,"120 Silverdale Road, Hamilton",(07) 856 9995,,2006-10-29 13:28:14,2006-10-29 13:28:14,175.326091,-37.789902
"POINT (174.980868000004676 -40.893685999995668)",1055190,Thriftway Four Square Discount,"supermarket, groceries",http://www.foursquare.co.nz,"16 Seaview Road, Paraparaumu",(04) 298 4528,,2006-10-29 13:27:29,2006-10-29 13:27:29,174.980868,-40.893686
"POINT (174.737218000002628 -36.763479999998474)",1098400,T-Market Supermarket Glenfield,Asian supermarket,,"Unit 3, 20 Link Dr, Wairau Park, Glenfield, Auckland",(09) 442 1158,,2007-04-17 17:04:56,2007-04-17 17:04:56,174.737218,-36.76348
"POINT (174.149284000000307 -39.028417999999839)",1029610,Parklands SuperValue,supermarket,http://www.progressive.co.nz,"Parklands Shopping Centre, 188 Parklands Ave, Bell Block",(06) 755 1963,"Mon - Sun, 7am - 8pm",2006-08-31 13:52:53,2006-09-01 11:55:24,174.149284,-39.028418
"POINT (176.894889000170906 -39.495891999769448)",1029630,Taradale Woolworths Quickstop @ Gull,"supermarket, petrol station",http://www.progressive.co.nz,"2 Taradale Rd, Napier",(06) 834 0285,"Mon - Sun, 24 hours",2006-08-31 13:52:54,2006-09-30 18:30:16,176.894889,-39.4958919998
"POINT (176.191802000067014 -37.665923999937512)",1029780,Mt Maunganui Woolworths Micro @ Gull,"supermarket, petrol station",http://www.woolworths.co.nz,"131 Hewletts Road, Mt Maunganui",(07) 574 2975,"Mon - Sun, 24 hours",2006-08-31 13:52:57,2006-09-30 18:25:53,176.191802,-37.6659239999
"POINT (175.286640000011118 -37.793871999991467)",1029840,Bridge Street Countdown,supermarket,http://www.progressive.co.nz,"Bridgemall, Bridge St, Hamilton",(07) 838 2714,"Mon - Sun, 7am - 10pm",2006-08-31 13:52:59,2007-03-04 10:34:44,175.28664,-37.793872
"POINT (176.325223000083042 -37.784672999919486)",1029770,Te Puke Woolworths,supermarket,http://www.progressive.co.nz,"Cnr Queen St & Boucher Ave, Te Puke",(07) 573 0058,"Mon - Sun, 7am - 9pm",2006-08-31 13:52:57,2006-12-29 19:54:05,176.325223,-37.7846729999
"POINT (174.722915000002502 -36.781791999998539)",1030180,Glenfield Countdown,supermarket,http://www.progressive.co.nz,"Glenfield Mall, Bentley Ave, Glenfield",(09) 444 0400,"Mon - Sun, 7am - 10pm",2006-08-31 13:53:07,2006-09-28 18:28:44,174.722915,-36.781792
"POINT (174.721541000002503 -36.783166999998542)",1030190,Glenfield Foodtown,supermarket,http://www.progressive.co.nz,"Cnr Downing St and Glenfield Rd, Glenfield",(09) 444 7875,"Sat - Wed 8-9pm, Thurs - Fri 8-10pm",2006-08-31 13:53:07,2006-09-28 18:26:24,174.721541,-36.783167
"POINT (174.724363000002541 -36.730571999998539)",1030200,Pinehill Woolworths Quickstop @ Gull,"supermarket, petrol station",http://www.progressive.co.nz,"50 Greville Rd, Pinehill",(09) 475 5316,"Mon - Sun, 24 hours",2006-08-31 13:53:07,2006-09-30 18:36:19,174.724363,-36.730572
"POINT (174.783340000003022 -36.922809999998186)",1030320,Onehunga Foodtown,supermarket,http://www.progressive.co.nz,"Cnr Church & Selwyn Street, Onehunga",(09) 634 3688,"Mon-Sun, 7am-10pm",2006-08-31 13:53:10,2006-09-28 18:25:14,174.78334,-36.92281
"POINT (174.66909100000214 -36.873055999998783)",1030340,Avondale Woolworths Quickstop @ Gull,"supermarket, petrol station",http://www.progressive.co.nz,"628 Rosebank Road, Avondale",(09) 820 9040,"Mon - Sun, 24 hours",2006-08-31 13:53:11,2006-09-30 18:37:38,174.669091,-36.873056
"POINT (174.690642000002271 -36.910684999998686)",1030350,New Lynn Woolworths Quickstop @ Gull,"supermarket, petrol station",http://www.woolworths.co.nz,"23 Clark St, New Lynn",(09) 826 4200,"Mon - Sun, 24 hours",2006-08-31 13:53:11,2006-09-30 18:08:42,174.690642,-36.910685
"POINT (174.630274000001862 -36.874957999998948)",1030410,Sel Peacock Henderson Woolworths Micro @ Gull,"supermarket, petrol station",http://www.woolworths.co.nz,"13 Sel Peacock Drive, Henderson",(09) 838 1583,"Mon - Sun, 24 hours",2006-08-31 13:53:12,2007-01-23 12:26:12,174.630274,-36.874958
"POINT (174.651907000002012 -36.842290999998866)",1030390,Te Atatu Woolworths,supermarket,http://www.progressive.co.nz,"583 Te Atatu Road, Te Atatu Peninsula",(09) 834 8580,"Mon - Sun, 7am - 10pm",2006-08-31 13:53:12,2006-09-01 11:55:28,174.651907,-36.842291
"POINT (174.632602000001867 -36.880434999998933)",1030400,Henderson Countdown,supermarket,http://www.progressive.co.nz,"West City Mall, 7 Catherine St, Henderson",(09) 836 8541,"Mon - Sun, 8am - 9pm",2006-08-31 13:53:12,2006-09-28 18:30:58,174.632602,-36.880435
"POINT (171.216063999997459 -42.448042999997497)",1030450,Greymouth FreshChoice,"supermarket, Lotto",http://www.progressive.co.nz,"174B Mawhera Quay, Greymouth",(03) 768 7545,"Mon - Sun, 7am - 9pm",2006-08-31 13:53:13,2007-03-29 13:07:15,171.216064,-42.448043
"POINT (174.646611000001968 -36.865407999998872)",1030420,Te Atatu South Foodtown,supermarket,http://www.progressive.co.nz,Cnr Edmonton Road & Te Atatu Road,(09) 838 8228,"Mon - Sun, 8.30am - 9pm",2006-08-31 13:53:13,2006-09-28 18:24:27,174.646611,-36.865408
"POINT (172.566972 -43.580212)",1030530,New World Halswell,"supermarket, Lotto",http://www.newworld.co.nz,"346-360 Halswell Road, Christchurch",(03) 322 9991,"Mon-Fri 8am-9pm, Sat & Sun 8am-8pm",2006-08-31 14:05:10,2007-03-29 13:20:53,172.566972,-43.580212
"POINT (173.679593 -42.387884)",1030530,New World Kaikoura,"supermarket, Lotto",http://www.newworld.co.nz,"124-128 Beach Road, Kaikoura",(03) 319 5723,"8am-8pm, 7 days a week",2006-08-31 14:05:10,2007-05-07 16:51:33,173.679593,-42.387884
"POINT (172.622171 -43.45978)",1030580,New World Belfast,"supermarket, Lotto",http://www.newworld.co.nz,"2 Mounter Avenue, Northwood, Belfast, Christchurch",(03) 375 9004,"7.30am-9pm, 7 days a week",2006-08-31 14:05:11,2007-03-18 15:07:03,172.622171,-43.45978
"POINT (170.985600999995938 -45.076904999994255)",1030620,New World Northside,supermarket,http://www.newworld.co.nz,"402 Thames Highway, Oamaru",(03) 437 1908,"8am-8pm, 7 days a week",2006-08-31 14:05:12,2006-09-01 11:55:29,170.985601,-45.076905
"POINT (174.784411000002677 -41.29260999999763)",1030800,New World Wellington City,"supermarket, Lotto",http://www.newworld.co.nz,"279 Wakefield Street, Wellington",(04) 384 8054,"7 days a week, from 7am to 12 midnight",2006-08-31 14:05:17,2007-03-18 15:00:27,174.784411,-41.29261
"POINT (174.84186000000318 -41.136245999997165)",1030780,New World Porirua City,"supermarket, Lotto",http://www.newworld.co.nz,"North City Plaza, Cnr Lyttleton & Walton Leigh Avenues, Porirua",(04) 237 0012,"7 days a week, from 7am to 11pm",2006-08-31 14:05:16,2007-05-14 22:49:59,174.84186,-41.136246
"POINT (170.519486999989027 -45.854890999979574)",1030660,New World Gardens,"supermarket, Lotto",http://www.newworld.co.nz,"6 North Road, Dunedin",(03) 473 8754,"Mon-Fri 8.30am-8pm, Sat 8.30-7pm, Sun 9am-7pm",2006-08-31 14:05:13,2007-03-29 13:13:27,170.519487,-45.854891
"POINT (176.839802000157704 -39.638995999786552)",1031040,New World Hastings City,"supermarket, Lotto",http://www.newworld.co.nz,"400 E Heretaunga Street, Hastings",(06) 876 9881,"7am-10pm, 7 days a week",2006-08-31 14:05:23,2007-03-29 13:21:28,176.839802,-39.6389959998
"POINT (174.775213000002651 -41.287918999997714)",1030820,New World Willis Street Metro,supermarket,http://www.newworld.co.nz,"70 Willis Street, Wellington",(04) 471 6580,"Weekdays 7am-11pm, Saturday 8am-11pm and Sunday 8am-10pm",2006-08-31 14:05:17,2006-09-01 11:55:31,174.775213,-41.287919
"POINT (177.417431000320647 -39.03388399952356)",1031020,New World Wairoa,supermarket,http://www.newworld.co.nz,"41 Queen Street, Wairoa",(06) 838 8019,"Monday-Thursday 7.30am-5.30pm, Friday 7.30am-7.30pm and Weekends 8am-4pm",2006-08-31 14:05:22,2006-09-01 11:55:32,177.417431,-39.0338839995
"POINT (174.791576000002749 -41.247499999997572)",1030840,New World Khandallah,"supermarket, Lotto",http://www.newworld.co.nz,"26 Ganges Road, Khandallah",(04) 479 6986,"Weekdays from 8am to 8.30pm, weekends from 8am to 8pm",2006-08-31 14:05:18,2007-05-07 16:56:05,174.791576,-41.2475
"POINT (175.321820000012053 -37.802120999990635)",1031160,New World Hillcrest,supermarket,http://www.newworld.co.nz,"Cambridge Road, Hillcrest, Hamilton",(07) 856 7094,"7.30am-8.30pm, 7 days a week",2006-08-31 14:05:26,2007-01-06 19:03:45,175.32182,-37.802121
"POINT (174.694049000002281 -36.586642999998709)",1031300,New World Orewa,supermarket,http://www.newworld.co.nz,"11 Moana Ave, Orewa",(09) 427 0117,"7am-10pm, 7 days a week",2006-08-31 14:05:30,2007-01-23 12:26:43,174.694049,-36.586643
"POINT (175.522552000018862 -37.659807999984757)",1031210,New World Morrinsville,supermarket,http://www.newworld.co.nz,"89 Thames Street, Morrinsville",(07) 889 8060,"Mon-Fri 7.30am-8pm, Sat & Sun 7.30am-7pm",2006-08-31 14:05:27,2006-09-01 11:55:33,175.522552,-37.659808
"POINT (175.257367000010049 -38.882993999991541)",1031220,New World Taumarunui,supermarket,http://www.newworld.co.nz,"10 Hakiaha Street, Taumarunui",(07) 896 0070,"8am-7pm, 7 days a week",2006-08-31 14:05:28,2006-09-01 11:55:33,175.257367,-38.882994
"POINT (175.769893000031118 -37.803390999973047)",1031210,New World Matamata,"supermarket, Lotto",http://www.newworld.co.nz,"45 Waharoa Road East, Matamata",(07) 888 7703,"8am-8pm, 7 days a week",2006-08-31 14:05:27,2007-05-14 22:49:11,175.769893,-37.803391
"POINT (174.942620000004723 -37.064938999996947)",1031260,New World Papakura,supermarket,http://www.newworld.co.nz,"40-44 East Street, Papakura, Auckland",(09) 299 6503,"Mon-Wed 7.30am-8pm, Thurs & Fri 7.30am-9pm, Sat & Sun 7.30am-8pm",2006-08-31 14:05:29,2006-09-01 11:55:33,174.94262,-37.064939
"POINT (174.764582000002832 -36.772381999998316)",1031330,New World Milford,supermarket,http://www.newworld.co.nz,"141 Kitchener Rd, Milford, Auckland",(09) 489 5543,"7am - 10pm, 7 Days",2006-08-31 14:05:30,2006-09-01 11:55:33,174.764582,-36.772382
"POINT (174.777978000002946 -36.796580999998241)",1031340,New World Takapuna,supermarket,http://www.newworld.co.nz,"Hauraki Corner, 371 Lake Rd, Takapuna, Auckland",(09) 489 5672,"8am-8pm, 7 days a week",2006-08-31 14:05:31,2006-09-01 11:55:33,174.777978,-36.796581
"POINT (174.797515000003131 -36.881706999998094)",1031350,New World Remuera,supermarket,http://www.newworld.co.nz,"10 Clonbern Road, Remuera, Auckland",(09) 520 3559,"8am-10pm, 7 days a week",2006-08-31 14:05:31,2006-09-01 11:55:33,174.797515,-36.881707
"POINT (174.828676000003441 -36.860517999997889)",1031350,New World Eastridge,supermarket,http://www.newworld.co.nz,"209 Kepa Road, Mission Bay, Auckland",(09) 521 4680,"8am-10pm, 7 days a week",2006-08-31 14:05:31,2006-09-01 11:55:34,174.828676,-36.860518
"POINT (174.679190000002194 -36.930739999998735)",1031370,New World Green Bay,supermarket,http://www.newworld.co.nz,"64 Godley Road, Green Bay, Auckland",(09) 827 4070,"Mon-Fri 7am-9pm, Sat & Sun 8am-8pm",2006-08-31 14:05:31,2006-09-01 11:55:34,174.67919,-36.93074
"POINT (174.90584100000379 -41.210768999996496)",1029500,Lower Hutt Woolworths,supermarket,http://www.progressive.co.nz,"Queensgate Shopping Centre, Bloomfield Terrace, Lower Hutt",(04) 569 3993,"Mon - Sun, 7am - 10pm",2006-08-31 13:52:51,2008-01-15 17:26:52,174.905841,-41.210769
"POINT (174.444008000000991 -36.160641999999505)",1056460,Jaques Four Square,"supermarket, groceries",http://www.foursquare.co.nz,"Mangawhai Road, Kaiwaka",(09) 431 2227,,2006-10-29 13:28:32,2007-01-04 19:50:31,174.444008,-36.160642
"POINT (174.352233000000723 -36.111061999999663)",1056480,Maungaturoto Four Square,"supermarket, groceries",http://www.foursquare.co.nz,"Main Road, Maungaturoto",(09) 431 8700,,2006-10-29 13:28:33,2007-04-03 18:30:52,174.352233,-36.111062
"POINT (176.913464000174912 -39.49283099976283)",1029640,Napier Countdown,"supermarket, Lotto",http://www.progressive.co.nz,"Cnr Munroe & Dickens Streets, Napier",(06) 834 1401,"Mon - Sun, 24 hours",2006-08-31 13:52:54,2007-03-18 18:44:28,176.913464,-39.4928309998
"POINT (175.875539000038685 -37.212543999967558)",1056130,Whangamata Superette,"supermarket, groceries",,"326 Ocean Road, Whangamata",(07) 865 8842,,2006-10-29 13:28:16,2008-04-13 20:07:30,175.875539,-37.212544
"POINT (173.260328 -35.110366)",1056380,Plaza Four Sqaure,"supermarket, groceries",http://www.foursquare.co.nz,"220 Commerce Street, Kaitaia",(09) 408 1870,,2006-10-29 13:28:28,2007-01-12 09:32:05,173.260328,-35.110366
"POINT (174.233768000000424 -39.00283499999977)",1055720,BJ's Waitara Four Sqaure,"supermarket, groceries",http://www.foursquare.co.nz,"68-70 McLean Street, Waitara",(06) 754 3125,,2006-10-29 13:27:56,2006-10-29 13:27:56,174.233768,-39.002835
"POINT (174.865391000003399 -41.082161999996934)",1055100,Plimmerton Four Square,"supermarket, groceries",http://www.foursquare.co.nz,"4 Steyne Avenue, Plimmerton",(04) 233 1090,,2006-10-29 13:27:25,2006-10-29 13:27:25,174.865391,-41.082162
"POINT (172.642078 -43.538726)",1029170,Moorhouse Countdown,supermarket,http://www.progressive.co.nz,"Cnr Moorhouse Ave and Madras St, Christchurch",(03) 366 4804,"Mon - Sun, 8am-8pm",2006-08-31 13:52:43,2006-12-07 20:30:04,172.642078,-43.538726
"POINT (175.849104000037016 -37.001143999969742)",1056120,Tairua Four Square,"supermarket, groceries",http://www.foursquare.co.nz,"234 Main Road, Tairua",(07) 864 9583,,2006-10-29 13:28:15,2006-11-16 17:16:10,175.849104,-37.001144
"POINT (175.283561000011048 -37.771918999991541)",1031160,New World Heaphy Tce,"supermarket, Lotto",http://www.newworld.co.nz,"Heaphy Terrace, Hamilton",(07) 855 3957,"8am-8pm, 7 days a week",2006-08-31 14:05:26,2007-05-14 22:45:17,175.283561,-37.771919
"POINT (174.307312000000593 -35.74339499999973)",1056540,Otaika Four Square,"supermarket, groceries",http://www.foursquare.co.nz,"Otaika Road, Whangarei",(09) 438 7119,,2006-10-29 13:28:35,2007-04-10 17:00:17,174.307312,-35.743395
"POINT (174.8272850000034 -37.188561999997866)",1056240,Patumahoe Four Square,"supermarket, groceries",http://www.foursquare.co.nz,"Main Road, Patumahoe",(09) 236 3838,,2006-10-29 13:28:21,2007-01-04 19:52:43,174.827285,-37.188562
"POINT (175.209827000009142 -38.189815999992874)",1029900,Otorohanga Woolworths,supermarket,http://www.progressive.co.nz,"119-123 Maniapoto St, Otorohanga",(07) 873 7378,"Mon - Sun, 7am - 10pm",2006-08-31 13:53:00,2006-11-16 17:13:46,175.209827,-38.189816
"POINT (176.700765000143974 -38.085665999844153)",1031070,New World Kawerau,supermarket,http://www.newworld.co.nz,"Cnr Islington and Plunket Streets , Kawerau",(07) 306 9310,"8am-8pm, 7 days a week",2006-08-31 14:05:24,2007-10-14 13:21:32,176.700765,-38.0856659998
"POINT (175.164298000008216 -38.333363999993644)",1056190,Te Kuiti Four Square,"supermarket, groceries",http://www.foursquare.co.nz,"95 Rora Street, Te Kuiti",(07) 878 8530,,2006-10-29 13:28:18,2006-10-29 13:28:18,175.164298,-38.333364
"POINT (173.186867 -41.339008)",1028730,PAK 'n SAVE Richmond,supermarket,http://www.paknsave.co.nz,"Richmond Mall, Corner of Queen & Talbot Sts, Richmond",(03) 5448 658,"Mon - Wed, Fri 8am - 9pm, Thur 8am - 10pm, Weekends 8am - 8pm",2006-08-31 11:40:16,2007-04-15 14:47:39,173.186867,-41.339008
"POINT (175.066152000005815 -41.124139999994362)",1028760,PAK 'n SAVE Upper Hutt,supermarket,http://www.paknsave.co.nz,"Gibbons Street, Upper Hutt",(04) 527 7276,"7am- 11pm, 7 days a week",2006-08-31 11:40:17,2007-04-15 14:48:34,175.066152,-41.12414
"POINT (176.870114000165444 -39.510939999777889)",1028810,PAK 'n SAVE Tamatea,supermarket,http://www.paknsave.co.nz,"Leicester Avenue, Tamatea, Napier",(06) 843 3134,"7am to 10pm, 7 days a week",2006-08-31 11:40:18,2007-04-15 14:51:08,176.870114,-39.5109399998
"POINT (174.946056000004262 -41.19948399999604)",1055310,Naenae Four Square Discount,"supermarket, groceries",http://www.foursquare.co.nz,"2-10 Vogel Street, Naenae",(04) 567 1838,,2006-10-29 13:27:35,2007-09-10 20:03:24,174.946056,-41.199484
"POINT (176.68473300014071 -38.090051999848107)",1055890,Ballantrae Four Square,"supermarket, groceries",http://www.foursquare.co.nz,"76-80 Fenton Mill Road, Kawerau",(07) 323 6560,,2006-10-29 13:28:04,2007-09-10 20:05:24,176.684733,-38.0900519998
"POINT (174.706500000002393 -36.730149999998623)",1028910,PAK 'n SAVE Albany,"supermarket, Lotto",http://www.paknsave.co.nz,"Don McKinnon Drive, Albany, Auckland",(09) 415 1000,"8am-10pm, 7 days",2006-08-31 11:40:21,2008-01-23 18:37:07,174.7065,-36.73015
"POINT (170.348553999984773 -45.873322999969538)",1029280,Mosgiel Countdown,supermarket,http://www.progressive.co.nz,"Factory Rd, Mosgiel",(03) 489 0041,"Mon - Sun, 8am - 8pm",2006-08-31 13:52:45,2007-04-15 15:05:14,170.348554,-45.873323
"POINT (174.74675400000271 -36.63753599999842)",1030140,Whangaparaoa Foodtown,"supermarket, Lotto",http://www.progressive.co.nz,"Level 3, The Plaza, Cnr Whangaparaoa Rd & Wade River Road, Whangaparaoa",(09) 424 6213,"Mon - Sun, 7am - 10pm",2006-08-31 13:53:06,2007-04-13 13:00:57,174.746754,-36.637536
"POINT (173.961189 -41.513936)",1030690,New World Blenheim,"supermarket, Lotto",http://www.newworld.co.nz,"Freswick Street, Blenheim",(03) 520 9030,"8am-9pm, 7 days a week",2006-08-31 14:05:14,2007-03-18 15:09:19,173.961189,-41.513936
"POINT (173.766733 -41.277795)",1055020,Havelock Four Square Supermarket,"supermarket, groceries, Lotto",http://www.foursquare.co.nz,"68 Main Road, Havelock",(03) 574 2166,,2006-10-29 13:27:21,2007-03-29 13:22:33,173.766733,-41.277795
"POINT (171.72040699999954 -43.920214999999637)",1029030,Tinwald SuperValue,supermarket,http://www.progressive.co.nz,"Main Road South, Ashburton",(03) 308 7446,"Mon - Sun, 8am - 9pm",2006-08-31 13:52:40,2007-06-21 20:12:12,171.720407,-43.920215
"POINT (176.876879000164905 -39.671396999773478)",1031050,New World Havelock North,supermarket,http://www.newworld.co.nz,"Porter Drive, Havelock North",(06) 877 8032,"7 days a week, from 7am to 10pm",2006-08-31 14:05:23,2007-05-28 20:29:09,176.876879,-39.6713969998
"POINT (174.912879000003869 -41.204973999996433)",1028760,PAK 'n SAVE Hutt City,supermarket,http://www.paknsave.co.nz,"Brunswick Street, Lower Hutt",(04) 586 0463,"Open 7 days, 6am to 12 midnight",2006-08-31 11:40:17,2006-11-18 11:18:45,174.912879,-41.204974
"POINT (172.641927 -42.923253)",1054630,Hawarden Four Square Supermarket,"supermarket, groceries",http://www.foursquare.co.nz,"1 High Street, Hawarden",(03) 314 4037,,2006-10-29 13:27:02,2006-10-29 13:27:02,172.641927,-42.923253
"POINT (174.904877000004262 -36.902308999997317)",1098400,T-Market Supermarket Highland Park,Asian supermarket,,"Unit 9-10, 29 Aviemore Dr, Highland Park, Auckland",(09) 537 0158,,2007-04-17 17:04:57,2007-04-17 17:04:57,174.904877,-36.902309
"POINT (176.250529000072561 -38.141315999928125)",1029720,Rotorua Woolworths,supermarket,http://www.progressive.co.nz,"Rotorua Central Mall, Victoria St, Rotorua",(07) 349 6501,"Mon - Sun, 7am - 10pm",2006-08-31 13:52:56,2007-06-23 13:05:05,176.250529,-38.1413159999
"POINT (174.799562000003164 -36.968940999998075)",1030030,Mangere Foodtown,supermarket,http://www.progressive.co.nz,"Bader Drive, Mangere Town Centre",(09) 275 7378,"Mon - Sun, 7am - 9pm",2006-08-31 13:53:03,2007-04-01 16:50:30,174.799562,-36.968941
"POINT (172.59515 -43.305373)",1029040,Rangiora Woolworths,supermarket,http://www.progressive.co.nz,"Cnr Queen & Victoria Sts, Rangiora",(03) 313 0510,"Mon - Sun, 8am - 9pm",2006-08-31 13:52:40,2007-01-24 14:03:44,172.59515,-43.305373
"POINT (174.842894000003582 -36.945075999997798)",1030040,Otahuhu Countdown,supermarket,http://www.progressive.co.nz,"Hall Avenue, Otahuhu, Auckland",(09) 276 6161,"Mon - Sun, 7am - 9pm",2006-08-31 13:53:03,2007-01-17 15:38:13,174.842894,-36.945076
"POINT (174.523412000001343 -36.294978999999323)",1056430,Rodney Four Square,"supermarket, groceries",http://www.foursquare.co.nz,"155 Rodney Street, Wellsford",(09) 423 8238,,2006-10-29 13:28:30,2007-01-23 13:11:15,174.523412,-36.294979
"POINT (173.87273 -35.939378)",1030180,Dargaville Woolworths,"supermarket, BNZ ATM",http://www.progressive.co.nz,"Dargaville Plaza, Victoria St, Dargaville",(09) 439 3035,"Mon - Sun, 7am - 9pm",2006-08-31 13:53:07,2007-05-02 08:04:42,173.87273,-35.939378
"POINT (174.908180000004279 -36.899338999997276)",1030280,Highland Park Countdown,"supermarket, Lotto",http://www.progressive.co.nz,"507 Pakuranga Highway, Highland Park",(09) 537 5460,7 days 24 Hours,2006-08-31 13:53:09,2007-03-18 18:42:05,174.90818,-36.899339
"POINT (176.866480000165751 -39.418999999780304)",1055800,Bay View Four Square,"supermarket, groceries, Lotto",http://www.foursquare.co.nz,"9 Hill Road, Bay View",(06) 836 6440,,2006-10-29 13:27:59,2007-03-18 15:06:38,176.86648,-39.4189999998
"POINT (173.392013 -35.504566)",1056340,Opononi Four Square,"supermarket, groceries",http://www.foursquare.co.nz,"Main Road, State Highway 16, Opononi",(09) 405 8838,,2006-10-29 13:28:26,2007-04-01 19:50:43,173.392013,-35.504566
"POINT (175.860450000037787 -37.023935999968977)",1029890,Pauanui SuperValue,supermarket,http://www.progressive.co.nz,"Jubilee Drive, Pauanui",(07) 864 7692,"Mon - Sun, 7am to 9pm",2006-08-31 13:53:00,2007-04-15 15:10:51,175.86045,-37.023936
"POINT (174.758867000002823 -36.858964999998335)",1121950,New Gum Sarn Supermarket,Chinese supermarket,,"23-31 Mercury Lane, Newton, Auckland",(09) 302 2157,,2008-03-28 17:21:12,2008-03-28 17:21:38,174.758867,-36.858965
"POINT (170.508809999988813 -45.896598999979012)",1029250,Andersons Bay Woolworths,supermarket,http://www.progressive.co.nz,"560 Andersons Bay Rd, Dunedin",(03) 455 1053,"Mon - Sun, 7am - 10pm",2006-08-31 13:52:45,2006-09-01 11:55:22,170.50881,-45.896599
"POINT (175.037857000005687 -39.924265999995136)",1029530,Victoria Ave Woolworths Quickstop @ Gull,"supermarket, petrol station",http://www.progressive.co.nz,"438-450 Victoria Ave, Wanganui",(06) 348 7233,"Mon - Sun, 24 hours",2006-08-31 13:52:52,2006-09-30 18:31:07,175.037857,-39.924266
"POINT (176.109295000058154 -37.695807999946481)",1056010,Bethlehem Four Square,"supermarket, Lotto, groceries",http://www.foursquare.co.nz,"Main Road, Bethlehem, Tauranga",(07) 576 4750,,2006-10-29 13:28:09,2007-09-10 21:12:10,176.109295,-37.6958079999
"POINT (178.330001000758244 -37.880000998640483)",1055830,Hikurangi Four Square (Ruatoria),"supermarket, groceries",http://www.foursquare.co.nz,"Main Road, Ruatoria",(06) 864 8450,,2006-10-29 13:28:01,2006-11-20 15:30:12,178.330001001,-37.8800009986
"POINT (174.102861000000217 -39.066578999999869)",1031000,New World Merrilands,supermarket,http://www.newworld.co.nz,"200 Mangorei Road, New Plymouth",(06) 758 5527,"7 days a week, from 8am to 8pm",2006-08-31 14:05:22,2006-09-01 11:55:32,174.102861,-39.066579
"POINT (176.982290000211151 -37.961624999760161)",1028830,PAK 'n SAVE Whakatane,supermarket,http://www.paknsave.co.nz,"King St, Kopeopeo",(07) 308 0388,"8am-9pm, 7 days a week",2006-08-31 11:40:19,2007-09-09 18:02:51,176.98229,-37.9616249998
"POINT (176.157727000063176 -37.700413999941276)",1029800,Tauranga Countdown,"supermarket, Lotto",http://www.progressive.co.nz,"618 Cameron Rd, Tauranga",(07) 578 0055,"Mon - Sun, 24 hours",2006-08-31 13:52:58,2007-03-18 18:51:19,176.157727,-37.7004139999
"POINT (174.744962000002658 -36.800169999998417)",1030220,Northcote Woolworths,supermarket,http://www.progressive.co.nz,"Pearn Crescent, Northcote, Auckland",(09) 480 0361,"Mon - Sun, 7am - 10pm",2006-08-31 13:53:08,2006-10-15 11:27:43,174.744962,-36.80017
"POINT (174.765278000002837 -36.791578999998301)",1030230,Takapuna Foodtown,supermarket,http://www.progressive.co.nz,"10 Barrys Point Road, Takapuna",(09) 489 7367,"Mon - Sun, 24 hours",2006-08-31 13:53:08,2006-09-01 11:55:27,174.765278,-36.791579
"POINT (174.710127000002387 -36.86989599999859)",1030440,Pt Chevalier Countdown,supermarket,http://www.progressive.co.nz,"13 Pt Chevalier Road, Pt Chevalier",(09) 849 3310,"Mon-Sun, 8am-8pm",2006-08-31 13:53:13,2006-09-01 11:55:28,174.710127,-36.869896
"POINT (175.650378000021675 -40.955784999975123)",1030460,Masterton Woolworths Quickstop @ Gull,"supermarket, petrol station",http://www.woolworths.co.nz,"199 Chapel Street, Masterton",(06) 370 1551,"Mon - Sun, 24 hours",2006-08-31 13:53:13,2006-09-30 17:59:02,175.650378,-40.955785
"POINT (176.109096000052006 -40.203086999937781)",1055640,Dannevirke Four Square,"supermarket, groceries, Lotto",http://www.foursquare.co.nz,"247 High Street, Dannevirke",(06) 374 8805,,2006-10-29 13:27:51,2007-03-18 18:55:38,176.109096,-40.2030869999
"POINT (175.869886000037184 -38.216628999965771)",1029920,Tokoroa Countdown,supermarket,http://www.progressive.co.nz,"44 Mannering Street, Tokoroa 2392",(07) 886 6920,"Mon - Sun, 7.30am - 8pm",2006-08-31 13:53:01,2007-12-28 16:09:36,175.869886,-38.216629
"POINT (174.723370000002518 -36.420229999998568)",1056440,Mahurangi Four Square,"supermarket, groceries, Lotto",http://www.foursquare.co.nz,"Mahurangi East Road, Snells Beach, Mahurangi",(09) 425 5503,,2006-10-29 13:28:31,2007-05-07 16:43:39,174.72337,-36.42023
"POINT (174.79348200000311 -36.889729999998139)",1030240,Greenlane Foodtown,"supermarket, Lotto",http://www.progressive.co.nz,"326 Great South Road, Greenlane",(09) 520 1042,Mon - Sun 24 hours,2006-08-31 13:53:08,2007-03-18 19:03:46,174.793482,-36.88973
"POINT (176.981544000210903 -37.963459999760403)",1029700,Whakatane Countdown,supermarket,http://www.progressive.co.nz,"Cnr King & Stewart Sts, Whakatane",(07) 308 6925,"Mon - Sun, 7am - 9pm",2006-08-31 13:52:55,2007-04-17 21:26:16,176.981544,-37.9634599998
"POINT (176.910777000174392 -39.492249999763793)",1029640,Napier Woolworths,supermarket,http://www.progressive.co.nz,"36 Carlyle St, Napier",(06) 835 3643,"Mon - Sun, 6am - 10pm",2006-08-31 13:52:54,2006-09-01 11:55:24,176.910777,-39.4922499998
"POINT (174.83816400000353 -36.908724999997823)",1030280,Mt Wellington Countdown,supermarket,http://www.progressive.co.nz,"Cnr Penrose Rd & Mt Wellington Highway, Mt Wellington",(09) 570 5702,"Mon - Sun, 24 hours",2006-08-31 13:53:09,2007-04-15 15:17:38,174.838164,-36.908725
"POINT (170.231187999981188 -45.856597999960528)",1054940,Mitchells Family Four Square Supermarket,"supermarket, groceries",,"43 Holyhead Street, Outram",(03) 486 1723,,2006-10-29 13:27:17,2006-10-29 13:27:17,170.231188,-45.856598
"POINT (172.692593 -43.512045)",1094490,Pak n' Save Wainoni,Supermarket,http://www.paknsave.co.nz,"174 Wainoni Road, Wainoni, Christchurch",(03) 373 9005,"7am - 10pm, 7 Days a week",2007-02-09 12:57:35,2007-02-09 12:57:35,172.692593,-43.512045
"POINT (169.194499999918719 -45.037749999741592)",1030640,New World Cromwell,"supermarket, Lotto",http://www.newworld.co.nz,"Cnr Murray Terrace and Waenga Drive, Cromwell",(03) 445 1577,"Mon-Fri 8am-8pm, Sat-Sun 8am-7pm",2006-08-31 14:05:13,2007-03-18 18:54:51,169.1945,-45.0377499997
"POINT (172.729679 -43.506628)",1029210,New Brighton Woolworths,supermarket,http://www.progressive.co.nz,"12 Hawke St, New Brighton, Christchurch",(03) 388 9206,"Mon - Sun, 7am - 10pm",2006-08-31 13:52:44,2007-02-10 18:35:51,172.729679,-43.506628
"POINT (169.387064999934637 -45.250057999809307)",1030650,New World Alexandra,"supermarket, Lotto",http://www.newworld.co.nz,"89 Centennial Avenue, Alexandra",(03) 448 6955,"Mon-Sat 8.30am-8.00pm, Sun 8.30am-7.00pm",2006-08-31 14:05:13,2007-03-18 15:02:47,169.387065,-45.2500579998
"POINT (174.841109000003172 -41.133239999997159)",1029410,Porirua Countdown,"supermarket, Lotto",http://www.progressive.co.nz,"Cnr Parumoana Street & Lyttelton Ave, Porirua",(04) 237 6682,"Mon - Sun, 5am - Midnight",2006-08-31 13:52:49,2007-03-18 18:48:12,174.841109,-41.13324
"POINT (174.943843000004193 -41.260387999996055)",1029480,Wainuiomata Countdown,"supermarket, Lotto",http://www.progressive.co.nz,"Shopping Mall, Wainuiomata, Wellington",(04) 564 8129,"Mon - Sun, 6am-11pm",2006-08-31 13:52:50,2007-03-18 18:53:18,174.943843,-41.260388
"POINT (173.953507 -41.513872)",1029360,Blenheim Countdown,"supermarket, Lotto",http://www.progressive.co.nz,"Seymour Street, Blenheim",(03) 579 2945,"Mon - Sun, 7am - 10pm",2006-08-31 13:52:47,2007-03-18 18:32:07,173.953507,-41.513872
"POINT (170.506097999988754 -45.873841999978893)",1029270,Dunedin Countdown,"supermarket, Lotto",http://www.progressive.co.nz,"309 Cumberland Street Central, Dunedin",(03) 477 7283,"Mon - Sun, 24 hours",2006-08-31 13:52:45,2007-03-18 18:40:11,170.506098,-45.873842
"POINT (174.75482800000276 -36.909285999998346)",1030300,Three Kings Foodtown,"supermarket, Lotto",http://www.progressive.co.nz,"532 Mt Albert Road, Three Kings",(09) 625 8135,"Mon - Sun, 7am - 10pm",2006-08-31 13:53:10,2007-03-18 22:10:00,174.754828,-36.909286
"POINT (172.621608 -43.555546)",1029080,Barrington FreshChoice,"supermarket, bakery, delicatessen, butchery, Lotto",http://www.freshchoicebarrington.co.nz/,"Barrington Mall, Barrington St, Barrington, Christchurch",(03) 332 6364,7 days 7am-Midnight,2006-08-31 13:52:41,2007-03-18 22:20:53,172.621608,-43.555546
"POINT (174.794695000002747 -41.31949299999755)",1029440,Kilbirnie Woolworths,"supermarket, Lotto",http://www.progressive.co.nz,"47 Bay Rd, Kilbirnie, Wellington",(04) 387 2049,"Mon - Sun, 24 hours",2006-08-31 13:52:49,2007-03-17 18:39:46,174.794695,-41.319493
"POINT (174.082103000000217 -39.056966999999894)",1029620,New Plymouth Woolworths,"supermarket, Lotto",http://www.progressive.co.nz,"Cnr Cameron & Leach St, New Plymouth",(06) 759 7481,"Mon - Sun, 6am-midnight",2006-08-31 13:52:54,2007-03-17 18:43:02,174.082103,-39.056967
"POINT (175.272703000010779 -37.731013999991816)",1095450,Woolworths St James,"supermarket, Lotto",http://www.progressive.co.nz,"Cnr Hukanui & Thomas Rds, Rototuna",(07) 853 0017,7 days 7am-10pm,2007-03-17 18:49:10,2007-03-17 18:49:10,175.272703,-37.731014
"POINT (174.911420000004341 -36.933873999997267)",1031250,New World Botany Town Centre,"supermarket, Lotto",http://www.newworld.co.nz,"588 Chapel Road, Botany Downs, Auckland",(09) 271 1800,7am-10pm 7 days,2006-08-31 14:05:28,2007-03-17 19:38:04,174.91142,-36.933874
"POINT (174.619403000001824 -36.894053999998981)",1030420,Woolworths Quickstop @ Gull Henderson Valley,"Gull service station, petrol, supermarket, Lotto",http://www.woolworths.co.nz,"Cnr Henderson Valley Road & Forest Hill Road, Henderson Valley",(09) 838 4291,24 hrs 7 days,2006-08-31 13:53:13,2007-03-17 18:28:13,174.619403,-36.894054
"POINT (175.606756000020482 -40.348767999978193)",1029550,Palmerston North Woolworths,"supermarket, Lotto",http://www.progressive.co.nz,"Cnr Featherston & Rangitikei Sts, Palmerston North",(06) 354 5930,"Mon - Sun, 24 hours",2006-08-31 13:52:52,2007-03-17 18:51:58,175.606756,-40.348768
"POINT (174.748233000002699 -36.870832999998392)",1030430,Woolworths Quickstop @ Gull Kingsland,"petrol station, supermarket, Lotto",http://www.progressive.co.nz,"384-392 New North Road, Auckland",(09) 845 2952,"Mon - Sun, 24 hours",2006-08-31 13:53:13,2007-03-17 18:29:18,174.748233,-36.870833
"POINT (175.657825000022058 -40.952434999974706)",1029600,Masterton Woolworths,"supermarket, Lotto",http://www.progressive.co.nz,"Cnr Worksop & Queen St, Masterton",(06) 377 0050,"Mon - Sun, 7am - 9pm",2006-08-31 13:52:53,2007-03-17 18:41:15,175.657825,-40.952435
"POINT (175.071344000005922 -41.123017999994275)",1029480,Upper Hutt Countdown,"supermarket, Lotto",http://www.progressive.co.nz,"13-19 Queen Street, Upper Hutt",(04) 529 7390,"Mon - Sun, 7am - 11pm",2006-08-31 13:52:50,2007-03-18 18:52:58,175.071344,-41.123018
"POINT (172.588403 -43.517685)",1030560,New World Fendalton,"supermarket, Lotto",http://www.newworld.co.nz,"19-23 Memorial Ave, Christchurch",(03) 351 6251,"Mon-Wed & Fri 7.30am-7.30pm, Thurs 7.30am-8.30pm, Sat & Sun 8am-7.30pm",2006-08-31 14:05:11,2007-03-18 18:59:11,172.588403,-43.517685
"POINT (172.573113 -43.532232)",1029110,Church Corner Countdown,"supermarket, Lotto",http://www.progressive.co.nz,"Cnr Riccarton Road & Hansons Lane, Riccarton",(03) 348 3754,"Mon - Sun, 24 hours",2006-08-31 13:52:42,2007-03-18 18:39:17,172.573113,-43.532232
"POINT (175.273390000010778 -37.781840999991765)",1029830,Hamilton Countdown,"supermarket, Lotto",http://www.progressive.co.nz,"Cnr Anglesea & Liverpool Sts, Hamilton",(07) 834 1490,"Mon - Sun, 24 hours",2006-08-31 13:52:59,2007-03-18 18:40:54,175.27339,-37.781841
"POINT (168.357924999990786 -46.412445999116592)",1028990,Invercargill Countdown,"supermarket, Lotto",http://www.progressive.co.nz,"172 Tay Street, Invercargill",(03) 218 6716,"Mon - Sun, 8am - midnight",2006-08-31 13:52:38,2007-03-18 18:42:29,168.357925,-46.4124459991
"POINT (174.684280000002218 -36.907184999998712)",1030360,Lynnmall Foodtown,"supermarket, Lotto",http://www.progressive.co.nz,"Lynnmall Shopping Centre, 3058 Great North Rd, New Lynn",(09) 827 3352,7 days 6am-11pm,2006-08-31 13:53:11,2007-03-18 19:05:02,174.68428,-36.907185
"POINT (171.254096999997955 -44.402503999997613)",1029380,Timaru Countdown,"supermarket, Lotto",http://www.progressive.co.nz,"9 Browne Street, Timaru",(03) 688 9143,"Mon - Sun, 8am - 9pm",2006-08-31 13:52:48,2007-03-18 18:52:36,171.254097,-44.402504
"POINT (174.839473000003522 -36.91291099999782)",1028920,PAK 'n SAVE Sylvia Park,supermarket,http://www.paknsave.co.nz,"Mt Wellington Highway, Mount Wellington, Auckland",(09) 526 1790,"8am-10pm, 7 days a week",2006-08-31 11:40:21,2007-03-18 21:24:14,174.839473,-36.912911
"POINT (174.480830000001163 -35.769129999999457)",1092420,Parua Bay Four Square,"supermarket, groceries",http://www.foursquare.co.nz,"Whangarei Heads Rd, Parua Bay",(09) 436 2740,,2007-01-12 13:37:10,2007-01-12 13:37:31,174.48083,-35.76913
"POINT (175.942374000043571 -37.411722999962265)",1056110,Waihi Beach Four Square,"supermarket, groceries",http://www.foursquare.co.nz,"33 Wilson Road, Waihi Beach",(07) 863 5908,,2006-10-29 13:28:15,2006-10-29 13:28:15,175.942374,-37.411723
"POINT (175.755012000027477 -40.289626999969713)",1055480,Village Four Square and Lotto,"supermarket, groceries",http://www.foursquare.co.nz,"141 Cambridge Avenue, Ashurst",(06) 326 8014,,2006-10-29 13:27:44,2007-01-23 13:10:00,175.755012,-40.289627
"POINT (172.128491 -41.251551)",1055100,Karamea Four Square Supermarket,"supermarket, groceries, Lotto",http://www.foursquare.co.nz,"103 Bridge Street, Karamea",(03) 782 6701,,2006-10-29 13:27:25,2008-01-06 20:41:41,172.128491,-41.251551
"POINT (174.750653000002728 -36.694872999998402)",1056560,BK's Four Square,"supermarket, groceries",http://www.foursquare.co.nz,"1058 Beach Road, Torbay",(09) 473 6197,,2006-10-29 13:28:36,2006-10-29 13:28:36,174.750653,-36.694873
"POINT (174.777209000002955 -36.86683499999824)",1098240,T-Mark Supermarket Newmarket,"Asian supermarket, butchery, fruit & vegetables",http://www.tmark.co.nz,"4-6 Short Street, Newmarket, Auckland",(09) 522 2658,,2007-04-17 15:26:21,2007-04-25 19:24:20,174.777209,-36.866835
"POINT (175.038844000005724 -39.926349999995104)",1028780,PAK 'n SAVE Wanganui,supermarket,http://www.paknsave.co.nz,"167 Glasgow St, Wanganui",(06) 349 1230,"7am - 10pm, 7 days a week",2006-08-31 11:40:18,2006-09-01 11:55:19,175.038844,-39.92635
"POINT (175.282724000011001 -37.795541999991542)",1028860,PAK 'n SAVE Clarence Street,supermarket,http://www.paknsave.co.nz,"Clarence Street, Hamilton",(07) 839 4056,"7am-10pm, 7 days a week",2006-08-31 11:40:20,2007-01-06 14:50:27,175.282724,-37.795542
"POINT (174.913965000004339 -36.929490999997221)",1028900,PAK 'n SAVE Botany,"supermarket, Lotto",http://www.paknsave.co.nz,"Botany Town Centre, 501 Ti Rakau Drive, East Tamaki, Auckland",(09) 273 8887,"8am-10pm, 7 days a week",2006-08-31 11:40:20,2007-03-17 19:37:35,174.913965,-36.929491
"POINT (174.880034000003974 -36.987610999997493)",1028890,PAK 'n SAVE Manukau,"supermarket, Lotto",http://www.paknsave.co.nz,"67 Cavendish Drive, Manukau",(09) 263 6888,"8am-10pm, 7 days a week",2006-08-31 11:40:20,2007-05-14 22:09:41,174.880034,-36.987611
"POINT (174.89779500000418 -37.022634999997344)",1031240,New World Southmall,supermarket,http://www.newworld.co.nz,"Great South Road, Manurewa, Auckland",(09) 266 5151,"7am- 9pm, 7 days a week",2006-08-31 14:05:28,2007-01-17 15:38:40,174.897795,-37.022635
"POINT (175.612127000020678 -40.357779999977907)",1029550,Fitzherbert Ave Woolworths Micro @ Gull,"supermarket, petrol station",http://www.progressive.co.nz,"14 Fitzherbert Avenue, Palmerston North",(06) 353 6488,"Mon - Sun, 24 hours",2006-08-31 13:52:52,2006-09-30 18:31:53,175.612127,-40.35778
"POINT (175.629814000021497 -40.330531999977026)",1029560,Tremaine Ave Woolworths Quickstop @ Gull,"supermarket, petrol station",http://www.progressive.co.nz,"999 Tremaine Avenue, Palmerston North",(06) 355 8008,"Mon - Sun, 24 hours",2006-08-31 13:52:52,2006-09-30 18:32:31,175.629814,-40.330532
"POINT (176.818383000153631 -39.622017999793769)",1029670,Hastings Woolworths Quickstop @ Gull,"supermarket, petrol station",http://www.progressive.co.nz,"814 Omahu Rd, Hastings",(06) 873 4033,"Mon - Sun, 24 hours",2006-08-31 13:52:55,2006-09-30 18:29:34,176.818383,-39.6220179998
"POINT (176.2822170000764 -38.144274999923795)",1029720,Te Ngae Rd Woolworths Quickstop @ Gull,"supermarket, petrol station",http://www.woolworths.co.nz,"338-342 Te Ngae Rd, Rotorua",(07) 345 8071,"Mon - Sun, 24 hours",2006-08-31 13:52:56,2006-09-30 18:28:05,176.282217,-38.1442749999
"POINT (176.981984000211099 -37.958933999760319)",1029690,Landings Woolworths Quickstop @ Gull,"supermarket, petrol station",http://www.progressive.co.nz,"2-6 King St, Whakatane",(07) 307 8440,"Mon - Sun, 24 hours",2006-08-31 13:52:55,2006-11-10 18:26:30,176.981984,-37.9589339998
"POINT (176.095402000054719 -38.684815999944512)",1029740,Paetiki SuperValue,supermarket,http://www.progressive.co.nz,"224 Taharepa Road, Paetiki",(07) 378 7206,"Mon - Sun, 7am - 9pm",2006-08-31 13:52:57,2006-09-01 11:55:25,176.095402,-38.6848159999
"POINT (176.132353000060448 -37.727554999943948)",1029750,Greerton Countdown,supermarket,http://www.progressive.co.nz,"1368 Cameron Road, Tauranga",(07) 541 2244,"Mon - Sun, 8am - 9pm",2006-08-31 13:52:57,2006-09-01 11:55:25,176.132353,-37.7275549999
"POINT (174.933378000004609 -36.896363999997071)",1029970,Howick Foodtown,"supermarket, Lotto",http://www.progressive.co.nz,"35 Cook Street, Howick",(09) 255 2399,"Mon - Sun, 8am - 9pm",2006-08-31 13:53:02,2007-03-18 19:04:30,174.933378,-36.896364
"POINT (175.245388000010081 -37.796703999992346)",1029860,Dinsdale Woolworths,supermarket,http://www.progressive.co.nz,"47 Whatawhata Rd, Dinsdale, Hamilton",(07) 847 3569,"Mon - Sun, 7am - 11pm",2006-08-31 13:52:59,2007-03-04 10:41:24,175.245388,-37.796704
"POINT (174.75309500000273 -36.739683999998377)",1029960,Mairangi Bay Foodtown,"supermarket, Lotto",http://www.progressive.co.nz,"Hastings Road, Mairangi Bay",(09) 255 2392,"Mon - Sun, 7am - 10pm",2006-08-31 13:53:02,2007-03-18 19:05:29,174.753095,-36.739684
"POINT (174.902558000004234 -37.199534999997276)",1029950,Pukekohe Foodtown,"supermarket, Lotto",http://www.progressive.co.nz,"Tobin St, Pukekohe",(09) 237 1161,"Mon - Sun, 6am - Midnight",2006-08-31 13:53:01,2007-03-18 19:07:03,174.902558,-37.199535
"POINT (175.527869000019138 -37.657549999984582)",1029940,Morrinsville Countdown,supermarket,http://www.progressive.co.nz,"66 Studholme Street, Morrinsville",(07) 889 5254,"Mon - Sun, 8am - 9pm",2006-08-31 13:53:01,2006-09-01 11:55:26,175.527869,-37.65755
"POINT (174.932508000004617 -37.053471999997029)",1030000,Takanini Woolworths Quickstop @ Gull,"supermarket, petrol station",http://www.woolworths.co.nz,"330 Great South Road, Takanini",(09) 269 8514,"Mon - Sun, 24 hours",2006-08-31 13:53:02,2006-09-30 18:19:44,174.932508,-37.053472
"POINT (175.050350000006318 -36.795069999995853)",1030070,Waiheke Woolworths,supermarket,http://www.progressive.co.nz,"Ostend Road, Waiheke",(09) 372 1040,"Mon-Sun, 7am-9pm",2006-08-31 13:53:04,2007-01-15 09:41:53,175.05035,-36.79507
"POINT (174.731873000002565 -36.854350999998488)",1030090,Grey Lynn Woolworths,supermarket,http://www.progressive.co.nz,"271 Richmond Road, Grey Lynn",(09) 378 8631,"Mon - Sun, 6am - midnight",2006-08-31 13:53:05,2006-09-01 11:55:27,174.731873,-36.854351
"POINT (174.906710000004267 -36.899150999997303)",1030270,Highland Park Foodtown,supermarket,http://www.progressive.co.nz,"Cnr Aviemore Dr & Pakuranga Highway, Highland Park Mall, Highland Park",(09) 534 7149,"Mon - Sun, 7am - 10pm",2006-08-31 13:53:09,2007-01-25 15:52:23,174.90671,-36.899151
"POINT (174.927642000004539 -36.913648999997115)",1030260,Meadowlands Woolworths,supermarket,http://www.progressive.co.nz,"Cnr Meadowlands Drive & Whitford Rd, Meadowlands",(09) 533 7270,"Mon - Sun, 7am - 11pm",2006-08-31 13:53:09,2006-09-20 12:11:00,174.927642,-36.913649
"POINT (168.325465999983408 -46.141559999085985)",1030510,New World Winton,"supermarket, Lotto",http://www.newworld.co.nz,"293 Great North Road, Winton",(03) 236 7120,"Mon-Wed 8am-7pm, Thurs-Fri 8am-8pm,Sat-Sun 9am-7pm",2006-08-31 14:05:09,2007-03-18 14:59:40,168.325466,-46.1415599991
"POINT (168.361658999990681 -46.427303999120454)",1030500,New World Elles Road,"supermarket, Lotto",http://www.newworld.co.nz,"244 Elles Road, Invercargill",(03) 218 6811,"8am-9pm, 7 days a week",2006-08-31 14:05:09,2007-03-29 13:02:32,168.361659,-46.4273039991
"POINT (171.226371999997781 -44.390326999997392)",1030720,New World Timaru,supermarket,http://www.newworld.co.nz,"Highfield Mall, 145 Wai-iti Road, Timaru",(03) 684 5034,"Mon-Tues, Fri & Sat 8am-8pm, Wed-Thurs 8am-9pm,Sun 8.30am-7pm",2006-08-31 14:05:15,2006-09-01 11:55:30,171.226372,-44.390327
"POINT (174.706162000002365 -36.893021999998616)",1028940,PAK 'n SAVE Mt Albert,supermarket,http://www.paknsave.co.nz,"1167-1177 New North Rd, Mt Albert, Auckland",(09) 820 0218,"8am-10pm, 7 days a week",2006-08-31 11:40:21,2007-01-23 13:01:48,174.706162,-36.893022
"POINT (174.711633000002422 -36.811139999998595)",1031280,New World Birkenhead,supermarket,http://www.newworld.co.nz,"180 Mokoia Road, Birkenhead",(09) 419 8610,"8am- 10pm, 7 days a week",2006-08-31 14:05:29,2007-08-19 02:00:57,174.711633,-36.81114
"POINT (174.750978000002704 -36.848398999998388)",1031270,New World Victoria Park,"supermarket, Lotto",http://www.newworld.co.nz,"2 College Hill, Freemans Bay, Auckland",(09) 307 8400,"7am-midnight, 7 days a week",2006-08-31 14:05:29,2007-03-21 08:29:59,174.750978,-36.848399
"POINT (172.585237 -43.499445)",1029160,Wairakei SuperValue,supermarket,http://www.progressive.co.nz,"Cnr Wairakei Road & Springbank Street, Christchurch",(03) 359 8218,"Mon - Sun, 7am - 9pm",2006-08-31 13:52:43,2006-12-07 20:29:24,172.585237,-43.499445
"POINT (175.276090000010868 -37.786399999991701)",1096910,New Save Asian Supermarket Hamilton,"Supermarket, Asian food supplies",,"136 Tristram St, Hamilton",(07) 834 9989,7 days,2007-03-29 11:55:20,2007-03-29 11:55:20,175.27609,-37.7864
"POINT (168.942456999926037 -46.099768999608074)",1030480,New World Gore,"supermarket, Lotto",http://www.newworld.co.nz,"2 Irk Street, Gore",(03) 208 4139,"Mon-Fri 7.30am-9pm, Sat & Sun 8am-9pm",2006-08-31 14:05:09,2007-03-29 13:15:23,168.942457,-46.0997689996
"POINT (174.869654000003436 -41.223701999996905)",1119230,Davis Trading,Asian supermarket chinese oriental,http://www.chinaclick.co.nz,20 te puni street petone,04 568 2009,,2008-01-03 09:59:08,2008-01-03 09:59:08,174.869654,-41.223702
"POINT (175.041007000005749 -39.926147999995081)",1030910,New World Wanganui,"supermarket, Lotto",http://www.newworld.co.nz,"374 Victoria Ave, Wanganui",(06) 349 0990,"7am-10pm, 7 days a week",2006-08-31 14:05:20,2007-05-14 22:51:42,175.041007,-39.926148
"POINT (174.908288000003836 -41.209025999996477)",1030860,New World Hutt City,"supermarket, Lotto",http://www.newworld.co.nz,"Bloomfield Terrace, Lower Hutt",(04) 569 3027,7am-10pm 7 Days,2006-08-31 14:05:18,2007-05-07 16:47:26,174.908288,-41.209026
"POINT (174.944530000004704 -37.06394399999693)",1030050,Papakura Countdown,"supermarket, Lotto",http://www.progressive.co.nz,"2 Averill St, Papakura",(09) 298 5406,"Mon - Sun, 24 Hours",2006-08-31 13:53:04,2008-04-22 23:20:26,174.94453,-37.063944
"POINT (174.965924000004463 -41.170533999995797)",1055330,Pomare Four Square,"supermarket, groceries",http://www.foursquare.co.nz,"1333 High Street, Taita, Lower Hutt",(04) 567 3958,,2006-10-29 13:27:36,2007-01-23 13:09:50,174.965924,-41.170534
"POINT (175.773938000030796 -38.370184999971805)",1056200,Mangakino Four Square,"supermarket, groceries, Lotto",http://www.foursquare.co.nz,"Civic Centre, Rangatira Drive, Mangakino",(07) 882 8112,,2006-10-29 13:28:19,2007-11-16 11:13:19,175.773938,-38.370185
"POINT (176.256936000073296 -38.143670999927245)",1055900,Te Ngae Four Square,"supermarket, groceries",http://www.foursquare.co.nz,"Te Ngae Shopping Centre, 10 Te Ngae Rd, Te Ngae, Rotorua",(07) 345 3380,,2006-10-29 13:28:04,2006-10-29 13:28:05,176.256936,-38.1436709999
"POINT (176.9950570002147 -37.951016999755687)",1031070,New World Whakatane,"supermarket, Lotto",http://www.newworldwhakatane.co.nz/,"51 Kakahoroa Drive, Whakatane",(07) 306 0400,"8am-9pm, 7 days a week",2006-08-31 14:05:24,2007-07-25 12:18:40,176.995057,-37.9510169998
"POINT (173.278159 -41.275404)",1030700,New World Nelson,"supermarket, Lotto",http://www.newworld.co.nz,"Cnr Vanguard Street & Gloucester Street, Nelson",(03) 548 9111,"Mon-Sun 8am-8pm, 7 Days a week",2006-08-31 14:05:14,2007-06-23 23:23:46,173.278159,-41.275404
"POINT (175.649214000021658 -40.957603999975177)",1030970,New World Kuripuni,supermarket,http://www.newworld.co.nz,"432 Queen Street,Kuripuni,  Masterton",(06) 377 0850,"7 days a week, from 7.30am to 8pm",2006-08-31 14:05:21,2007-09-09 18:22:34,175.649214,-40.957604
"POINT (175.278497000010901 -37.750103999991673)",1029870,Chartwell Foodtown,supermarket,http://www.progressive.co.nz,"Lyndon Court, Chartwell, Hamilton",(07) 855 6069,"Mon - Sun, 7:30am - 9pm",2006-08-31 13:53:00,2007-01-06 19:08:38,175.278497,-37.750104
"POINT (175.662056000022204 -40.950309999974465)",1030960,New World Church Street,supermarket,http://www.newworld.co.nz,"4 Church Street, Masterton",(06) 377 0480,"8am-7pm, 7 days a week",2006-08-31 14:05:21,2006-09-01 11:55:32,175.662056,-40.95031
"POINT (168.296879000009056 -46.43199899904446)",1054520,Otatara Four Square Supermarket,"supermarket, groceries",http://www.foursquare.co.nz,"99 Dunns Road, Otatara",(03) 213 1334,,2006-10-29 13:14:21,2006-10-29 13:14:21,168.296879,-46.431998999
"POINT (175.523385000018919 -37.652559999984739)",1056220,Coronation Four Square,"supermarket, groceries",http://www.foursquare.co.nz,"126 Studholme Street, Morrinsville",(07) 889 7683,,2006-10-29 13:28:20,2006-10-29 13:28:20,175.523385,-37.65256
"POINT (174.792765000003101 -36.82910099999814)",1056550,Calliope Four Square,"supermarket, groceries",http://www.foursquare.co.nz,"31-33 Calliope Road, Devonport",(09) 445 3317,,2006-10-29 13:28:36,2006-10-29 13:28:36,174.792765,-36.829101
"POINT (168.392355999982129 -46.406028999155119)",1054540,Ascot Four Square Supermarket,"supermarket, groceries",http://www.foursquare.co.nz,"698 Tay Street, Invercargill",(03) 217 7106,,2006-10-29 13:14:22,2006-10-29 13:14:22,168.392356,-46.4060289992
"POINT (167.689043000390313 -46.135247998045585)",1054560,Dowlings Four Square Supermarket,"supermarket, groceries",http://www.foursquare.co.nz,"73 Main Street, Tuatapere",(03) 226 6250,,2006-10-29 13:14:23,2007-03-08 15:17:20,167.689043,-46.135247998
"POINT (172.729529 -43.154222)",1054640,Amberley Four Square Supermarket,"supermarket, groceries, Lotto",http://www.foursquare.co.nz,"94 Carters Road, Amberley",(03) 314 8229,,2006-10-29 13:27:03,2007-03-29 13:13:04,172.729529,-43.154222
"POINT (171.742539999999622 -43.886816999999667)",1054620,Hec's Four Square Supermarket,"supermarket, groceries",http://www.foursquare.co.nz,"98 Harrison Street, Ashburton",(03) 308 7711,,2006-10-29 13:27:02,2006-10-29 13:27:02,171.74254,-43.886817
"POINT (171.763206999999625 -43.903125999999702)",1054610,Netherby Four Square Supermarket,"supermarket, groceries, Lotto",http://www.foursquare.co.nz,"2 Bridge Street, Ashburton",(03) 308 6020,,2006-10-29 13:27:02,2007-05-14 22:36:51,171.763207,-43.903126
"POINT (172.685115 -42.967194)",1054640,Waikari Four Square Supermarket,"supermarket, groceries",http://www.foursquare.co.nz,"95 Princes Street, Waikari",(03) 314 4048,,2006-10-29 13:27:03,2006-10-29 13:27:03,172.685115,-42.967194
"POINT (173.039471 -42.65543)",1054650,Waiau Four Square,"supermarket, groceries",http://www.foursquare.co.nz,"3 Lyndon Street, Waiau",(03) 315 6124,,2006-10-29 13:27:03,2006-10-29 13:27:03,173.039471,-42.65543
"POINT (172.485223 -43.640454)",1054700,Lincoln Village Four Square Supermarket,"supermarket, groceries, Lotto",http://www.foursquare.co.nz,"5b Gerald Street, Lincoln",(03) 325 2629,,2006-10-29 13:27:06,2007-05-14 21:54:14,172.485223,-43.640454
"POINT (169.848800999967494 -46.279997999913263)",1054710,Mays Four Square Supermarket,"supermarket, groceries",http://www.foursquare.co.nz,"92 Eddystone Street, Kaitangata",(03) 413 9699,,2006-10-29 13:27:06,2006-10-29 13:27:06,169.848801,-46.2799979999
"POINT (174.456024000001065 -35.874237999999494)",1056490,Bream Bay Four Square,"supermarket, groceries",http://www.foursquare.co.nz,"Shop 2, Town Centre, Marsden Point Road, Bream Bay",(09) 432 7873,,2006-10-29 13:28:33,2007-09-10 20:42:13,174.456024,-35.874238
"POINT (169.728554999961744 -46.242105999891578)",1054750,Rosebank Four Square Supermarket,"supermarket, groceries",http://www.foursquare.co.nz,"180 Clyde Street, Balclutha",(03) 418 0811,,2006-10-29 13:27:08,2006-10-29 13:27:08,169.728555,-46.2421059999
"POINT (170.46975999998665 -44.733074999977809)",1054780,Kurow Four Square Supermarket,"supermarket, groceries",http://www.foursquare.co.nz,"49 Bledisloe Street, Kurow",(03) 436 0720,,2006-10-29 13:27:09,2006-10-29 13:27:09,170.46976,-44.733075
"POINT (175.281565000010062 -40.472464999990123)",1030930,New World Foxton,supermarket,http://www.newworld.co.nz,"Cnr Main & Whyte Streets, Foxton",(06) 363 7160,7 days 7am-8pm,2006-08-31 14:05:20,2007-03-08 15:27:19,175.281565,-40.472465
"POINT (168.661336999894331 -45.030468999434135)",1054800,Alpine Four Square Supermarket,"supermarket, groceries, Lotto",http://www.foursquare.co.nz,"Shotover Street, Queenstown",(03) 442 8961,,2006-10-29 13:27:11,2007-03-29 12:23:44,168.661337,-45.0304689994
"POINT (169.394716999935184 -45.253233999811691)",1054870,Tarbert St Four Square Supermarket,"supermarket, groceries",http://www.foursquare.co.nz,"91 Tarbert Street, Alexandra",(03) 448 8598,,2006-10-29 13:27:14,2006-10-29 13:27:14,169.394717,-45.2532339998
"POINT (170.715453999992491 -45.48525399998767)",1054910,East Otago Four Square Supermarket,"supermarket, groceries",http://www.foursquare.co.nz,"24 Sanday Street, Palmerston",(03) 465 1117,,2006-10-29 13:27:16,2006-10-29 13:27:16,170.715454,-45.485254
"POINT (173.269927 -41.281028)",1055000,Victory Four Square Supermarket,"supermarket, groceries, Lotto",http://www.foursquare.co.nz,"148 Toi Toi Street, Nelson",(03) 548 2500,,2006-10-29 13:27:20,2007-03-21 08:30:39,173.269927,-41.281028
"POINT (170.714468999992476 -45.484217999987628)",1054920,Palmerston Four Square Supermarket,"supermarket, groceries",http://www.foursquare.co.nz,"59 Tiverton Street, Palmerston",(03) 465 1164,,2006-10-29 13:27:16,2006-10-29 13:27:16,170.714469,-45.484218
"POINT (172.325699 -41.800286)",1054960,Murchison Four Square Supermarket,"supermarket, groceries, Lotto",http://www.foursquare.co.nz,"41 Fairfax Street, Murchison",(03) 523 9007,,2006-10-29 13:27:18,2007-05-14 22:34:08,172.325699,-41.800286
"POINT (173.042826 -41.406234)",1054970,Wakefield Four Square Supermarket,"supermarket, groceries",http://www.foursquare.co.nz,"22 Edward Street, Wakefield",(03) 541 8470,,2006-10-29 13:27:19,2006-10-29 13:27:19,173.042826,-41.406234
"POINT (173.969148000000104 -41.504526)",1055030,Riversdale Four Square Supermarket,"supermarket, groceries",http://www.foursquare.co.nz,"101 Budge Street, Blenheim",(03) 578 4992,,2006-10-29 13:27:21,2006-10-29 13:27:21,173.969148,-41.504526
"POINT (171.210394999997675 -44.385129999997247)",1055060,Morgans Road Four Square Supermarket,"supermarket, groceries",http://www.foursquare.co.nz,"55 Morgans Road, Timaru",(03) 686 0456,,2006-10-29 13:27:23,2006-10-29 13:27:23,171.210395,-44.38513
"POINT (170.969390999995113 -42.714004999994508)",1055080,Fitzherbert Street Four Square Supermarket,"supermarket, groceries, Lotto",http://www.foursquare.co.nz,"143 Fitzherbert Street, Hokitika",(03) 755 8165,,2006-10-29 13:27:24,2007-03-29 13:04:04,170.969391,-42.714005
"POINT (176.097375000051017 -40.210547999939166)",1030950,New World Dannevirke,"supermarket, Lotto",http://www.newworld.co.nz,"8 Barraud Street, Dannevirke",(06) 374 7039,"6am-10pm, 7 days a week",2006-08-31 14:05:20,2007-03-18 18:57:19,176.097375,-40.2105479999
"POINT (170.971284999995106 -42.719616999994528)",1055090,Stafford Street Four Square Supermarket,"supermarket, groceries",http://www.foursquare.co.nz,"140 Stafford Street, Hokitika",(03) 755 8442,,2006-10-29 13:27:24,2006-10-29 13:27:25,170.971285,-42.719617
"POINT (174.838100000003152 -41.108567999997199)",1055130,Titahi Bay Four Square,"supermarket, groceries",http://www.foursquare.co.nz,"13 Whitehouse Road, Titahi Bay",(04) 236 7450,,2006-10-29 13:27:26,2006-10-29 13:27:27,174.8381,-41.108568
"POINT (174.872997000003494 -41.137968999996858)",1055150,Astrolabe Four Square,"supermarket, groceries",http://www.foursquare.co.nz,"52 Astrolabe Street, Porirua",(04) 237 6274,,2006-10-29 13:27:27,2006-10-29 13:27:27,174.872997,-41.137969
"POINT (174.761853000002503 -41.289006999997802)",1055250,Kelburn Four Square Discount,"supermarket, groceries, Lotto",http://www.foursquare.co.nz,"97A Upland Road, Kelburn",(04) 475 9951,,2006-10-29 13:27:32,2007-05-07 16:54:43,174.761853,-41.289007
"POINT (174.954662000004333 -41.272507999995923)",1055290,Village Four Square Discount,"supermarket, groceries",http://www.foursquare.co.nz,"8 Moores Valley Road, Wainuiomata",(04) 564 6718,,2006-10-29 13:27:34,2006-10-29 13:27:34,174.954662,-41.272508
"POINT (174.922543000003969 -41.214228999996308)",1055300,Waterloo Four Square Discount,"supermarket, groceries",http://www.foursquare.co.nz,"13 Hardy Street, Waterloo",(04) 566 0550,,2006-10-29 13:27:35,2006-10-29 13:27:35,174.922543,-41.214229
"POINT (175.461691000014639 -41.079018999983923)",1055420,Trust House Four Square,"supermarket, groceries",http://www.foursquare.co.nz,"74-76 Main Street, Greytown",(06) 304 8525,,2006-10-29 13:27:41,2006-11-16 17:16:02,175.461691,-41.079019
"POINT (175.02474600000528 -40.86127399999507)",1055340,Waikanae Beach Four Square,"supermarket, groceries",http://www.foursquare.co.nz,"28 Tutere Street, Waikanae",(04) 902 6988,,2006-10-29 13:27:37,2006-10-29 13:27:37,175.024746,-40.861274
"POINT (174.82070800000298 -41.324655999997319)",1055380,Strathmore Four Square,"supermarket, groceries, lotto,liquor retailer, beer, wine",http://www.foursquare.co.nz,"502 Broadway, Strathmore, Wellington",(04) 939 8556,,2006-10-29 13:27:39,2007-05-27 20:20:24,174.820708,-41.324656
"POINT (170.508037999988773 -45.871088999978987)",1122470,Centre City New World,"Supermarket, groceries, food",http://www.newworld.co.nz/,"Great King Street, Dunedin",(03) 477 4677,7 days 8am-10pm,2008-04-29 21:17:23,2008-04-30 08:44:10,170.508038,-45.871089
"POINT (176.219482000068979 -38.129072999932191)",1055920,Western Heights Four Square,"supermarket, groceries",http://www.foursquare.co.nz,"4 Brookland Road, Rotorua",(07) 348 5147,,2006-10-29 13:28:05,2006-10-29 13:28:05,176.219482,-38.1290729999
"POINT (174.28628600000053 -35.59793299999977)",1056500,Hikurangi Four Square (Northland),"supermarket, groceries",http://www.foursquare.co.nz,"29 King Street, Hikurangi",(09) 433 8818,,2006-10-29 13:28:33,2006-10-29 13:28:33,174.286286,-35.597933
"POINT (175.56929200001909 -40.224005999980143)",1029510,Feilding Woolworths,"supermarket, Lotto",http://www.progressive.co.nz,"147 Kimbolton Rd , Feilding",(06) 323 3113,"Mon - Sun, 7am - 10pm",2006-08-31 13:52:51,2007-12-16 14:00:30,175.569292,-40.224006
"POINT (175.153710000007351 -40.763608999992904)",1030790,New World Otaki,supermarket,http://www.newworld.co.nz,"155-163 Main Highway, Otaki",(04) 364 8640,"7 days a week, from 7am to 10pm",2006-08-31 14:05:17,2007-09-20 19:48:15,175.15371,-40.763609
"POINT (176.086686000053874 -38.687849999945449)",1055970,Foodworld Four Square,"supermarket, groceries",http://www.foursquare.co.nz,"106 Rifle Range Road, Taupo",(07) 378 6207,,2006-10-29 13:28:08,2006-10-29 13:28:08,176.086686,-38.6878499999
"POINT (174.831225000003087 -41.323135999997227)",1055240,Seatoun Four Square Discount,"supermarket, groceries",http://www.foursquare.co.nz,"35 Falkirk Avenue, Seatoun",(04) 388 7061,,2006-10-29 13:27:32,2006-10-29 13:27:32,174.831225,-41.323136
"POINT (175.240756000009981 -37.752885999992458)",1031380,New World Te Rapa,"supermarket, Lotto",http://www.newworld.co.nz,"751 Te Rapa Road, Te Rapa",,"7:30am - 10pm, 7 days",2006-08-31 14:05:32,2007-05-14 22:50:55,175.240756,-37.752886
"POINT (173.950555000000122 -35.22581)",1031280,New World Kerikeri,"supermarket, Lotto",http://www.newworld.co.nz,"99 Kerikeri Road, Kerikeri",(09) 407 0200,"8am-9pm, 7 days a week",2006-08-31 14:05:29,2007-05-14 22:48:55,173.950555,-35.22581
"POINT (174.322257000000661 -35.683217999999712)",1030160,Tikipunga Countdown,"supermarket, Lotto",http://www.progressive.co.nz,"Cnr Paramount Parade & Wanaka St, Tikipunga",(09) 435 0855,7 days 7am-10pm,2006-08-31 13:53:07,2007-03-18 18:52:15,174.322257,-35.683218
"POINT (174.897194000003708 -41.28991599999658)",1055280,Eastbourne Four Square,"supermarket, groceries",http://www.foursquare.co.nz,"Cnr Rimu & Oroua Streets, Eastbourne",(04) 562 7343,,2006-10-29 13:27:34,2007-04-15 15:38:10,174.897194,-41.289916
"POINT (174.321127000000644 -35.708541999999717)",1030170,Kensington Woolworths,"supermarket, Lotto",http://www.progressive.co.nz,"1 Kensington Avenue, Whangarei",(09) 437 2077,"Mon - Sun, 7am - 10pm",2006-08-31 13:53:07,2007-10-11 00:16:15,174.321127,-35.708542
"POINT (174.725012000002522 -36.811307999998519)",1030480,Birkenhead Countdown,supermarket,http://www.progressive.co.nz,"Cnr Highbury Pass & Birkenhead Ave, Birkenhead",(09) 480 0675,"Mon - Sun, 7am - 10pm",2006-08-31 13:53:14,2007-08-19 00:42:43,174.725012,-36.811308
"POINT (171.74403399999963 -43.903468999999667)",1030510,New World Ashburton,"supermarket, Lotto",http://www.newworld.co.nz,"54 Park Street, Ashburton",(03) 308 4050,"8am-9pm, 7 days a week",2006-08-31 14:05:09,2007-10-16 17:54:39,171.744034,-43.903469
"POINT (175.705769000028084 -36.830404999978064)",1056140,Buffalo Beach Four Square,"supermarket, groceries",http://www.foursquare.co.nz,"3 Albert Street, Whitianga",(07) 866 5702,,2006-10-29 13:28:16,2006-10-29 13:28:16,175.705769,-36.830405
"POINT (175.139031000007094 -40.752378999993191)",1055200,Otaki Four Square Discount,"supermarket, groceries",http://www.foursquare.co.nz,"42 Main Street, Otaki",(04) 364 8009,,2006-10-29 13:27:30,2006-11-16 17:16:01,175.139031,-40.752379
"POINT (175.143185000007918 -37.404289999994369)",1056040,Te Kauwhata Four Square,"supermarket, groceries",http://www.foursquare.co.nz,"6 Main Rd, Te Kauwhata",(07) 826 3868,,2006-10-29 13:28:11,2007-03-08 15:24:13,175.143185,-37.40429
"POINT (174.786873000003055 -36.94272999999815)",1030330,Mangere Bridge SuperValue,supermarket,http://www.progressive.co.nz,"40 Coronation Road, Mangere Bridge",(09) 636 8424,"Mon - Sun, 6am - 9pm",2006-08-31 13:53:10,2007-07-10 16:20:23,174.786873,-36.94273
"POINT (174.796686000002779 -41.318607999997539)",1028770,PAK 'n SAVE Kilbirnie,supermarket,http://www.paknsavekilbirnie.co.nz,"78 Rongotai Road, Kilbirnie",(04) 801 5068,"6am - midnight, 7 days a week",2006-08-31 11:40:17,2008-05-04 11:41:05,174.796686,-41.318608
"POINT (170.970804999995778 -45.097260999994013)",1029220,Oamaru Countdown,supermarket,http://www.progressive.co.nz,"108-116 Thames St, Oamaru",(03) 434 8127,Mon-Sun 7am-9pm,2006-08-31 13:52:44,2006-09-01 11:55:21,170.970805,-45.097261
"POINT (174.014560000000131 -35.38751)",1056320,Moerewa Blue Lagoon Four Square,"supermarket, groceries",http://www.foursquare.co.nz,"Main Road, Moerewa, Northland",(09) 404 0734,,2006-10-29 13:28:25,2007-01-07 14:09:33,174.01456,-35.38751
"POINT (172.759945 -43.569509)",1029060,Sumner SuperValue,supermarket,http://www.progressive.co.nz,"Village Mall, Sumner",(03) 326 5688,"Mon - Sun, 7am - 8pm",2006-08-31 13:52:40,2007-04-15 15:04:00,172.759945,-43.569509
"POINT (176.254153000072989 -38.143258999927632)",1029730,Rotorua Countdown,"supermarket, Lotto",http://www.progressive.co.nz,"246 Fenton St, Rotorua",(07) 350 3277,"Mon - Sun, 24 hours",2006-08-31 13:52:56,2007-03-18 18:48:35,176.254153,-38.1432589999
"POINT (169.7431209999624 -46.238433999894433)",1030600,New World Balclutha,"supermarket, Lotto",http://www.newworld.co.nz,"9 Lanark Street, Balclutha",(03) 418 2850,"8am-7pm, 7 days a week",2006-08-31 14:05:12,2007-03-18 15:06:11,169.743121,-46.2384339999
"POINT (174.615711000001795 -36.866670999998995)",1030390,Swanson Gull Woolworths Quickstop,"supermarket, petrol station",http://www.progressive.co.nz,"222 Swanson Road, Henderson",(09) 836 3247,"Mon - Sun, 24 hours",2006-08-31 13:53:12,2006-09-01 11:55:28,174.615711,-36.866671
"POINT (175.273132000010776 -37.77953399999177)",1028870,PAK 'n SAVE Mill Street,supermarket,http://www.paknsave.co.nz,"Mill Street, Hamilton",(07) 839 7870,"8am-10pm, 7 days a week",2006-08-31 11:40:20,2007-01-06 14:53:42,175.273132,-37.779534
"POINT (174.881070000003973 -36.991439999997482)",1029980,Manukau Foodtown,supermarket,http://www.progressive.co.nz,"Shop 99, Westfield Manukau City",(09) 262 1908,"Mon - Sun, 8am -10pm",2006-08-31 13:53:02,2008-05-22 22:40:48,174.88107,-36.99144
"POINT (169.315285999933081 -45.540916999783462)",1054850,Roxburgh Four Square,"supermarket, groceries",http://www.foursquare.co.nz,"110 Scotland Street, Roxburgh",(03) 446 8282,,2006-10-29 13:27:13,2006-10-29 13:27:13,169.315286,-45.5409169998
"POINT (174.86922400000384 -37.033142999997565)",1031230,New World Clendon,"supermarket, Lotto",http://www.newworld.co.nz,"Clendon Town Centre, Roscommon Rd, Manurewa, Auckland",(09) 266 5010,"7am - 10pm, 7 days a week",2006-08-31 14:05:28,2007-11-11 21:51:09,174.869224,-37.033143
"POINT (175.915786000041322 -37.560069999963922)",1029760,KatiKati Woolworths,supermarket,http://www.progressive.co.nz,"123 - 131 Main Road, Katikati",(07) 549 0444,"Mon - Sun, 7am - 10pm",2006-08-31 13:52:57,2006-11-16 17:13:45,175.915786,-37.56007
"POINT (173.095809 -41.2532)",1054960,Mapua Four Square Supermarket,"supermarket, groceries, Lotto",http://www.foursquare.co.nz,"64 Aranui Road, Mapua",(03) 540 2890,,2006-10-29 13:27:18,2007-05-14 22:10:38,173.095809,-41.2532
"POINT (174.809749000003251 -36.897870999998034)",1056590,Ellerslie Four Square,"supermarket, groceries, Lotto",http://www.foursquare.co.nz,"126 Main Highway, Ellerslie",(09) 579 5259,,2006-10-29 13:28:38,2007-03-18 18:58:50,174.809749,-36.897871
"POINT (174.780248000002643 -41.314455999997655)",1030810,New World Newtown,supermarket,http://www.newworld.co.nz,"195 Riddiford Street, Newtown",(04) 389 7015,"7am-11pm, 7 days a week",2006-08-31 14:05:17,2007-11-04 16:05:39,174.780248,-41.314456
"POINT (174.730710000002517 -37.251589999998451)",1029950,Waiuku SuperValue,supermarket,http://www.progressive.co.nz,"67/69 Queen Street, Waiuku",(09) 235 9704,"Mon - Sun, 7am - 8pm",2006-08-31 13:53:01,2006-11-16 17:13:46,174.73071,-37.25159
"POINT (175.458127000014429 -41.219644999983956)",1055430,Jellicoe Street Four Square,"supermarket, groceries",http://www.foursquare.co.nz,"27 Jellicoe Street, Martinborough",(06) 306 9161,,2006-10-29 13:27:41,2006-10-29 13:27:41,175.458127,-41.219645
"POINT (175.755234000027485 -40.290237999969698)",1055490,Ashurst Four Square,"supermarket, groceries",http://www.foursquare.co.nz,"122 Cambridge Avenue, Ashurst",(06) 326 8104,,2006-10-29 13:27:44,2006-10-29 13:27:44,175.755234,-40.290238
"POINT (174.634372000001804 -39.76373799999871)",1055540,Waverley Four Square,"supermarket, groceries",http://www.foursquare.co.nz,"50 Weraroa Road, Waverley",(06) 346 5014,,2006-10-29 13:27:47,2006-10-29 13:27:47,174.634372,-39.763738
"POINT (175.633639000021617 -40.363074999976803)",1055600,Hokowhitu Four Square,"supermarket, groceries, Lotto",http://www.foursquare.co.nz,"354 Albert Street, Hokowhitu, Palmerston North",(06) 357 8680,,2006-10-29 13:27:50,2007-05-07 16:46:09,175.633639,-40.363075
"POINT (175.200287000008302 -40.55058899999203)",1055630,Waitarere Four Square,"supermarket, groceries",http://www.foursquare.co.nz,"651 Waitarere Beach Road, Waitarere",(06) 368 6104,,2006-10-29 13:27:51,2006-10-29 13:27:51,175.200287,-40.550589
"POINT (174.042528000000175 -39.067454)",1055680,Blagdon Four Square Discount,"supermarket, groceries, Lotto",http://www.foursquare.co.nz,"543 Devon St West, New Plymouth",(06) 751 2194,,2006-10-29 13:27:54,2007-03-18 15:08:59,174.042528,-39.067454
"POINT (174.045709000000159 -39.063341)",1055680,Moturoa Four Square,"supermarket, groceries",http://www.foursquare.co.nz,"3 Lawry Street, New Plymouth",(06) 751 1372,,2006-10-29 13:27:53,2006-10-29 13:27:53,174.045709,-39.063341
"POINT (174.085485000000261 -39.080510999999895)",1055710,Vogeltown Four Square Discount,"supermarket, groceries",http://www.foursquare.co.nz,"333 Carrington Street, New Plymouth",(06) 753 5014,,2006-10-29 13:27:55,2006-10-29 13:27:55,174.085485,-39.080511
"POINT (174.142898000000287 -39.03564799999986)",1055730,Bell Block Four Square,"supermarket, groceries",http://www.foursquare.co.nz,"941 Devon Road, Bell Block, New Plymouth",(06) 755 1159,,2006-10-29 13:27:56,2006-10-29 13:27:56,174.142898,-39.035648
"POINT (174.776485000002964 -36.86883399999823)",1098240,The Tofu Shop Newmarket,"Asian supermarket, imported and local groceries",,"8 Teed Street, Newmarket, Auckland",(09) 523 3373,,2007-04-17 15:26:18,2007-04-17 15:26:18,174.776485,-36.868834
"POINT (176.850717000160017 -39.628380999783019)",1055850,Mahora Four Square,"supermarket, groceries, Lotto",http://www.foursquare.co.nz,"525 Frederick Street, Hastings",(06) 878 3674,,2006-10-29 13:28:02,2007-05-07 16:43:57,176.850717,-39.6283809998
"POINT (177.286870000303196 -38.011199999626065)",1055870,Blue Moon Four Square,"supermarket, groceries, Lotto",http://www.foursquare.co.nz,"49 St John Street, Opotiki",(07) 315 6799,,2006-10-29 13:28:03,2007-03-18 15:11:05,177.28687,-38.0111999996
"POINT (176.285037000078091 -37.697636999925578)",1055980,Papamoa Four Square & Lotto,"supermarket, lotto, groceries",http://www.foursquare.co.nz,"544 Papamoa Beach Rd, Papamoa",(07) 542 0614,,2006-10-29 13:28:08,2006-10-29 13:28:08,176.285037,-37.6976369999
"POINT (176.325353000083084 -37.78397199991948)",1056000,Buyrite Four Square Te Puke,"supermarket, groceries, Lotto",http://www.foursquare.co.nz,"137 Jellicoe Street, Te Puke",(07) 573 7764,,2006-10-29 13:28:09,2007-03-18 15:24:29,176.325353,-37.7839719999
"POINT (176.135564000060867 -37.689623999943748)",1056010,Brookfield Four Square & Lotto,"supermarket, lotto, groceries",http://www.foursquare.co.nz,"Brookfield Shopping Centre, Cnr Bellevue & Otumoetai Road, Brookfield",(07) 576 5469,,2006-10-29 13:28:10,2007-04-15 15:56:46,176.135564,-37.6896239999
"POINT (174.946961000004762 -37.257288999996867)",1056250,Tuakau Four Square,"supermarket, groceries",http://www.foursquare.co.nz,"2 George Street, Tuakau",(09) 236 8128,,2006-10-29 13:28:22,2006-10-29 13:28:22,174.946961,-37.257289
"POINT (175.009900000005672 -36.782615999996317)",1056280,Oneroa Four Square,"supermarket, groceries",http://www.foursquare.co.nz,"151 Ocean View Rd, Oneroa, Waiheke",(09) 372 7150,,2006-10-29 13:28:23,2006-10-29 13:28:23,175.0099,-36.782616
"POINT (173.799921 -35.40744)",1056290,Kaikohe Four Square,"supermarket, groceries",http://www.foursquare.co.nz,"120 Broadway, Kaikohe",(09) 401 0303,,2006-10-29 13:28:23,2006-10-29 13:28:23,173.799921,-35.40744
"POINT (174.236599000000439 -39.000397999999755)",1030990,New World Waitara,supermarket,http://www.newworld.co.nz,"42 Queen Street, Waitara",(06) 754 8838,"8am-8pm, 7 days a week",2006-08-31 14:05:22,2008-06-15 16:49:33,174.236599,-39.000398
"POINT (174.575028000001595 -36.126280999999182)",1056470,Mangawhai Four Square,"supermarket, groceries, fruit & vegetables, wine & beer, hardware",http://www.foursquare.co.nz,"Moir Street, Mangawhai",(09) 431 4585,,2006-10-29 13:28:32,2007-01-22 10:44:59,174.575028,-36.126281
"POINT (174.586450000001633 -36.095049999999155)",1056480,Molesworth Four Square,"supermarket, groceries, Lotto, beer, wine",http://www.foursquare.co.nz,"3 Wood Street, Mangawhai Heads",(09) 431 4656,,2006-10-29 13:28:32,2007-04-30 09:14:47,174.58645,-36.09505
"POINT (175.543949000019978 -37.142816999984518)",1056600,Martina Four Square & Lotto,"supermarket, lotto, groceries",http://www.foursquare.co.nz,"307 Pollen Street, Thames",(09) 868 6482,,2006-10-29 13:28:38,2006-10-29 13:28:38,175.543949,-37.142817
"POINT (172.967144 -43.804962)",1054610,Akaroa Four Square Supermarket,"supermarket, groceries",http://www.foursquare.co.nz,"72 Rue Lavaud, Akaroa",(03) 304 7054,,2006-10-29 13:27:01,2006-10-29 13:27:01,172.967144,-43.804962
"POINT (170.917805999995181 -45.079933999993017)",1054760,Weston Four Square Supermarket,"supermarket, groceries",http://www.foursquare.co.nz,"21 Main Street, Weston",(03) 434 9886,,2006-10-29 13:27:09,2006-11-16 17:15:58,170.917806,-45.079934
"POINT (174.772895000002904 -36.845075999998251)",1030470,Auckland City Foodtown,supermarket,http://www.progressive.co.nz,"76 Quay St, Auckland Central",(09) 275 2567,"Mon - Sun, 24 hours",2006-08-31 13:53:14,2006-09-01 11:55:29,174.772895,-36.845076
"POINT (174.944787000004226 -41.260549999996044)",1030860,New World Wainuiomata,supermarket,http://www.newworld.co.nz,"Shop 10 The Mall, Wainuiomata",(04) 564 5303,"7am to 10pm, 7 days a week",2006-08-31 14:05:18,2006-11-19 01:22:55,174.944787,-41.26055
"POINT (170.50761899998875 -45.873128999978981)",1030670,New World Centre City,"supermarket, Lotto",http://www.newworld.co.nz,"Cumberland Street Central, Dunedin",(03) 477 4677,"8am-10pm, 7 days a week",2006-08-31 14:05:13,2007-04-15 15:55:05,170.507619,-45.873129
"POINT (176.134540000060753 -37.68939899994384)",1031120,New World Brookfield,"supermarket, Lotto",http://www.newworld.co.nz,"Bellevue Road, Otumoetai,Tauranga",(07) 576 2850,"7.30am-10pm, 7 days a week",2006-08-31 14:05:25,2007-04-15 15:53:01,176.13454,-37.6893989999
"POINT (171.245662999997933 -44.394930999997555)",1118260,Only Natural Organics,"Supermarket, food",,"30A Elizabeth Street, Seaview, Timaru",(03) 686 6613,"9am-5pm, Mon-Fri",2007-08-30 21:14:01,2007-09-06 18:58:46,171.245663,-44.394931
"POINT (175.288668000011171 -37.823022999991409)",1031140,New World Glenview,supermarket,http://www.newworld.co.nz,"Glenview Shopping Centre, Ohaupo Road, Hamilton",(07) 843 4452,"8am-8pm, 7 days a week",2006-08-31 14:05:26,2007-01-17 21:43:36,175.288668,-37.823023
"POINT (175.841815000032085 -40.452557999963204)",1030950,New World Pahiatua,supermarket,http://www.newworld.co.nz,"101-103 Main Street, Pahiatua",(06) 376 7453,"7.30am-7pm, 7 days a week",2006-08-31 14:05:21,2007-11-11 21:39:16,175.841815,-40.452558
"POINT (172.191745 -43.2979)",1029040,Oxford SuperValue,supermarket,http://www.progressive.co.nz,"52 Main Street, Oxford",(03) 312 4305,"Mon - Fri, 8am - 7pm, Sat, 9am - 5pm, Sun, 10am - 6pm",2006-08-31 13:52:40,2006-11-16 17:13:42,172.191745,-43.2979
"POINT (174.941611000004713 -37.059278999996948)",1030060,Papakura Woolworths,supermarket,http://www.progressive.co.nz,"90-96 Great South Road, Papakura, Auckland",(09) 299 8130,"Mon - Sun, 7am - 9pm",2006-08-31 13:53:04,2006-11-16 17:13:47,174.941611,-37.059279
"POINT (175.600714000020247 -40.359801999978487)",1030920,New World Pioneer,supermarket,http://www.newworld.co.nz,"179-197 Main Street, Palmerston North",(06) 357 6586,"7 days a week, from 6am to 11pm",2006-08-31 14:05:20,2006-11-16 17:13:50,175.600714,-40.359802
"POINT (175.037995000005651 -39.92460699999512)",1029540,Wanganui Woolworths,"supermarket, Lotto",http://www.progressive.co.nz,"438-450 Victoria Ave, Wanganui",(06) 348 9470,"Mon - Sun, 6am-midnight",2006-08-31 13:52:52,2007-09-19 19:42:05,175.037995,-39.924607
"POINT (174.926961000004496 -37.047397999997088)",1030060,Takanini Foodtown,supermarket,http://www.progressive.co.nz,"228 Great South Road, Takanini",(09) 299 9292,"Mon - Sun, 8:30am - 9pm",2006-08-31 13:53:04,2008-04-22 23:08:05,174.926961,-37.047398
"POINT (174.796336000003151 -36.829507999998107)",1031310,New World Devonport,"supermarket, Lotto",http://www.newworld.co.nz,"35 Bartley Terrace, Devonport, Auckland",(09) 445 1217,"7.30am-10pm, 7 days week",2006-08-31 14:05:30,2007-03-18 18:58:20,174.796336,-36.829508
"POINT (175.541904000019883 -37.138622999984591)",1056160,Thames Four Square,"supermarket, groceries",http://www.foursquare.co.nz,"527 Pollen Street, Thames",(07) 868 6318,,2006-10-29 13:28:17,2006-10-29 13:28:17,175.541904,-37.138623
"POINT (175.033970000005354 -41.137780999994852)",1055270,Trentham Four Square,"supermarket, groceries",http://www.foursquare.co.nz,"7 Camp Road, Trentham, Upper Hutt",(04) 528 4352,,2006-10-29 13:27:33,2007-11-05 19:52:03,175.03397,-41.137781
"POINT (174.855472000003687 -36.878377999997703)",1056570,Great Easton  Four Square,"supermarket, groceries",http://www.foursquare.co.nz,"Mayfair Place, Glen Innes",(09) 528 9888,,2006-10-29 13:28:37,2007-01-17 15:43:56,174.855472,-36.878378
"POINT (176.13264400006048 -37.72591399994392)",1056030,Greerton Four Square,"supermarket, groceries",http://www.foursquare.co.nz,"1313 Cameron Road, Tauranga",(07) 578 4729,,2006-10-29 13:28:11,2006-10-29 13:28:11,176.132644,-37.7259139999
"POINT (174.065677000000193 -35.380154)",1056310,Kawakawa Four Square,"supermarket, groceries",http://www.foursquare.co.nz,"Gillies Street, Kawakawa",(09) 404 0383,,2006-10-29 13:28:24,2007-01-07 14:08:09,174.065677,-35.380154
"POINT (171.645594999999417 -43.633341999999494)",1029020,Methven SuperValue,supermarket,http://www.progressive.co.nz,"The Mall, Methven",(03) 302 8050,Mon - Sun: 7am - 7pm,2006-08-31 13:52:39,2008-04-12 16:10:22,171.645595,-43.633342
"POINT (176.160883000063563 -37.696496999940926)",1028850,PAK 'n SAVE Tauranga,supermarket,http://www.paknsave.co.nz,"476 Cameron Road, Tauranga",(07) 578 7037,"8am-10pm, 7 days a week",2006-08-31 11:40:19,2006-09-01 11:55:19,176.160883,-37.6964969999
"POINT (173.87944 -39.191018)",1055700,Okato Four Square,"supermarket, groceries",http://www.foursquare.co.nz,"66 Carthew Street, Okato",(06) 752 4014,,2006-10-29 13:27:54,2006-10-29 13:27:54,173.87944,-39.191018
"POINT (172.107042 -43.488999)",1054670,Taeges Four Square Supermarket,"supermarket, groceries",http://www.foursquare.co.nz,"76 South Terrace, Darfield",(03) 318 8703,,2006-10-29 13:27:04,2006-10-29 13:27:04,172.107042,-43.488999
"POINT (170.098281999972528 -44.257494999950438)",1054770,Herrons Four Square Supermarket,"supermarket, groceries",http://www.foursquare.co.nz,"20 Market Place, Twizel",(03) 435 0875,,2006-10-29 13:27:09,2006-10-29 13:27:09,170.098282,-44.257495
"POINT (175.064934000005849 -40.875877999994444)",1029420,Waikanae Woolworths,supermarket,http://www.progressive.co.nz,"Ngaio Road, Waikanae, Wellington",(04) 293 5532,"Mon - Sun, 7am - 9pm",2006-08-31 13:52:49,2007-08-01 15:05:48,175.064934,-40.875878
"POINT (176.327694000083369 -37.786229999919129)",1031120,New World Te Puke,supermarket,http://www.newworld.co.nz,"13 Oxford St, Te Puke",(07) 573 0020,"8am-8pm, 7 days a week",2006-08-31 14:05:25,2006-09-01 11:55:32,176.327694,-37.7862299999
"POINT (168.345901000004659 -46.599548999098346)",1054510,Bluff Four Square Supermarket,"supermarket, groceries",http://www.foursquare.co.nz,"59 Gore Street, Bluff",(03) 212 8179,,2006-10-29 13:14:20,2006-10-29 13:14:21,168.345901,-46.5995489991
"POINT (172.59001 -43.50941)",1029120,Fendalton Village SuperValue,"supermarket, Lotto",http://www.progressive.co.nz,"Cnr Clyde & Ilam Roads, Christchurch",(03) 351 9075,"Mon - Fri, 8am - 9pm, Sat 8.30am - 8pm, Sun 8.30am - 7pm",2006-08-31 13:52:42,2007-03-27 23:19:18,172.59001,-43.50941
"POINT (172.587512 -43.48935)",1030570,New World Bishopdale,"supermarket, Lotto",http://www.newworld.co.nz,"Farrington Avenue, Bishopdale, Christchurch",(03) 359 8998,"Mon-Wed & Fri 8am-8pm, Thurs 8am-9pm, Sat-Sun 8.30am-7pm",2006-08-31 14:05:11,2007-03-18 15:08:38,172.587512,-43.48935
"POINT (172.608433 -43.491102)",1028710,PAK 'n SAVE Northlands,supermarket,http://www.paknsave.co.nz,"Northlands Shopping Centre, Main North Road, Christchurch",(03) 352 9872,"7am - Midnight, 7 days a week",2006-08-31 11:40:16,2006-12-07 20:39:48,172.608433,-43.491102
"POINT (175.843048000036248 -37.392867999969333)",1029880,Waihi Woolworths,supermarket,http://www.progressive.co.nz,"Cnr Rosemont Rd & Johnston St, Waihi",(07) 863 6840,"Mon - Sun, 7am - 9pm",2006-08-31 13:53:00,2006-12-29 19:47:07,175.843048,-37.392868
"POINT (174.913287000004345 -36.93006599999724)",1030460,Botany Downs Countdown,"supermarket, Lotto",http://www.progressive.co.nz,"The Hub, Botany Town Centre, Cnr Ti Rakau & Te Irirangi Drive, Botany Downs",(09) 272 3402,7 days 24 hrs,2006-08-31 13:53:14,2007-03-18 18:37:28,174.913287,-36.930066
"POINT (168.365778999987867 -46.39552299912588)",1030490,New World Windsor,"supermarket, Lotto",http://www.newworld.co.nz,"51 Windsor Street, Invercargill",(03) 217 7175,"8am-9pm, 7 days a week",2006-08-31 14:05:09,2007-03-18 14:58:57,168.365779,-46.3955229991
"POINT (171.601988999999264 -41.759761999999434)",1029400,Westport FreshChoice,"supermarket, Lotto",http://www.progressive.co.nz,"18 Fonblanque Street, Westport",(03) 789 8546,"Mon - Sun, 8am - 8pm",2006-08-31 13:52:48,2007-03-29 13:12:37,171.601989,-41.759762
"POINT (170.457417999987598 -45.867426999976303)",1054930,Brockville Four Square Supermarket,"supermarket, groceries",http://www.foursquare.co.nz,"279 Brockville Road, Dunedin",(03) 476 3401,,2006-10-29 13:27:17,2006-10-29 13:27:17,170.457418,-45.867427
"POINT (174.099576000000241 -39.049957999999883)",1055750,Fitzroy Four Square,"supermarket, groceries",http://www.foursquare.co.nz,"527 Devon Street East, New Plymouth",(06) 758 1922,,2006-10-29 13:27:57,2007-01-23 13:19:57,174.099576,-39.049958
"POINT (174.702423000002341 -36.922689999998624)",1030310,Blockhouse Bay Foodtown,supermarket,http://www.progressive.co.nz,"19 -29 Donovan Street, Blockhouse Bay",(09) 626 6052,"Mon - Sun, 8am - 9pm",2006-08-31 13:53:10,2007-01-23 13:21:38,174.702423,-36.92269
"POINT (170.479631999988129 -45.881020999977508)",1029250,Mailer Street Countdown,supermarket,http://www.progressive.co.nz,"43 Mailer Street, Dunedin",(03) 453 4361,"Mon - Sun, 8am - 9pm",2006-08-31 13:52:45,2006-09-01 11:55:22,170.479632,-45.881021
"POINT (176.072388000054531 -37.696164999950184)",1055990,Te Puna Four Square,"supermarket, groceries",http://www.foursquare.co.nz,"Main Road, Te Puna, Tauranga",(07) 552 5886,,2006-10-29 13:28:09,2008-05-24 17:23:49,176.072388,-37.696165
"POINT (169.13699799990934 -44.693758999720629)",1054820,Wanaka Four Square Supermarket,"supermarket, groceries",http://www.foursquare.co.nz,"78 Ardmore Street, Wanaka",(03) 443 7173,,2006-10-29 13:27:11,2006-10-29 13:27:11,169.136998,-44.6937589997
"POINT (168.658235999894401 -45.032068999431694)",1054800,Shotover St Four Square Supermarket,"supermarket, groceries",http://www.foursquare.co.nz,"53 Shotover Street, Queenstown",(03) 442 8225,,2006-10-29 13:27:10,2006-10-29 13:27:10,168.658236,-45.0320689994
